title,address,categories/0,categories/1,categories/2,categories/3,categories/4,categories/5,categories/6,categories/7,categories/8,categories/9,categoryName,cid,city,claimThisBusiness,countryCode,imageUrl,imagesCount,isAdvertisement,location/lat,location/lng,neighborhood,openingHours/0/day,openingHours/0/hours,openingHours/1/day,openingHours/1/hours,openingHours/2/day,openingHours/2/hours,openingHours/3/day,openingHours/3/hours,openingHours/4/day,openingHours/4/hours,openingHours/5/day,openingHours/5/hours,openingHours/6/day,openingHours/6/hours,permanentlyClosed,phone,phoneUnformatted,postalCode,rank,reviewsCount,reviewsDistribution/fiveStar,reviewsDistribution/fourStar,reviewsDistribution/oneStar,reviewsDistribution/threeStar,reviewsDistribution/twoStar,state,street,subTitle,totalScore,url,website
gujarat xerox,"dhanlaxmi avenue, Nirant Cross Rd, near jawahar chowk, Rambagh, Maninagar, Ahmedabad, Gujarat 380013, India",Copy shop,,,,,,,,,,Copy shop,1.30E+19,Ahmedabad,TRUE,IN,https://streetviewpixels-pa.googleapis.com/v1/thumbnail?panoid=A1IwW6uUPioSFVOXLXPcfw&cb_client=search.gws-prod.gps&w=408&h=240&yaw=33.17099&pitch=0&thumbfov=100,1,FALSE,22.9959973,72.597491,"Rambagh, Maninagar",Monday,9 AM to 10 PM,Tuesday,9 AM to 10 PM,Wednesday,9 AM to 10 PM,Thursday,9 AM to 10 PM,Friday,9 AM to 10 PM,Saturday,9 AM to 10 PM,Sunday,9 AM to 10 PM,FALSE,+91 93758 25148,9.19E+11,380013,2,10,,,,,,Gujarat,"dhanlaxmi avenue, Nirant Cross Rd, near jawahar chowk",ગુજરાત ઝેરોક્સ,2.9,https://www.google.com/maps/search/?api=1&query=gujarat%20xerox&query_place_id=ChIJ1yPB-OmFXjkR6F_aSjyZFLQ,https://www.xerox.com/
Sonal Xerox,"Mandir Complex, Gf2, Bhairavnath Rd, Opposite Jai Hind School, Panchvati Society, Daxini Society, Maninagar, Ahmedabad, Gujarat 380008, India",Digital printing service,,,,,,,,,,Digital printing service,8.57E+18,Ahmedabad,FALSE,IN,https://lh3.googleusercontent.com/p/AF1QipMOEgOWrFEIiq5A-og7PE34fbSdoWyrqB88ujHH=w408-h272-k-no,12,FALSE,22.9949022,72.6088671,"Panchvati Society, Daxini Society, Maninagar",Monday,10 AM to 8:30 PM,Tuesday,10 AM to 8:30 PM,Wednesday,10 AM to 8:30 PM,Thursday,10 AM to 8:30 PM,Friday,10 AM to 8:30 PM,Saturday,10 AM to 8:30 PM,Sunday,Closed,FALSE,+91 89056 02840,9.19E+11,380008,3,269,,,,,,Gujarat,"Mandir Complex, Gf2, Bhairavnath Rd, Opposite Jai Hind School",સોનલ ઝેરોક્સ,4.2,https://www.google.com/maps/search/?api=1&query=Sonal%20Xerox&query_place_id=ChIJP792K-eFXjkRW3AXG9zy_XY,http://www.sonalxerox.com/
Hello Xerox,"2J22+52H, Rambaug Kankariya Rd, Prankunj Society, Krishnakunj Society, Maninagar, Ahmedabad, Gujarat 380008, India",Copy shop,,,,,,,,,,Copy shop,1.77E+19,Ahmedabad,TRUE,IN,https://streetviewpixels-pa.googleapis.com/v1/thumbnail?panoid=ZJkkG0Dar194eB6XrP0agQ&cb_client=search.gws-prod.gps&w=408&h=240&yaw=239.67068&pitch=0&thumbfov=100,1,FALSE,23.0004308,72.6001069,"Prankunj Society, Krishnakunj Society, Maninagar",Monday,9 AM to 8:30 PM,Tuesday,9 AM to 8:30 PM,Wednesday,9 AM to 8:30 PM,Thursday,9 AM to 8:30 PM,Friday,9 AM to 8:30 PM,Saturday,9 AM to 8:30 PM,Sunday,9:30 AM to 1 PM,FALSE,+91 94279 60337,9.19E+11,380008,4,21,,,,,,Gujarat,"2J22+52H, Rambaug Kankariya Rd",હેલો ઝેરોક્ષ,4.4,https://www.google.com/maps/search/?api=1&query=Hello%20Xerox&query_place_id=ChIJAQAQp8OFXjkRfSWiF_JRl_U,
Shree Saikrupa Xerox Copy Center,"Shop No. 4, Krishnanand Complex, Near Prince Pavbhaji, Jawahar Chowk Char Rastha, Bhairavnath Rd, opposite Soham Plaza, Maninagar, Ahmedabad, Gujarat 380008, India",Copy shop,,,,,,,,,,Copy shop,2.36E+18,Ahmedabad,TRUE,IN,https://streetviewpixels-pa.googleapis.com/v1/thumbnail?panoid=aksH15aYAJLBiKSGezfyEQ&cb_client=search.gws-prod.gps&w=408&h=240&yaw=338.1387&pitch=0&thumbfov=100,1,FALSE,22.995346,72.604812,"Balvatika, Maninagar",Monday,9:30 AM to 9:30 PM,Tuesday,9:30 AM to 9:30 PM,Wednesday,9:30 AM to 9:30 PM,Thursday,9:30 AM to 9:30 PM,Friday,9:30 AM to 9:30 PM,Saturday,9:30 AM to 9:30 PM,Sunday,9:30 AM to 9:30 PM,FALSE,+91 93740 61034,9.19E+11,380008,5,17,,,,,,Gujarat,"Shop No. 4, Krishnanand Complex, Near Prince Pavbhaji, Jawahar Chowk Char Rastha, Bhairavnath Rd, opposite Soham Plaza",શ્રી સાઇકૃપા ઝેરોક્સ કોપી સેન્ટર,4.3,https://www.google.com/maps/search/?api=1&query=Shree%20Saikrupa%20Xerox%20Copy%20Center&query_place_id=ChIJn12tuOeFXjkRe2lhRY7sziA,
Janta Xerox - Digital Printing,"2, Anand Shopping Center, BRTS, Bhairavnath Rd, opp. Bhairavnath, Rambagh, Maninagar, Ahmedabad, Gujarat 380028, India",Digital printing service,Bookbinder,Graphic designer,Invitation printing service,Lamination service,Screen printing shop,Stationery store,,,,Digital printing service,6.42E+16,Ahmedabad,FALSE,IN,https://streetviewpixels-pa.googleapis.com/v1/thumbnail?panoid=t-03ttNoCFkZ847JPFnSbw&cb_client=search.gws-prod.gps&w=408&h=240&yaw=11.762504&pitch=0&thumbfov=100,1,FALSE,22.9955498,72.5994931,"Rambagh, Maninagar",Monday,9:30 AM to 9:30 PM,Tuesday,9:30 AM to 9:30 PM,Wednesday,9:30 AM to 9:30 PM,Thursday,9:30 AM to 9:30 PM,Friday,9:30 AM to 9:30 PM,Saturday,9:30 AM to 9:30 PM,Sunday,10 AM to 3 PM,FALSE,+91 98983 97056,9.20E+11,380028,7,73,,,,,,Gujarat,"2, Anand Shopping Center, BRTS, Bhairavnath Rd, opp. Bhairavnath",જનતા ઝેરોક્ષ,4.2,https://www.google.com/maps/search/?api=1&query=Janta%20Xerox%20-%20Digital%20Printing&query_place_id=ChIJ8_qnyIqEXjkR8Xtmhlvw4wA,
Radhey Xerox and Stationary - Best Digital Printing Shop in Maninagar | Lamination Remove & Hard Binding Shop in Maninagar,"No. 1, Mahalaxmi Market, 18, Maninagar Cross Rd, opp. Gandhi Complex, Balvatika, Maninagar, Ahmedabad, Gujarat 380008, India",Digital printing service,,,,,,,,,,Digital printing service,3.35E+18,Ahmedabad,FALSE,IN,https://lh3.googleusercontent.com/gps-cs-s/AC9h4nqfhXEXjTOZ3er50e9UxHuGY49tDC9wthhCKDcu6Mtp_8QqhWzCJpSENvCyPoNDkAlc4yTpeCsbZN3OdtPZGuU1lq9pJqzSDs9rXthpyGxI3jEvQSAyU0qDDBoxz2rGOCLmH4RSoQ=w408-h408-k-no,7,FALSE,22.9977189,72.6080147,"Balvatika, Maninagar",Monday,10 AM to 9 PM,Tuesday,10 AM to 9 PM,Wednesday,10 AM to 9 PM,Thursday,10 AM to 9 PM,Friday,10 AM to 9 PM,Saturday,10 AM to 9 PM,Sunday,10 AM to 2 PM,FALSE,+91 98240 00974,9.20E+11,380008,9,30,,,,,,Gujarat,"No. 1, Mahalaxmi Market, 18, Maninagar Cross Rd, opp. Gandhi Complex",,3.7,https://www.google.com/maps/search/?api=1&query=Radhey%20Xerox%20and%20Stationary%20-%20Best%20Digital%20Printing%20Shop%20in%20Maninagar%20%7C%20Lamination%20Remove%20%26%20Hard%20Binding%20Shop%20in%20Maninagar&query_place_id=ChIJ_____8KFXjkRr9YZkNloji4,
Shivam Xerox Copy Centre,"3, Krishnanand Complex, Near Prince Bhaji Pav, Opp.Soham Plaza, Jawhar Chowk Cross Road, Bhairavnath Rd, Maninagar, Ahmedabad, Gujarat 380008, India",Copy shop,,,,,,,,,,Copy shop,1.03E+19,Ahmedabad,TRUE,IN,https://lh3.googleusercontent.com/gps-cs-s/AC9h4noWf5y1zZUrJF9aU6BVpQDLZp_4xtGeXsdMPo8MOgM2pa7yXWZGO3ZvkLfd6aAvqFpD0gaG1bxRwUXzz1g5UPmDZxSUvZrWEjydb4lCP0iHCPCYrr2i97uWgE1dpZm-l9CQdtqj=w408-h306-k-no,7,FALSE,22.9949482,72.6048227,"Radhavallabh Colony, Maninagar",Monday,10 AM to 10 PM,Tuesday,10 AM to 10 PM,Wednesday,10 AM to 10 PM,Thursday,10 AM to 10 PM,Friday,10 AM to 10 PM,Saturday,10 AM to 10 PM,Sunday,10 AM to 4 PM,FALSE,+91 98798 15783,9.20E+11,380008,10,14,,,,,,Gujarat,"3, Krishnanand Complex, Near Prince Bhaji Pav, Opp.Soham Plaza, Jawhar Chowk Cross Road, Bhairavnath Rd",શિવમ ઝેરોક્સ કોપી સેન્ટર,3.7,https://www.google.com/maps/search/?api=1&query=Shivam%20Xerox%20Copy%20Centre&query_place_id=ChIJEQlNx-eFXjkRlvDMuuqbI48,
Parmar Xerox and Printing,"Neelam Kunj Society, nr. Mira Cinema, Shah-E-Alam Darwaja, P & T Colony, Maninagar, Ahmedabad, Gujarat 380028, India",Print shop,,,,,,,,,,Print shop,4.76E+17,Ahmedabad,FALSE,IN,https://streetviewpixels-pa.googleapis.com/v1/thumbnail?panoid=2pSHP3ELyb5XHBoufMVu0w&cb_client=search.gws-prod.gps&w=408&h=240&yaw=198.73206&pitch=0&thumbfov=100,1,FALSE,22.9975812,72.5924218,"Shah-E-Alam Darwaja, P & T Colony, Maninagar",Monday,8:30 AM to 10:30 PM,Tuesday,8:30 AM to 10:30 PM,Wednesday,8:30 AM to 10:30 PM,Thursday,8:30 AM to 10:30 PM,Friday,8:30 AM to 10:30 PM,Saturday,8:30 AM to 10:30 PM,Sunday,8:30 AM to 10:30 PM,FALSE,,,380028,11,1,,,,,,Gujarat,"Neelam Kunj Society, nr. Mira Cinema",,5,https://www.google.com/maps/search/?api=1&query=Parmar%20Xerox%20and%20Printing&query_place_id=ChIJtx7Tv0WFXjkRFV4CcF-GmgY,
Saniya Colour Xerox,"Shop No:#29, Alishan Complex, Lalbhai Kundiwala Marg, Danilimda, Ahmedabad, Gujarat 380028, India",Print shop,Fax service,Lamination service,,,,,,,,Print shop,8.26E+18,Ahmedabad,FALSE,IN,https://streetviewpixels-pa.googleapis.com/v1/thumbnail?panoid=B_oH6LR9I6WGdH-u9QZ6Bw&cb_client=search.gws-prod.gps&w=408&h=240&yaw=317.09552&pitch=0&thumbfov=100,1,FALSE,22.9960819,72.5798591,Danilimda,Monday,9:30 AM to 8:30 PM,Tuesday,9:30 AM to 8:30 PM,Wednesday,9:30 AM to 8:30 PM,Thursday,9:30 AM to 8:30 PM,Friday,9:30 AM to 8:30 PM,Saturday,9:30 AM to 8:30 PM,Sunday,Closed,FALSE,+91 98982 98166,9.20E+11,380028,14,1,,,,,,Gujarat,"Shop No:#29, Alishan Complex, Lalbhai Kundiwala Marg",સણીયા કલર ઝેરોક્સ,5,https://www.google.com/maps/search/?api=1&query=Saniya%20Colour%20Xerox&query_place_id=ChIJg3VlNL2FXjkRNodNkCCcqnI,
Gujarat Xerox,"Purshottam Mavlankar Marg, Ellisbridge, Ahmedabad, Gujarat 380007, India",Copy shop,,,,,,,,,,Copy shop,1.82E+18,Ahmedabad,FALSE,IN,https://lh3.googleusercontent.com/p/AF1QipN-y85W1LymcBVRL9dNnjpuF7Z6k6xsYXsC8PgU=w408-h625-k-no,3,FALSE,23.0232912,72.5670588,Ellisbridge,Monday,9 AM to 8 PM,Tuesday,9 AM to 8 PM,Wednesday,9 AM to 8 PM,Thursday,9 AM to 8 PM,Friday,9 AM to 8 PM,Saturday,9 AM to 8 PM,Sunday,11 AM to 2 PM,FALSE,+91 98797 99981,9.20E+11,380007,16,48,,,,,,Gujarat,Purshottam Mavlankar Marg,ગુજરાત ઝેરોક્સ,3.3,https://www.google.com/maps/search/?api=1&query=Gujarat%20Xerox&query_place_id=ChIJxaGal_iEXjkRz8JIwhJDPhk,
Krishna Xerox and Thesis Binding,"SHOP NO,4, JL Complex, JAWAHAR CHOWK CHAR RASTA, Bhairavnath Rd, near ILAJ MEDICAL, Balvatika, Maninagar East, Maninagar, Ahmedabad, Gujarat 380008, India",Print shop,,,,,,,,,,Print shop,1.83E+19,Ahmedabad,FALSE,IN,https://lh3.googleusercontent.com/gps-cs-s/AC9h4noXvSyj6kx1HP4lTgcLA6Dch5Q29S24E38sQdtQO8tnzi-AulEuMogfke0FUmabHsuixaxZ05k_aQBR61KBy50yxYPpZ0NDhrTo1YrjS_XBInleARAjui9x5rVO31LV85P2QxEe=w408-h541-k-no,4,FALSE,22.995329,72.6043314,"Balvatika, Maninagar East, Maninagar",Monday,9:30 AM to 9 PM,Tuesday,9:30 AM to 9 PM,Wednesday,9:30 AM to 9 PM,Thursday,9:30 AM to 9 PM,Friday,9:30 AM to 9 PM,Saturday,9:30 AM to 9 PM,Sunday,10 AM to 1 PM,FALSE,+91 77788 44446,9.18E+11,380008,17,96,,,,,,Gujarat,"SHOP NO,4, JL Complex, JAWAHAR CHOWK CHAR RASTA, Bhairavnath Rd, near ILAJ MEDICAL",થેસીસ બાઇન્ડીંગ,5,https://www.google.com/maps/search/?api=1&query=Krishna%20Xerox%20and%20Thesis%20Binding&query_place_id=ChIJwRD-w-eFXjkR2y6ogobDIP4,
Dhwani Zerox Centre,"2, Kashiwala Complex, Opposite Syndicate Bank, Near Swaminarayan Wadi, Old Railway Crossing, Bhairavnath Rd, Maninagar, Ahmedabad, Gujarat 380008, India",Copy shop,,,,,,,,,,Copy shop,4.86E+17,Ahmedabad,FALSE,IN,https://streetviewpixels-pa.googleapis.com/v1/thumbnail?panoid=lGmvb9EgH8Si6R_ZMc6r5g&cb_client=search.gws-prod.gps&w=408&h=240&yaw=353.53445&pitch=0&thumbfov=100,1,FALSE,22.9950432,72.6123288,Maninagar,Monday,9 AM to 8 PM,Tuesday,9 AM to 8 PM,Wednesday,9 AM to 8 PM,Thursday,9 AM to 8 PM,Friday,9 AM to 8 PM,Saturday,9 AM to 8 PM,Sunday,10:30 AM to 2:30 PM,FALSE,+91 79 2546 3587,9.18E+11,380008,18,16,,,,,,Gujarat,"2, Kashiwala Complex, Opposite Syndicate Bank, Near Swaminarayan Wadi, Old Railway Crossing, Bhairavnath Rd",ધ્વનિ ઝેરોક્સ સેન્ટર,3.4,https://www.google.com/maps/search/?api=1&query=Dhwani%20Zerox%20Centre&query_place_id=ChIJ_____8KFXjkR55zs0MQCwAY,
Shraddha Xerox,"96, Maneklal Kesavlal Chawal Opposite Parixitlalnagar, Lal Bahadur Shastri Nagar, Behrampura, Ahmedabad, Gujarat 380022, India",Print shop,,,,,,,,,,Print shop,1.58E+19,Ahmedabad,FALSE,IN,https://lh3.googleusercontent.com/p/AF1QipO6NLHziaB5PNCrq4a9zaJtiU51kFonhhTLfy2a=w426-h240-k-no,5,FALSE,23.004905,72.5873456,"Lal Bahadur Shastri Nagar, Behrampura",Monday,9 AM to 11 PM,Tuesday,9 AM to 11:30 PM,Wednesday,9 AM to 11:30 PM,Thursday,9 AM to 11:30 PM,Friday,9 AM to 11:30 PM,Saturday,9 AM to 11:30 PM,Sunday,9 AM to 11:30 PM,FALSE,+91 93765 17963,9.19E+11,380022,20,1,,,,,,Gujarat,"96, Maneklal Kesavlal Chawal Opposite Parixitlalnagar",,5,https://www.google.com/maps/search/?api=1&query=Shraddha%20Xerox&query_place_id=ChIJl28Q8rmFXjkRBJBRqPAIm9s,
Shree Umiya Xerox,"4, Gopal Complex, Krishna Bagh Cross Road, Maninagar, Mani Nagar, Ahmedabad, Gujarat 380008, India",Copy shop,,,,,,,,,,Copy shop,1.00E+19,Ahmedabad,TRUE,IN,https://lh3.googleusercontent.com/gps-cs-s/AC9h4nqzHs1ZoN2LgqaGnzNobENtv7kNwyDIXSVKrr4PE_aP2gbE4HRynz-WLoXF5HNdfrbixsk3qeGD21fdKlOVgw09RoDGd6qbQPitTU8M-soLcbyT64yTZ-Pjak5Ivs9qj4_5V7X0=w408-h906-k-no,2,FALSE,22.9996065,72.6002402,"Prankunj Society, Pushpkunj, Maninagar",,,,,,,,,,,,,,,FALSE,+91 98985 81713,9.20E+11,380008,33,9,6,1,1,1,0,Gujarat,"4, Gopal Complex, Krishna Bagh Cross Road, Maninagar, Mani Nagar",શ્રી ઉમિયા ઝેરોક્સ,4.2,https://www.google.com/maps/search/?api=1&query=Shree%20Umiya%20Xerox&query_place_id=ChIJ_____8KFXjkRJ7f2HdaAxIo,
LINK XEROX,"Sumandir Bungalow, 50/45a, Bhairavnath Rd, Vallabhhwadi, Archana Society, Bhairavnath, Maninagar, Ahmedabad, Gujarat 380008, India",Print shop,,,,,,,,,,Print shop,6.06E+18,Ahmedabad,FALSE,IN,https://lh3.googleusercontent.com/gps-cs-s/AC9h4nq9WUvTdnxP10R9BLxFHhuXpc7RClWcNOUsajQqXGttePWetHjt25C4i-qx1xF-jAnXmaNUumz9rQuVsAzLjnord-Rp_6vm9RKrLg3JBVOT4sfZeq9bs4BJ9VHSXQF7diN_aMWr=w408-h544-k-no,7,FALSE,22.9951138,72.6009242,"Vallabhhwadi, Archana Society, Bhairavnath, Maninagar",,,,,,,,,,,,,,,FALSE,,,380008,36,2,2,0,0,0,0,Gujarat,"Sumandir Bungalow, 50/45a, Bhairavnath Rd",,5,https://www.google.com/maps/search/?api=1&query=LINK%20XEROX&query_place_id=ChIJ2841SOiFXjkRwqrQCscWJ1Q,
Mahakali Xerox,"2HR8+4RM, Mahakali Xerox Sundhiya, Gam, Vadnagar, Gujarat 384355, India",Copy shop,Stationery store,,,,,,,,,Copy shop,1.36E+18,"Vadnagar, Ahmedabad",TRUE,IN,https://lh3.googleusercontent.com/gps-cs-s/AC9h4npL8E6Cgd0JH8iua4BjLfeS1vQxWzAOutyY3cPJyuUKRNIITyMOlZo95i3LomZDQvYaEkAHhfCMy_Z_S2WLJfQHHg7dgeF5vWLbCFqu85vlQKmIpH2jdeqscFTMz-fO8KzB5tXGVQ=w408-h725-k-no,11,FALSE,23.0403463,72.5670557,"Gam, Sattar Taluka Society, Usmanpura",Monday,8 AM to 10 PM,Tuesday,8 AM to 10 PM,Wednesday,8 AM to 10 PM,Thursday,8 AM to 10 PM,Friday,8 AM to 10 PM,Saturday,8 AM to 10 PM,Sunday,8 AM to 10 PM,FALSE,+91 73591 05661,9.17E+11,384355,1,164,,,,,,Gujarat,"2HR8+4RM, Mahakali Xerox Sundhiya",,4.5,https://www.google.com/maps/search/?api=1&query=Mahakali%20Xerox&query_place_id=ChIJu78SbQeFXjkRbwFwUSXI4xI,
Radhe xerox,"2HR9+P3C, Ghanshyam Avenue, opp. C U Shah college, Sattar Taluka Society, Usmanpura, Ahmedabad, Gujarat 380014, India",Copy shop,,,,,,,,,,Copy shop,1.16E+19,Ahmedabad,TRUE,IN,https://lh3.googleusercontent.com/gps-cs-s/AC9h4nrB8EOonDewJbw7FNaNlY-e_H76LIVKkBnA2hVS80YxQCH5MslmTV7nz4UfYNyQaw-qn_hW7d1B5qaahbZi24KQL_ViJMkSLkqJLphAyBaqlYhTNwHWGpPJBSBQ_X6fgM4Kn10S=w408-h544-k-no,24,FALSE,23.0418178,72.5676383,"Sattar Taluka Society, Usmanpura",Monday,8 AM to 9 PM,Tuesday,8 AM to 9 PM,Wednesday,8 AM to 9 PM,Thursday,8 AM to 9 PM,Friday,8 AM to 9 PM,Saturday,8 AM to 9 PM,Sunday,8 AM to 9 PM,FALSE,+91 93288 88112,9.19E+11,380014,2,31,,,,,,Gujarat,"2HR9+P3C, Ghanshyam Avenue, opp. C U Shah college",રાધે ઝેરોક્સ,4.8,https://www.google.com/maps/search/?api=1&query=Radhe%20xerox&query_place_id=ChIJGTeMErKFXjkRK4-lml7ajqA,
Meet Xerox,"Auda Complex, Municipal Market, 39, Ashram Rd, Soni Ni Chal, Usmanpura, Ahmedabad, Gujarat 380014, India",Copy shop,Typing service,,,,,,,,,Copy shop,5.10E+18,Ahmedabad,FALSE,IN,https://lh3.googleusercontent.com/p/AF1QipOBTNHx95Soj-YUQhHph5Z5btXg3CnwxzDQUSGz=w408-h543-k-no,7,FALSE,23.0453184,72.5710868,"Soni Ni Chal, Usmanpura",Monday,9 AM to 8 PM,Tuesday,9 AM to 8 PM,Wednesday,9 AM to 8 PM,Thursday,9 AM to 8 PM,Friday,9 AM to 8 PM,Saturday,9 AM to 8 PM,Sunday,Closed,FALSE,+91 99790 38192,9.20E+11,380014,3,20,,,,,,Gujarat,"Auda Complex, Municipal Market, 39, Ashram Rd",મિત ઝેરોક્સ,5,https://www.google.com/maps/search/?api=1&query=Meet%20Xerox&query_place_id=ChIJS_bP1WOEXjkRcoEbRFuZtUY,
Swastik Xerox,"Anupam Complex, Swastik Cross Road, Swastik Society Cross Rd, Swastik Society, Navrangpura, Ahmedabad, Gujarat 380009, India",Print shop,Copy shop,Pen store,,,,,,,,Print shop,1.08E+19,Ahmedabad,FALSE,IN,https://lh3.googleusercontent.com/p/AF1QipPYunnKMLTgMsDDKckTSff9CawvSoh5X0_naea0=w427-h240-k-no,9,FALSE,23.037145,72.5602266,"Swastik Society, Navrangpura",Monday,10 AM to 8:30 PM,Tuesday,10 AM to 8:30 PM,Wednesday,10 AM to 8:30 PM,Thursday,10 AM to 8:30 PM,Friday,10 AM to 8:30 PM,Saturday,10 AM to 8:30 PM,Sunday,Closed,FALSE,+91 93759 46635,9.19E+11,380009,4,135,,,,,,Gujarat,"Anupam Complex, Swastik Cross Road, Swastik Society Cross Rd",,4,https://www.google.com/maps/search/?api=1&query=Swastik%20Xerox&query_place_id=ChIJc_wpOfOEXjkRAyrdBm1_RJU,
NAVRANG XEROX,"112, Samapann Complex, opposite Havmor Restaurant, Swastik Society, Navrangpura, Ahmedabad, Gujarat 380009, India",Print shop,,,,,,,,,,Print shop,1.12E+19,Ahmedabad,FALSE,IN,https://lh3.googleusercontent.com/p/AF1QipMJbATlp0wLrrzHV6xA-txrUCs6vxqcdHOuXTFx=w408-h533-k-no,11,FALSE,23.0378266,72.5655353,"Swastik Society, Navrangpura",Monday,10 AM to 8 PM,Tuesday,10 AM to 8 PM,Wednesday,10 AM to 8 PM,Thursday,10 AM to 8 PM,Friday,10 AM to 8 PM,Saturday,10 AM to 8 PM,Sunday,Closed,FALSE,+91 98791 52329,9.20E+11,380009,5,10,,,,,,Gujarat,"112, Samapann Complex, opposite Havmor Restaurant",,4.6,https://www.google.com/maps/search/?api=1&query=NAVRANG%20XEROX&query_place_id=ChIJ4VEYXQeFXjkR_NMOAdUQxJo,
Morari Jumbo Xerox Centre,"5, Visharad Complex, Nehru Park, Gujarat High-court Lane, Navrangpura, Opposite Loha Bhavan, Navrangpura, Ahmedabad, Gujarat 380009, India",Copy shop,,,,,,,,,,Copy shop,2.53E+18,Ahmedabad,TRUE,IN,https://streetviewpixels-pa.googleapis.com/v1/thumbnail?panoid=AOoAM7e2LcVdVVbDI7FUrw&cb_client=search.gws-prod.gps&w=408&h=240&yaw=247.68869&pitch=0&thumbfov=100,1,FALSE,23.0388345,72.5678017,"Shreyas Colony, Navrangpura",Monday,Open 24 hours,Tuesday,Open 24 hours,Wednesday,Open 24 hours,Thursday,Open 24 hours,Friday,Open 24 hours,Saturday,Open 24 hours,Sunday,Open 24 hours,FALSE,+91 79 2752 2736,9.18E+11,380009,6,8,,,,,,Gujarat,"5, Visharad Complex, Nehru Park, Gujarat High-court Lane, Navrangpura, Opposite Loha Bhavan, Navrangpura",મોરારી જમ્બો ઝેરોક્સ સેન્ટર,4.1,https://www.google.com/maps/search/?api=1&query=Morari%20Jumbo%20Xerox%20Centre&query_place_id=ChIJW9Qi_1-EXjkRqvsSxD-GLSM,
Urgent Thesis { Shree Krishna xerox },"Oxford Avenue, A-22, Ashram Rd, opp. Cu Shah Commerce College, Chaitanya Nagar, Navrangpura, Ahmedabad, Gujarat 380014, India",Print shop,,,,,,,,,,Print shop,1.42E+19,Ahmedabad,FALSE,IN,https://lh3.googleusercontent.com/gps-cs-s/AC9h4nplD0mHdyFhGQPzQ40xMdUbpy_KQlklbknV41NXfYzHZW49NcumnHI74Ac5llhR0W70DuhQbEEuZUDtZWXgJeaQlWy3NVdzPIzMMXp8gBC9n7EKXZz60-Mcmp0a0aPHjgn0HU4j=w408-h723-k-no,22,FALSE,23.0421101,72.5683158,"Chaitanya Nagar, Navrangpura",Monday,9 AM to 9:30 PM,Tuesday,9 AM to 9:30 PM,Wednesday,9 AM to 9:30 PM,Thursday,9 AM to 9:30 PM,Friday,9 AM to 9:30 PM,Saturday,9 AM to 9:30 PM,Sunday,11 AM to 8:30 PM,FALSE,+91 99240 32032,9.20E+11,380014,8,14,,,,,,Gujarat,"Oxford Avenue, A-22, Ashram Rd, opp. Cu Shah Commerce College",,4.9,https://www.google.com/maps/search/?api=1&query=Urgent%20Thesis%20%7B%20Shree%20Krishna%20xerox%20%7D&query_place_id=ChIJ0xurko6EXjkReTvk-o4lnMU,
Patel Stationers & Xerox,"G F 1, Piyuraj Complex, Chimanlal Girdharlal Rd, Vasant Vihar, Navrangpura, Ahmedabad, Gujarat 380009, India",Copy shop,Computer store,Stationery store,Office supply store,,,,,,,Copy shop,1.37E+19,Ahmedabad,FALSE,IN,https://lh3.googleusercontent.com/gps-cs-s/AC9h4nqhWJy5HBm-REJUbJWexdOyUJqj0j4VTzNnF242DZLfMDKkIqGzE9EWUflWs_huJRbkVbXbWA0zOYDO6qj1WEqm86GRYquAr-GM9q5Jxbj6HovTjRCJRknCiHhx2Kp3BB2EjsuL=w408-h544-k-no,37,FALSE,23.0366758,72.5605382,"Vasant Vihar, Navrangpura",Monday,9:30 AM to 10:30 PM,Tuesday,9:30 AM to 10:30 PM,Wednesday,9:30 AM to 10:30 PM,Thursday,9:30 AM to 10:30 PM,Friday,9:30 AM to 10:30 PM,Saturday,9:30 AM to 10:30 PM,Sunday,Closed,FALSE,+91 94262 86695,9.19E+11,380009,9,38,,,,,,Gujarat,"G F 1, Piyuraj Complex, Chimanlal Girdharlal Rd",પટેલ સ્ટેશનર્સ & ઝેરોક્સ,3.3,https://www.google.com/maps/search/?api=1&query=Patel%20Stationers%20%26%20Xerox&query_place_id=ChIJmaIna_OEXjkRkd5dnfgb5r0,
SONAL XEROX,"Anupam-2 Swastik Char Rasta, B-2, Commerce College Rd, below Jain Dairy, opp. Fairdeal house, Navrangpura, Ahmedabad, Gujarat 380009, India",Print shop,Banner store,Commercial printer,Copy shop,Custom label printer,Lamination service,Map store,Offset printing service,Digital printing service,Vinyl sign shop,Print shop,7.58E+18,Ahmedabad,FALSE,IN,https://lh3.googleusercontent.com/gps-cs-s/AC9h4nqNr2ayXfmZv6bzhM3I40GJar6VgcCqLYd6kzviMVZ-mRVtCTd6twDLiCTj9QGFbcJV3wzoE_d6B97coPgPQNXOhKzauYV7WsWuOu34nhOt6ojMS2FATwVMrNIJcJhSUEwFMNs=w408-h306-k-no,11,FALSE,23.0372283,72.5600462,"Swastik Society, Navrangpura",Monday,10 AM to 8:30 PM,Tuesday,10 AM to 8:30 PM,Wednesday,10 AM to 8:30 PM,Thursday,10 AM to 8:30 PM,Friday,10 AM to 8:30 PM,Saturday,10 AM to 8:30 PM,Sunday,Closed,FALSE,+91 90167 38268,9.19E+11,380009,10,205,,,,,,Gujarat,"Anupam-2 Swastik Char Rasta, B-2, Commerce College Rd, below Jain Dairy, opp. Fairdeal house",સોનલ ઝેરોક્સ,4.6,https://www.google.com/maps/search/?api=1&query=SONAL%20XEROX&query_place_id=ChIJ6TxhOfOEXjkRgqHBlgSSQmk,
SONAL XEROX,"14/15, Swastik Super Market, Sales India Lane, 14/15, Ashram Rd, Navrangpura, Ahmedabad, Gujarat 380008, India",Copy shop,Commercial printer,Digital printer,Digital printing service,Print shop,,,,,,Copy shop,1.72E+19,Ahmedabad,FALSE,IN,https://lh3.googleusercontent.com/gps-cs-s/AC9h4nrlrx-D8acmkyeo9x49RJoCvn2RHk5V2-TLRE1K6rQN_Jt4dgjB9L0gjTnr0QrWj532yAXTWTal61wDOYeJB7RnPd2OBp0k4IQqbwfJI0fOqgK6jXqC1UtooLHjSh1QEK5fbUEy=w408-h272-k-no,27,FALSE,23.0369233,72.569172,"Shreyas Colony, Navrangpura",Monday,10 AM to 8:30 PM,Tuesday,10 AM to 8:30 PM,Wednesday,10 AM to 8:30 PM,Thursday,10 AM to 8:30 PM,Friday,10 AM to 8:30 PM,Saturday,10 AM to 8:30 PM,Sunday,Closed,FALSE,+91 98794 25285,9.20E+11,380008,11,92,,,,,,Gujarat,"14/15, Swastik Super Market, Sales India Lane, 14/15, Ashram Rd",સોનલ ઝેરોક્ષ,3.9,https://www.google.com/maps/search/?api=1&query=SONAL%20XEROX&query_place_id=ChIJewBWjfaEXjkRtoEmPi6b3-4,http://www.sonalxerox.com/
Krishna xerox,"Ajanta chamber, Income tax circle, opposite GUJARAT VIDYAPITH, Sattar Taluka Society, Usmanpura, Ahmedabad, Gujarat 380014, India",Print shop,,,,,,,,,,Print shop,8.15E+18,Ahmedabad,FALSE,IN,https://lh3.googleusercontent.com/p/AF1QipNkVk8_utBxSpgH4CmFqEX9TL64ESgp87H-_K0O=w408-h544-k-no,3,FALSE,23.044255,72.5667497,"Sattar Taluka Society, Usmanpura",Monday,8:30 AM to 8 PM,Tuesday,8:30 AM to 8 PM,Wednesday,8:30 AM to 8 PM,Thursday,8:30 AM to 8 PM,Friday,8:30 AM to 8 PM,Saturday,8:30 AM to 8 PM,Sunday,8:30 AM to 2 PM,FALSE,+91 96244 42094,9.20E+11,380014,12,4,,,,,,Gujarat,"Ajanta chamber, Income tax circle, opposite GUJARAT VIDYAPITH",,5,https://www.google.com/maps/search/?api=1&query=Krishna%20xerox&query_place_id=ChIJS97VmKCFXjkRgwGHmD22DXE,
Khushboo Xerox,"G7,G7/A,C9, Liberty Complex, Swastik Society Cross Rd, Swastik Society, Navrangpura, Ahmedabad, Gujarat 380009, India",Print shop,,,,,,,,,,Print shop,9.86E+18,Ahmedabad,FALSE,IN,https://lh3.googleusercontent.com/p/AF1QipOYLl1CrnYvZvWkt3vpU31McMKwDv0pVRZbPg2R=w408-h544-k-no,24,FALSE,23.0376399,72.5592686,"Swastik Society, Navrangpura",Monday,10 AM to 9 PM,Tuesday,10 AM to 9 PM,Wednesday,10 AM to 9 PM,Thursday,10 AM to 9 PM,Friday,10 AM to 9 PM,Saturday,10 AM to 9 PM,Sunday,11 AM to 2 PM,FALSE,+91 76005 03830,9.18E+11,380009,13,111,,,,,,Gujarat,"G7,G7/A,C9, Liberty Complex, Swastik Society Cross Rd",ખુશ્બૂ ઝેરોક્સ,4.3,https://www.google.com/maps/search/?api=1&query=Khushboo%20Xerox&query_place_id=ChIJX9otKnWFXjkR-IykARrm3Ig,
Hastmilap Xerox,"Sukhsagar Complex, Shop. 17 Ground Floor, Ashram Rd, Shanti Nagar, Usmanpura, Ahmedabad, Gujarat 380013, India",Print shop,,,,,,,,,,Print shop,1.13E+18,Ahmedabad,TRUE,IN,https://lh3.googleusercontent.com/gps-cs-s/AC9h4nqJkBKmzdkKKahBPxNqCcXOLRejbhyydMNVu77pIMVTLskuAutA9KT3gdKuoOXEenLWdGlHR-BKRpPNRpgKDtOqh8JVddwgAig_UAzK-Mg0Zi-Ocb-APEwhQMqClx3FGPyXnKD2oA=w408-h544-k-no,2,FALSE,23.0485827,72.5706363,"Shanti Nagar, Usmanpura",Monday,9 AM to 8:30 PM,Tuesday,9 AM to 8:30 PM,Wednesday,9 AM to 8:30 PM,Thursday,9 AM to 8:30 PM,Friday,9 AM to 8:30 PM,Saturday,9 AM to 8:30 PM,Sunday,Closed,FALSE,,,380013,14,2,,,,,,Gujarat,"Sukhsagar Complex, Shop. 17 Ground Floor, Ashram Rd",હસ્તમિલાપ ઝેરોક્સ,3,https://www.google.com/maps/search/?api=1&query=Hastmilap%20Xerox&query_place_id=ChIJb8AN9SKFXjkRfDS6Ffbqvg8,
VEERTI XEROX AND STATIONERY,"3,G/F, Narnarayan Complex, Navrangpura Rd, near Swastik Char Rasta, Swastik Society, Navrangpura, Ahmedabad, Gujarat 380009, India",Copy shop,Pen store,,,,,,,,,Copy shop,1.17E+19,Ahmedabad,FALSE,IN,https://lh3.googleusercontent.com/p/AF1QipOqjIf8ipV3-Kk4SZ882QCwbMjyRoq3jy3pvZqV=w408-h306-k-no,45,FALSE,23.0362909,72.5622925,"Swastik Society, Navrangpura",Monday,9:30 AM to 9 PM,Tuesday,9:30 AM to 9 PM,Wednesday,9:30 AM to 9 PM,Thursday,9:30 AM to 9 PM,Friday,9:30 AM to 9 PM,Saturday,9:30 AM to 9 PM,Sunday,10 AM to 4 PM,FALSE,+91 98250 53503,9.20E+11,380009,15,92,,,,,,Gujarat,"3,G/F, Narnarayan Complex, Navrangpura Rd, near Swastik Char Rasta",,4.4,https://www.google.com/maps/search/?api=1&query=VEERTI%20XEROX%20AND%20STATIONERY&query_place_id=ChIJR4ozm_SEXjkRBlRlE86YbaI,
Star Xerox,"22, AUDA Office, Soni Ni Chal, Usmanpura, Ahmedabad, Gujarat 380014, India",Copy shop,Store,,,,,,,,,Copy shop,9.59E+18,Ahmedabad,TRUE,IN,https://streetviewpixels-pa.googleapis.com/v1/thumbnail?panoid=QkiJyWcE1IJKpfexbIB9xA&cb_client=search.gws-prod.gps&w=408&h=240&yaw=88.910736&pitch=0&thumbfov=100,1,FALSE,23.0455078,72.5705535,"Soni Ni Chal, Usmanpura",,,,,,,,,,,,,,,FALSE,+91 98982 53080,9.20E+11,380014,16,2,,,,,,Gujarat,"22, AUDA Office",,4,https://www.google.com/maps/search/?api=1&query=Star%20Xerox&query_place_id=ChIJ70Mkpe2FXjkRGpuZKi9tDYU,
Vijay Xerox,"National Chamber, Ashram Rd, near City Gold Cinema, Shreyas Colony, Navrangpura, Ahmedabad, Gujarat 380007, India",Copy shop,,,,,,,,,,Copy shop,3.77E+18,Ahmedabad,FALSE,IN,https://streetviewpixels-pa.googleapis.com/v1/thumbnail?panoid=jAYIcrMI_6GkAxR01SM1rQ&cb_client=search.gws-prod.gps&w=408&h=240&yaw=264.7921&pitch=0&thumbfov=100,1,FALSE,23.0378369,72.5690414,"Shreyas Colony, Navrangpura",,,,,,,,,,,,,,,FALSE,+91 79 2657 4506,9.18E+11,380007,17,2,,,,,,Gujarat,"National Chamber, Ashram Rd, near City Gold Cinema",વિજય ઝેરોક્સ,1.5,https://www.google.com/maps/search/?api=1&query=Vijay%20Xerox&query_place_id=ChIJ_9cleXeEXjkRMbXix_6fQzQ,
Harish Duplicators (Rubber Stamp & Xerox Store),"Siddharth Complex, 2-3/A, Ashram Rd, near Dinesh Hall, Shreyas Colony, Navrangpura, Ahmedabad, Gujarat 380009, India",Print shop,Lamination service,Rubber stamp store,,,,,,,,Print shop,1.09E+18,Ahmedabad,FALSE,IN,https://lh3.googleusercontent.com/p/AF1QipM7GFhbYfv_wttsYv19dMJnSwhTz2Q33vyIX3Gq=w420-h240-k-no,19,FALSE,23.0398643,72.5705957,"Shreyas Colony, Navrangpura",Monday,9:30 AM to 7 PM,Tuesday,9:30 AM to 7 PM,Wednesday,9:30 AM to 7 PM,Thursday,9:30 AM to 7 PM,Friday,9:30 AM to 7 PM,Saturday,9:30 AM to 7 PM,Sunday,Closed,FALSE,+91 99133 70932,9.20E+11,380009,18,10,,,,,,Gujarat,"Siddharth Complex, 2-3/A, Ashram Rd, near Dinesh Hall",,4.6,https://www.google.com/maps/search/?api=1&query=Harish%20Duplicators%20(Rubber%20Stamp%20%26%20Xerox%20Store)&query_place_id=ChIJef_Z51-EXjkR6p9tOXXaJg8,
"Radhe Graphics and Printing, Naranpura, Ahmedabad I Xerox, Offset printer, Visiting Card, Brochure, envelope, flyer printing","FF-5, Char Rasta, Shopping Villa, nr. Super Bazar, Sundar Nagar, Naranpura, Ahmedabad, Gujarat 380013, India",Print shop,Digital printer,Graphic designer,Offset printing service,Screen printer,Sticker manufacturer,,,,,Print shop,5.35E+18,Ahmedabad,FALSE,IN,https://lh3.googleusercontent.com/p/AF1QipM1VViaaoPyjqRNnQx2Z6f2t0BzHIOULJSsJiJD=w426-h240-k-no,96,FALSE,23.0525735,72.560073,"Sundar Nagar, Naranpura",Monday,10 AM to 8:30 PM,Tuesday,10 AM to 8:30 PM,Wednesday,10 AM to 8:30 PM,Thursday,10 AM to 8:30 PM,Friday,10 AM to 8:30 PM,Saturday,10 AM to 8:30 PM,Sunday,Closed,FALSE,+91 98257 44288,9.20E+11,380013,20,31,,,,,,Gujarat,"FF-5, Char Rasta, Shopping Villa, nr. Super Bazar",રાધે ગ્રાફિક્સ અને પ્રિન્ટિંગ,4.9,https://www.google.com/maps/search/?api=1&query=Radhe%20Graphics%20and%20Printing%2C%20Naranpura%2C%20Ahmedabad%20I%20Xerox%2C%20Offset%20printer%2C%20Visiting%20Card%2C%20Brochure%2C%20envelope%2C%20flyer%20printing&query_place_id=ChIJq6qqqp2EXjkRHQIrP7lYPUo,
Gautam Copy Centre,"10, Harsiddh Chambers, Ashram Rd, near Income Tax, next to Oshwal Restaurant, Usmanpura, Ahmedabad, Gujarat 380014, India",Print shop,Commercial printer,Digital printer,Digital printing service,Lamination service,,,,,,Print shop,1.44E+19,Ahmedabad,FALSE,IN,https://lh3.googleusercontent.com/gps-cs-s/AC9h4nqD29xHIg3BUSGQWXpNSPXQak2XFCE15TVcWzYgJxKKSFVXmpp7CKnmfqn0pmwH4y8t6S88KpLB-BxFVfNhi_14dNgKQhkIGVqQkqteb8wEw5pb2LDnYEYUCgJ7blzfpr0UOts=w426-h240-k-no,11,FALSE,23.0416067,72.5697619,Usmanpura,Monday,9 AM to 9 PM,Tuesday,9 AM to 9 PM,Wednesday,9 AM to 9 PM,Thursday,9 AM to 9 PM,Friday,9 AM to 9 PM,Saturday,9 AM to 9 PM,Sunday,9 AM to 9 PM,FALSE,,,380014,28,9,6,1,1,1,0,Gujarat,"10, Harsiddh Chambers, Ashram Rd, near Income Tax, next to Oshwal Restaurant",ગૌતમ કૉપિ કેન્દ્ર,4.2,https://www.google.com/maps/search/?api=1&query=Gautam%20Copy%20Centre&query_place_id=ChIJlx53RWCEXjkRTjAcIixMp8c,
Dheeraa Prints - Xerox,"Shop No. 5, Kamdhenu Complex, Commerce Six Rd, opp. Samved Hospital, Swastik Society, Navrangpura, Ahmedabad, Gujarat 380009, India",Copy shop,,,,,,,,,,Copy shop,1.33E+19,Ahmedabad,FALSE,IN,https://lh3.googleusercontent.com/p/AF1QipNisXQZtZO5v5i5x9SeXfYJzXYXvQVrnSOeTGCb=w408-h306-k-no,17,FALSE,23.0398372,72.5584237,"Swastik Society, Navrangpura",Monday,10:30 AM to 7:30 PM,Tuesday,10:30 AM to 7:30 PM,Wednesday,10:30 AM to 7:30 PM,Thursday,10:30 AM to 7:30 PM,Friday,10:30 AM to 7:30 PM,Saturday,Closed,Sunday,Closed,FALSE,+91 81284 94821,9.18E+11,380009,29,7,6,1,0,0,0,Gujarat,"Shop No. 5, Kamdhenu Complex, Commerce Six Rd, opp. Samved Hospital",,4.9,https://www.google.com/maps/search/?api=1&query=Dheeraa%20Prints%20-%20Xerox&query_place_id=ChIJ6-DAEQmFXjkRIXJ72b9677g,
Girish Xerox And Stationery,"7, nr. Swastik School, opp. Maharshi Complex, Bharat Colony, Sardar Patel Colony, Navjivan, Ahmedabad, Gujarat 380014, India",Copy shop,Stationery store,,,,,,,,,Copy shop,9.46E+18,Ahmedabad,FALSE,IN,https://lh3.googleusercontent.com/p/AF1QipMzEsjLwnsH3WXR6dUR_Z2UCwLslCouWuTB2xsI=w408-h680-k-no,6,FALSE,23.0471568,72.5630866,"Bharat Colony, Sardar Patel Colony, Navjivan",Monday,8:30 AM to 8:30 PM,Tuesday,8:30 AM to 8:30 PM,Wednesday,8:30 AM to 8:30 PM,Thursday,8:30 AM to 8:30 PM,Friday,8:30 AM to 8:30 PM,Saturday,8:30 AM to 8:30 PM,Sunday,8:30 AM to 1 PM,FALSE,+91 97258 81188,9.20E+11,380014,32,2,2,0,0,0,0,Gujarat,"7, nr. Swastik School, opp. Maharshi Complex",ગિરીશ ઝેરોક્ષ અને સ્ટેશનરી,5,https://www.google.com/maps/search/?api=1&query=Girish%20Xerox%20And%20Stationery&query_place_id=ChIJ24-32IiEXjkREtWUNBY2SYM,
H.P. Xerox,"Vidya Vihar Colony Rd, near Hotel Fortune Landmark, Soni Ni Chal, Usmanpura, Ahmedabad, Gujarat 380014, India",Copy shop,,,,,,,,,,Copy shop,2.83E+18,Ahmedabad,FALSE,IN,https://lh3.googleusercontent.com/gps-cs-s/AC9h4npGRIZ9os7Tp2HaKtsCULvzU-oIdP8SX46DEbAV2tP8captgMhzi9tBUEfL1XatGgrG-tJcq2iPKOvd_BbLKp25lQqDXRnpjPFB6DQdKJhsH4uZbmFmhFPqyLVOMuiRHS6hWwzC=w408-h306-k-no,4,FALSE,23.0467594,72.5716817,"Soni Ni Chal, Usmanpura",Monday,9 AM to 8 PM,Tuesday,9 AM to 8 PM,Wednesday,9 AM to 8 PM,Thursday,9 AM to 8 PM,Friday,9 AM to 8 PM,Saturday,9 AM to 8 PM,Sunday,Closed,FALSE,+91 99987 61976,9.20E+11,380014,34,3,0,0,2,1,0,Gujarat,"Vidya Vihar Colony Rd, near Hotel Fortune Landmark",હ.પ. ઝેરોક્સ,1.7,https://www.google.com/maps/search/?api=1&query=H.P.%20Xerox&query_place_id=ChIJW_ZhuGOEXjkRz6oAlRUUNyc,
Dev Copy,"19-20, Vishwa Kosh Marg, Shanti Nagar, Usmanpura, Ahmedabad, Gujarat 380013, India",Print shop,,,,,,,,,,Print shop,8.89E+18,Ahmedabad,FALSE,IN,https://lh3.googleusercontent.com/gps-cs-s/AC9h4npgFfxrCrta2Xxq2VCkA4p7omXPdNi9p_abuD4RGpsXv6pV1528ysuFSixQuft_57YklPWXc0-d4CTRHxGBGnB4Y8hzoOhE_wrR0raEQolOJ33Kdq6UmqglgUjJCF01YY4vlms3=w408-h306-k-no,11,FALSE,23.0481133,72.5673257,"Shanti Nagar, Usmanpura",Monday,9 AM to 9 PM,Tuesday,9 AM to 9 PM,Wednesday,9 AM to 9 PM,Thursday,9 AM to 9 PM,Friday,9 AM to 9 PM,Saturday,9 AM to 9 PM,Sunday,10:30 AM to 5 PM,FALSE,+91 99243 49653,9.20E+11,380013,35,73,63,5,4,1,0,Gujarat,"19-20, Vishwa Kosh Marg",દેવ કૉપિ,4.7,https://www.google.com/maps/search/?api=1&query=Dev%20Copy&query_place_id=ChIJF-bYLoiEXjkRhmMBh_GgXHs,
shivanya digital,"Shop No, 4, Center, Deepawali Complex, Opp, Old High Ct Rd, nr. Income Tex, Ashram Road, Sattar Taluka Society, Usmanpura, Ahmedabad, Gujarat 380014, India",Print shop,,,,,,,,,,Print shop,3.08E+18,Ahmedabad,FALSE,IN,https://lh3.googleusercontent.com/p/AF1QipNTMf3TuYmq2ufXUODlYjpEyhV-9iWtDOvDJS6_=w408-h306-k-no,17,FALSE,23.0403899,72.5670879,"Ashram Road, Sattar Taluka Society, Usmanpura",Monday,10 AM to 8 PM,Tuesday,10 AM to 8 PM,Wednesday,10 AM to 8 PM,Thursday,10 AM to 8 PM,Friday,10 AM to 8 PM,Saturday,10 AM to 8 PM,Sunday,Closed,FALSE,+91 96016 56698,9.20E+11,380014,40,42,37,3,1,1,0,Gujarat,"Shop No, 4, Center, Deepawali Complex, Opp, Old High Ct Rd, nr. Income Tex",,4.8,https://www.google.com/maps/search/?api=1&query=shivanya%20digital&query_place_id=ChIJby0gB1WFXjkRkPISewKZtSo,
Shardul Printing Press,"Basement, Rambha Complex, Income Tax Circle, Ashram Rd, opposite Gujarat Vidyapith Road, Usmanpura, Ahmedabad, Gujarat 380014, India",Print shop,,,,,,,,,,Print shop,5.77E+18,Ahmedabad,FALSE,IN,https://lh3.googleusercontent.com/p/AF1QipNJU7LD2JglwtWRiB-0-zn4G8zQn2IyHA6jbT6E=w408-h656-k-no,40,FALSE,23.0424719,72.5700443,Usmanpura,Monday,9:30 AM to 7 PM,Tuesday,9:30 AM to 7 PM,Wednesday,9:30 AM to 7 PM,Thursday,9:30 AM to 7 PM,Friday,9:30 AM to 7 PM,Saturday,9:30 AM to 7 PM,Sunday,Closed,FALSE,+91 79 3566 2235,9.18E+11,380014,41,75,63,5,2,5,0,Gujarat,"Basement, Rambha Complex, Income Tax Circle, Ashram Rd, opposite Gujarat Vidyapith Road",શાર્દુલ છાપખાનું,4.7,https://www.google.com/maps/search/?api=1&query=Shardul%20Printing%20Press&query_place_id=ChIJef_Z51-EXjkRDxNCqapXDVA,http://www.shardulprintingpress.com/
Precious Business Systems,"201, Sunrise Avenue Opp Kailash Tower Nr jain Temple Stadium Circle, To, Commerce College Rd, Navrangpura, Ahmedabad, Gujarat 380009, India",Copy shop,Copier repair service,Printing equipment supplier,Office equipment supplier,,,,,,,Copy shop,1.78E+19,Ahmedabad,FALSE,IN,https://lh3.googleusercontent.com/p/AF1QipNWDbxD1lQ8zo4DjJV-gOA4j5sz4mrCS7HkB6jL=w408-h725-k-no,,FALSE,23.0397958,72.5602905,"Swastik Society, Navrangpura",Monday,10 AM to 6:30 PM,Tuesday,10 AM to 6:30 PM,Wednesday,10 AM to 6:30 PM,Thursday,10 AM to 6:30 PM,Friday,10 AM to 6:30 PM,Saturday,10 AM to 6:30 PM,Sunday,Closed,FALSE,+91 85111 21069,9.19E+11,380009,43,22,18,4,0,0,0,Gujarat,"201, Sunrise Avenue Opp Kailash Tower Nr jain Temple Stadium Circle, To, Commerce College Rd",પ્રિસિયસ બિઝનેસ સિસ્ટમ્સ,4.8,https://www.google.com/maps/search/?api=1&query=Precious%20Business%20Systems&query_place_id=ChIJ____P_WEXjkRzAknCl44jPc,https://preciousbusiness.co.in/
Mbabulal printery,"Janpath complex, 305, Ashram Rd, opposite Patang Hotel, Paldi, Ahmedabad, Gujarat 380006, India",Print shop,,,,,,,,,,Print shop,1.63E+19,Ahmedabad,FALSE,IN,https://lh3.googleusercontent.com/p/AF1QipMtJ8BNYHMRFSfDLwVZSGtJcGCEAMIH1cGvrwEa=w408-h306-k-no,55,FALSE,23.0446855,72.5701536,Paldi,Monday,Open 24 hours,Tuesday,Open 24 hours,Wednesday,Open 24 hours,Thursday,Open 24 hours,Friday,Open 24 hours,Saturday,Open 24 hours,Sunday,Open 24 hours,FALSE,,,380006,44,1,1,0,0,0,0,Gujarat,"Janpath complex, 305, Ashram Rd, opposite Patang Hotel",,5,https://www.google.com/maps/search/?api=1&query=Mbabulal%20printery&query_place_id=ChIJc0wofTOFXjkRJ_lAdjNU8eE,
my print solutions,"C27 gr, floor, SUMEL BUSINESS PARK-6, Dudheshwar Rd, Dudheshwar, Ahmedabad, Gujarat 380004, India",Print shop,Lamination service,Printing equipment supplier,Printer repair service,Toner cartridge supplier,,,,,,Print shop,6.46E+18,Ahmedabad,FALSE,IN,https://lh3.googleusercontent.com/p/AF1QipNFU809OAZ76Cz4m0CDabteBeF3BHZtzpsvURr9=w408-h544-k-no,5,FALSE,23.0464926,72.5842537,Dudheshwar,Monday,10:30 AM to 8 PM,Tuesday,10:30 AM to 8 PM,Wednesday,10:30 AM to 8 PM,Thursday,10:30 AM to 8 PM,Friday,10:30 AM to 8 PM,Saturday,10:30 AM to 8 PM,Sunday,Closed,FALSE,+91 98244 10066,9.20E+11,380004,46,2,2,0,0,0,0,Gujarat,"C27 gr, floor, SUMEL BUSINESS PARK-6, Dudheshwar Rd",,5,https://www.google.com/maps/search/?api=1&query=my%20print%20solutions&query_place_id=ChIJNz22fJaFXjkRV2UMnnEYo1k,
Shreeji Copiers & Stationers,"Ground Floor - 1, Omkar House, Behind Femina Town, Near Swastik Char Rasta, Chimanlal Girdharlal Rd, Swastik Society, Navrangpura, Ahmedabad, Gujarat 380009, India",Print shop,Stationery store,,,,,,,,,Print shop,6.91E+18,Ahmedabad,FALSE,IN,https://lh3.googleusercontent.com/gps-cs-s/AC9h4noKMdiGV2dW0l-KSVyXFWWpF0tizMX7aCjUP8qy6HoeL0PpR3OZloNSdEuMcvZkVhfFM07AzRhewj4awjE4FibTrqqJwE5g16kfUuXlAlXPnIGquxGAq8Nyq0SZpEJXdUeU-hA=w408-h544-k-no,4,FALSE,23.038141,72.562644,"Swastik Society, Navrangpura",Monday,10 AM to 8 PM,Tuesday,10 AM to 8 PM,Wednesday,10 AM to 8 PM,Thursday,10 AM to 8 PM,Friday,10 AM to 8 PM,Saturday,10 AM to 8 PM,Sunday,Closed,FALSE,+91 98240 32153,9.20E+11,380009,47,1,0,0,0,1,0,Gujarat,"Ground Floor - 1, Omkar House, Behind Femina Town, Near Swastik Char Rasta, Chimanlal Girdharlal Rd",શ્રીજી કોપિયર્સ & સ્ટેશનર્સ,3,https://www.google.com/maps/search/?api=1&query=Shreeji%20Copiers%20%26%20Stationers&query_place_id=ChIJMecFsvSEXjkRkzQsYVaA6F8,
Ambika Xerox,"XJR7+9G9, Near Daxini Society, Daxini Society, Maninagar, Ahmedabad, Gujarat 380008, India",Copy shop,,,,,,,,,,Copy shop,2.33E+18,Ahmedabad,TRUE,IN,https://streetviewpixels-pa.googleapis.com/v1/thumbnail?panoid=jLcAa9KwANnQy84olRxnMw&cb_client=search.gws-prod.gps&w=408&h=240&yaw=46.257473&pitch=0&thumbfov=100,2,FALSE,22.9909022,72.6138681,"Daxini Society, Maninagar",Monday,"8:30 AM to 2 PM, 4 to 9 PM",Tuesday,"8:30 AM to 2 PM, 4 to 9 PM",Wednesday,"8:30 AM to 2 PM, 4 to 9 PM",Thursday,"8:30 AM to 2 PM, 4 to 9 PM",Friday,"8:30 AM to 2 PM, 4 to 9 PM",Saturday,"8:30 AM to 2 PM, 4 to 9 PM",Sunday,8:30 AM to 2 PM,FALSE,+91 99988 80683,9.20E+11,380008,4,3,,,,,,Gujarat,"XJR7+9G9, Near Daxini Society",અંબિકા ઝેરોક્સ,3.3,https://www.google.com/maps/search/?api=1&query=Ambika%20Xerox&query_place_id=ChIJWUgUa-KFXjkRugEcXtz6RyA,
Umiya Xerox And Stationeries,"B-36,Radhe Shopping, Khokhra Cir, G I D C Industrial Area, Ahmedabad, Gujarat 380008, India",Copy shop,Lamination service,,,,,,,,,Copy shop,9.19E+18,Ahmedabad,FALSE,IN,https://lh3.googleusercontent.com/gps-proxy/ALd4DhEgfnuu3sES2GlJJIpMNuYM2fgcGp-kg2pUXeEkTmWDdG_JV1W-dFdGYdQ2WTYsJj91rHLgTmoRFC0tyKGvTwT0rKlkvlFRqfd_FVCGTDtEsnYHCYXZfJCamLKpoHeClNJvJSsNq6Mx6mrjhotrg3MFqzkPhqFHWO85dn2oGxBWCikjRjY5eSJGfEo_dF8f9K5T4dE=w408-h306-k-no,144,FALSE,23.0028829,72.6193536,"G I D C Industrial Area, Khokhra",Monday,8:30 AM to 8:30 PM,Tuesday,8:30 AM to 8:30 PM,Wednesday,8:30 AM to 8:30 PM,Thursday,8:30 AM to 8:30 PM,Friday,8:30 AM to 8:30 PM,Saturday,8:30 AM to 8:30 PM,Sunday,Closed,FALSE,+91 98987 66956,9.20E+11,380008,6,2,,,,,,Gujarat,"B-36,Radhe Shopping, Khokhra Cir",ઉમિયા ઝેરોક્સ એન્ડ સ્ટેશનરીઝ,4,https://www.google.com/maps/search/?api=1&query=Umiya%20Xerox%20And%20Stationeries&query_place_id=ChIJnTdSRnSGXjkRHeCX8YyQj38,
New Maheshwari Copiers,"5, Muktajiwan Estate, Near Swaminarayan Wadi, Old Railway Crossing, Bhairavnath Rd, Maninagar, Ahmedabad, Gujarat 380008, India",Copy shop,Pen store,,,,,,,,,Copy shop,1.70E+19,Ahmedabad,FALSE,IN,https://lh3.googleusercontent.com/p/AF1QipPdbkjICLG4HUHRljosH9o3MdyYRFzWJcoEomjk=w426-h240-k-no,7,FALSE,22.99505,72.611707,Maninagar,Monday,9 AM to 9:30 PM,Tuesday,9 AM to 9:30 PM,Wednesday,9 AM to 9:30 PM,Thursday,9 AM to 9:30 PM,Friday,9 AM to 9:30 PM,Saturday,9 AM to 9:30 PM,Sunday,9 AM to 9:30 PM,FALSE,+91 95106 86265,9.20E+11,380008,7,15,,,,,,Gujarat,"5, Muktajiwan Estate, Near Swaminarayan Wadi, Old Railway Crossing, Bhairavnath Rd",ન્યુ મહેશ્વરી કોપિયર્સ,4.7,https://www.google.com/maps/search/?api=1&query=New%20Maheshwari%20Copiers&query_place_id=ChIJIXv1_eCFXjkRmM-lGT8mauw,
Swastik Xerox,"Shop No -1upper, Leval Tempal, Dharnidhar Derasar, Dharnidhar Cross Rd, Dharnidhar Society, Lavanya Society, Vasna, Ahmedabad, Gujarat 380007, India",Print shop,,,,,,,,,,Print shop,9.15E+18,Ahmedabad,FALSE,IN,https://lh3.googleusercontent.com/p/AF1QipPzWZtNal0bdCazvXlkN5aOx_KJzkGyE_F9vvP5=w408-h544-k-no,39,FALSE,23.0085797,72.5484087,"Dharnidhar Society, Lavanya Society, Vasna",Monday,9 AM to 9 PM,Tuesday,9 AM to 9 PM,Wednesday,9 AM to 9 PM,Thursday,9 AM to 9 PM,Friday,9 AM to 9 PM,Saturday,9 AM to 9 PM,Sunday,9 AM to 5 PM,FALSE,+91 94261 89957,9.19E+11,380007,9,13,,,,,,Gujarat,"Shop No -1upper, Leval Tempal, Dharnidhar Derasar, Dharnidhar Cross Rd",,4.4,https://www.google.com/maps/search/?api=1&query=Swastik%20Xerox&query_place_id=ChIJO21ooQuFXjkRT9MlLq1l-n4,
HAPPY XEROX,"Freniben Desai Marg, Fatehpura Gam, Paldi, Ahmedabad, Gujarat 380007, India",Print shop,,,,,,,,,,Print shop,3.56E+18,Ahmedabad,FALSE,IN,https://lh3.googleusercontent.com/p/AF1QipNCrx4UZliQW95uX9czZC-NvPLgEiWpxN5lHrk-=w408-h271-k-no,8,FALSE,23.0068289,72.5569966,"Fatehpura Gam, Paldi",Monday,9 AM to 10 PM,Tuesday,9 AM to 10 PM,Wednesday,9 AM to 10 PM,Thursday,9 AM to 10 PM,Friday,9 AM to 10 PM,Saturday,9 AM to 10 PM,Sunday,9 AM to 10 PM,FALSE,,,380007,10,153,,,,,,Gujarat,Freniben Desai Marg,,4.9,https://www.google.com/maps/search/?api=1&query=HAPPY%20XEROX&query_place_id=ChIJt1pQUvGFXjkRZHb7KhouXzE,http://www.happyxerox.in/
Sanjay Telecom Xerox,"51, Pankaj Society, Bhatta, Paldi, Ahmedabad, Gujarat 380007, India",Copy shop,,,,,,,,,,Copy shop,8.33E+18,Ahmedabad,TRUE,IN,https://lh3.googleusercontent.com/gps-cs-s/AC9h4nqawkLSajkOx1izbm_m3y1f_uEwlbwsGQ6jpq9ir4-r4ToG9Dyy3BgfIJ0e8FGoE1DucEedVVmVm1BygjTU279KCwlhYVSEzMfoEwSzGnaM9x7JYwczpJ_VTaSUFEEYVYINzGx6jA=w425-h240-k-no,5,FALSE,23.0045178,72.5556783,"Pankaj Society, Bhatta, Paldi",Monday,8 AM to 8:30 PM,Tuesday,8 AM to 8:30 PM,Wednesday,8 AM to 8:30 PM,Thursday,8 AM to 8:30 PM,Friday,8 AM to 8:30 PM,Saturday,8 AM to 8:30 PM,Sunday,8 AM to 6 PM,FALSE,+91 94286 01475,9.19E+11,380007,19,9,,,,,,Gujarat,51,સંજય ટેલિકોમ ઝેરોક્સ,4.6,https://www.google.com/maps/search/?api=1&query=Sanjay%20Telecom%20Xerox&query_place_id=ChIJie7ttRqFXjkRVN2eI1O4oXM,
Pooja Xerox,"G.F.- 2, Vijay Complex, Near Vasna Bus Stand, Vasna Rd, Pravinnagar, Vasna, Ahmedabad, Gujarat 380007, India",Copy shop,Lamination service,Payphone,,,,,,,,Copy shop,9.49E+18,Ahmedabad,TRUE,IN,https://streetviewpixels-pa.googleapis.com/v1/thumbnail?panoid=OKHzjxZ_L73X8Sva5jb8cw&cb_client=search.gws-prod.gps&w=408&h=240&yaw=0.95794755&pitch=0&thumbfov=100,2,FALSE,23.002301,72.549099,"Pravinnagar, Vasna",,,,,,,,,,,,,,,FALSE,+91 96623 66071,9.20E+11,380007,23,18,12,4,1,1,0,Gujarat,"G.F.- 2, Vijay Complex, Near Vasna Bus Stand, Vasna Rd",પૂજા ઝેરોક્ષ,4.4,https://www.google.com/maps/search/?api=1&query=Pooja%20Xerox&query_place_id=ChIJSRuNWBeFXjkRHdY-4aahsYM,
Saloni Enterprise Stationary and Xerox Ro plant Sales & service,"Shop No - 16,G/F Swaminarayan Park 2, NR. Popular Wheelar Service B/H. G.B, shah College, Vasna, Ahmedabad, Gujarat 380007, India",Print shop,Pen store,Water purification company,Water treatment supplier,,,,,,,Print shop,1.17E+19,Ahmedabad,FALSE,IN,https://lh3.googleusercontent.com/gps-cs-s/AC9h4nqLaNiMSe566nYDPv26lL_VyADAgkSe25RIDMBmnBE94KO54JdiGCu_ijN4r6-JRXDaNm0QrbP93ZwPlZ8So2YFIOl9BS0n4qBiyx4J3ah8MZsUgpasm7FcvcR8i5_KNzqhULS27w=w408-h886-k-no,28,FALSE,22.9927206,72.5431473,Vishala,Monday,9:30 AM to 8 PM,Tuesday,9:30 AM to 8 PM,Wednesday,9:30 AM to 8 PM,Thursday,9:30 AM to 8 PM,Friday,9:30 AM to 8 PM,Saturday,9:30 AM to 8 PM,Sunday,9:30 AM to 8 PM,FALSE,+91 99098 90907,9.20E+11,380007,26,10,9,1,0,0,0,Gujarat,"Shop No - 16,G/F Swaminarayan Park 2, NR. Popular Wheelar Service B/H. G.B, shah College, Vasna",સલોની એન્ટરપ્રાઈઝ સ્ટેશનરી એન્ડ ઝેરોક્સ રો પ્લાન્ટ સેલ્સ & સર્વિસ,4.9,https://www.google.com/maps/search/?api=1&query=Saloni%20Enterprise%20Stationary%20and%20Xerox%20Ro%20plant%20Sales%20%26%20service&query_place_id=ChIJs-0URBiFXjkRgPgOPXZC16I,
Giriraj Copier,"Shop No 8, Sambhavtirth Shopping Centre, Vasna, Ahmedabad, Gujarat 380007, India",Copy shop,Banner store,Income tax help association,Lamination service,Notary public,Passport agent,Passport photo processor,Rubber stamp store,Vinyl sign shop,,Copy shop,2.44E+18,Ahmedabad,FALSE,IN,https://lh3.googleusercontent.com/p/AF1QipMzeP2ajK2dH4HWmQi449hjoCorZEKKW5imF00O=w408-h306-k-no,14,FALSE,22.9996935,72.5472039,Vasna,Monday,9:30 AM to 8 PM,Tuesday,9:30 AM to 8 PM,Wednesday,9:30 AM to 8 PM,Thursday,9:30 AM to 8 PM,Friday,9:30 AM to 8 PM,Saturday,9:30 AM to 8 PM,Sunday,10:30 AM to 1 PM,FALSE,+91 88666 62269,9.19E+11,380007,27,83,79,0,3,1,0,Gujarat,"Shop No 8, Sambhavtirth Shopping Centre",ગિરિરાજ કોપિયર,4.8,https://www.google.com/maps/search/?api=1&query=Giriraj%20Copier&query_place_id=ChIJ7XX8qReFXjkR6S9AXunz1SE,https://www.facebook.com/girirajcopier/
Chaitanya Xerox,"2, Hitek Centre, opposite Sanskar Kendra, Paldi, Paldi, Ahmedabad, Gujarat 380007, India",Copy shop,,,,,,,,,,Copy shop,3.99E+18,Ahmedabad,FALSE,IN,https://streetviewpixels-pa.googleapis.com/v1/thumbnail?panoid=j4NruUT0MQZoOuVgBiR52Q&cb_client=search.gws-prod.gps&w=408&h=240&yaw=192.62479&pitch=0&thumbfov=100,1,FALSE,23.012413,72.568228,"Paldi Gaam, Paldi",Monday,9:30 AM to 8 PM,Tuesday,9:30 AM to 8 PM,Wednesday,9:30 AM to 8 PM,Thursday,9:30 AM to 8 PM,Friday,9:30 AM to 8 PM,Saturday,9:30 AM to 8 PM,Sunday,Closed,FALSE,+91 96875 07001,9.20E+11,380007,12,9,,,,,,Gujarat,"2, Hitek Centre, opposite Sanskar Kendra, Paldi",ચૈતન્ય ઝેરોક્સ,4.2,https://www.google.com/maps/search/?api=1&query=Chaitanya%20Xerox&query_place_id=ChIJ_____wKFXjkRPLyC3_FDYTc,
Mahavir Xerox and Stationery,"LL-2, Murlidhar Complex, Surendra Mangaldas Rd, beside Sunphoto, Patel Colony, Ambawadi, Ahmedabad, Gujarat 380015, India",Copy shop,Christmas store,Dairy store,Passport photo processor,Photo lab,Photography service,Photography studio,Print shop,Stationery store,Stationery wholesaler,Copy shop,7.06E+18,Ahmedabad,FALSE,IN,https://lh3.googleusercontent.com/p/AF1QipNub2NvjuNMy32VpzZ_tvos2YeHlbRClvCla7w0=w408-h544-k-no,52,FALSE,23.0217123,72.5463133,"Patel Colony, Ambawadi",Monday,8 AM to 12 AM,Tuesday,8 AM to 12 AM,Wednesday,8 AM to 12 AM,Thursday,8 AM to 12 AM,Friday,8 AM to 12 AM,Saturday,8 AM to 12 AM,Sunday,8 AM to 12 AM,FALSE,+91 90332 22386,9.19E+11,380015,15,158,,,,,,Gujarat,"LL-2, Murlidhar Complex, Surendra Mangaldas Rd, beside Sunphoto",,4.9,https://www.google.com/maps/search/?api=1&query=Mahavir%20Xerox%20and%20Stationery&query_place_id=ChIJ9W8tMRqFXjkRwuX0TX4B9WE,
Gandhi Xerox,"F-5,Sundar Gopal Complex,Ambawadi Circle,Ambawadi, Panchavati Rd, opposite centro mall, Panchavati Society, Gulbai Tekra, Ahmedabad, Gujarat 380006, India",Digital printing service,Bookbinder,Digital printer,Lamination service,Offset printing service,Print shop,Screen printing shop,,,,Digital printing service,1.55E+19,Ahmedabad,FALSE,IN,https://lh3.googleusercontent.com/p/AF1QipM8TCiLxsJqJdfJwOEiSApoHxgVb5Mc3Z4jxe7E=w408-h272-k-no,22,FALSE,23.0211692,72.5539335,"Panchavati Society, Gulbai Tekra",Monday,8 AM to 9 PM,Tuesday,8 AM to 9 PM,Wednesday,8 AM to 9 PM,Thursday,8 AM to 9 PM,Friday,8 AM to 9 PM,Saturday,8 AM to 9 PM,Sunday,10:30 AM to 2 PM,FALSE,+91 72288 18844,9.17E+11,380006,16,69,,,,,,Gujarat,"F-5,Sundar Gopal Complex,Ambawadi Circle,Ambawadi, Panchavati Rd, opposite centro mall",ગાંધી ઝેરોક્ષ,4.5,https://www.google.com/maps/search/?api=1&query=Gandhi%20Xerox&query_place_id=ChIJ____P_iEXjkRU9MlIW8vc9Y,http://www.gandhixerox.com/
Kunal Xerox,"Near Standard Chartered Bank, Navrangpura, Mithakhali Six Rd, Mithakhali, Ellisbridge, Ahmedabad, Gujarat 380009, India",Copy shop,,,,,,,,,,Copy shop,4.24E+18,Ahmedabad,FALSE,IN,https://lh3.googleusercontent.com/gps-cs-s/AC9h4nrvZA-HnTlLNYlhK9wrGfJcVWg20RFmAtkU_rH8xvHYmmeZSNpXzofX2SZb5C49iMfZp-3MFHWeY1tasH1EgZG7V4Pxqcn6B7V7pd-c6-XuaBdw8-LviCHlWhdStW_gI8S3zrFD=w408-h306-k-no,27,FALSE,23.0318526,72.5627745,"Mithakhali, Ellisbridge",Monday,10 AM to 6:30 PM,Tuesday,10 AM to 6:30 PM,Wednesday,10 AM to 6:30 PM,Thursday,10 AM to 6:30 PM,Friday,10 AM to 6:30 PM,Saturday,10 AM to 6:30 PM,Sunday,10 AM to 6:30 PM,FALSE,+91 79 2646 2020,9.18E+11,380009,20,445,,,,,,Gujarat,"Near Standard Chartered Bank, Navrangpura, Mithakhali Six Rd",કુણાલ ઝેરોક્ષ,4.1,https://www.google.com/maps/search/?api=1&query=Kunal%20Xerox&query_place_id=ChIJe52MuvaEXjkRzUN_VBYl5Do,
S P xerox,"New Cloth Market, 26, Cabin No, Raipur, near 512, Ahmedabad, Gujarat 380025, India",Print shop,,,,,,,,,,Print shop,1.63E+19,Ahmedabad,FALSE,IN,https://lh3.googleusercontent.com/gps-cs-s/AC9h4npmiM_nsl-lwphvw-I5lK8lWc9TcmZ13o6efC_mUBxLvgKxmFjlochp4qrO5F51eEUcfNQOgfq8hzzvmafTt0FWsps7EU-8ewYZBvXNCMHt-kTWxvh-sT-tszztGdIS3FNbaOvoZA=w408-h544-k-no,1,FALSE,23.0178769,72.5999897,"New Cloth Market, Sarangpur, Sherkotda",Monday,9 AM to 9 PM,Tuesday,9 AM to 9:30 PM,Wednesday,9 AM to 9 PM,Thursday,9 AM to 9 PM,Friday,9 AM to 9 PM,Saturday,9 AM to 9 PM,Sunday,9 AM to 3 PM,FALSE,,,380025,1,2,,,,,,Gujarat,"New Cloth Market, 26, Cabin No, Raipur, near 512",,5,https://www.google.com/maps/search/?api=1&query=S%20P%20xerox&query_place_id=ChIJTXRxuv-HXjkR3iqsjg_KD-I,
JAY XEROX,"1530, near, Piplawali, opp. Dolatkhana, Juni Golwad, Sarangpur, Khadia, Ahmedabad, Gujarat 380001, India",Print shop,,,,,,,,,,Print shop,1.03E+19,Ahmedabad,FALSE,IN,https://lh3.googleusercontent.com/p/AF1QipP4LQHb1ISttzn52SrrHWV803B-Nz3TLAb1lEIu=w408-h544-k-no,11,FALSE,23.0206539,72.5959017,"Juni Golwad, Sarangpur, Khadia",,,,,,,,,,,,,,,FALSE,,,380001,2,1,,,,,,Gujarat,"1530, near, Piplawali, opp. Dolatkhana",,5,https://www.google.com/maps/search/?api=1&query=JAY%20XEROX&query_place_id=ChIJFdrGw4KFXjkRw_LMzdzLRI8,
Sony Xerox Center,"Old City, Sarangpur, Sherkotda, Ahmedabad, Gujarat 380001, India",Print shop,Bookbinder,Commercial printer,Digital printer,Drafting service,Lamination service,,,,,Print shop,1.56E+19,Ahmedabad,FALSE,IN,https://lh3.googleusercontent.com/p/AF1QipOwVG5dIaFR8v17Fgl3skgnMium8KRaqRBNNJgH=w408-h500-k-no,3,FALSE,23.022033,72.595642,"Old City, Sarangpur, Sherkotda",Monday,"8:30 AM to 1:30 PM, 4 to 8:30 PM",Tuesday,"8:30 AM to 1:30 PM, 4 to 8:30 PM",Wednesday,"8:30 AM to 1:30 PM, 4 to 8:30 PM",Thursday,"8:30 AM to 1:30 PM, 4 to 8:30 PM",Friday,"8:30 AM to 1:30 PM, 4 to 8:30 PM",Saturday,"8:30 AM to 1:30 PM, 4 to 8:30 PM",Sunday,8:30 AM to 1 PM,FALSE,+91 98258 01898,9.20E+11,380001,5,7,,,,,,Gujarat,,સોની ઝેરોક્ષ સેન્ટર,5,https://www.google.com/maps/search/?api=1&query=Sony%20Xerox%20Center&query_place_id=ChIJxSGK9TSEXjkRwy0SUFPw39c,
Classic Xerox & Online Multilink Services,"Shop no 8, Hathi Khai Rd, opp. Sheetal Cinema, Gomtipur Police Lines, Gomtipur, Ahmedabad, Gujarat 380021, India",Print shop,,,,,,,,,,Print shop,1.12E+19,Ahmedabad,FALSE,IN,https://lh3.googleusercontent.com/p/AF1QipOv_t0H-17jE9NcB9czSgFiBPbdojy5WEpho_wV=w408-h306-k-no,4,FALSE,23.0213553,72.6100477,"Gomtipur Police Lines, Gomtipur",,,,,,,,,,,,,,,FALSE,+91 96387 74406,9.20E+11,380021,6,2,,,,,,Gujarat,"Shop no 8, Hathi Khai Rd, opp. Sheetal Cinema",,5,https://www.google.com/maps/search/?api=1&query=Classic%20Xerox%20%26%20Online%20Multilink%20Services&query_place_id=ChIJPbMhzEKFXjkRw8Vu98l26Zs,
Gulshan Xerox,"679/19,Deepak Chamber,Kalupur,oppsite Railway Station Kalupur, Kalupur Tower Rd, Kalupur, Ahmedabad, Gujarat 380002, India",Copy shop,Lamination service,Print shop,Train ticket agency,,,,,,,Copy shop,1.15E+19,Ahmedabad,FALSE,IN,https://lh3.googleusercontent.com/p/AF1QipOfS7PriHb0HbCZBpTFyDMtN1eAy4Fc4PdN4Wfu=w408-h580-k-no,1,FALSE,23.0274199,72.599554,"Suodagarpole, Revdi Bazar, Kalupur",Monday,7 AM to 10 PM,Tuesday,7 AM to 10 PM,Wednesday,7 AM to 10 PM,Thursday,7 AM to 10 PM,Friday,7 AM to 10 PM,Saturday,7 AM to 10 PM,Sunday,7 AM to 10 PM,FALSE,,,380002,14,4,,,,,,Gujarat,"679/19,Deepak Chamber,Kalupur,oppsite Railway Station Kalupur, Kalupur Tower Rd",ગુલશન ઝેરોક્ષ,4.3,https://www.google.com/maps/search/?api=1&query=Gulshan%20Xerox&query_place_id=ChIJq6qqOjeEXjkRXQUOpS2jIJ8,https://gulshanxerox.blogspot.com/
Shree Hari Xerox,"Dhanlaxmi Market,, Relief Rd, Revdi Bazar, Kalupur, Ahmedabad, Gujarat 380001, India",Copy shop,Copying supply store,Print shop,,,,,,,,Copy shop,8.18E+18,Ahmedabad,FALSE,IN,https://streetviewpixels-pa.googleapis.com/v1/thumbnail?panoid=9o2IqgyNK2fNPeAw0n31bw&cb_client=search.gws-prod.gps&w=408&h=240&yaw=196.40822&pitch=0&thumbfov=100,1,FALSE,23.0278229,72.5987663,"Suodagarpole, Revdi Bazar, Kalupur",Monday,11 AM to 9:30 PM,Tuesday,11 AM to 9:30 PM,Wednesday,11 AM to 9:30 PM,Thursday,11 AM to 9:30 PM,Friday,11 AM to 9:30 PM,Saturday,11 AM to 9:30 PM,Sunday,Closed,FALSE,+91 63536 74054,9.16E+11,380001,15,8,,,,,,Gujarat,"Dhanlaxmi Market,, Relief Rd",શ્રી હારી ઝેરોક્સ,3.4,https://www.google.com/maps/search/?api=1&query=Shree%20Hari%20Xerox&query_place_id=ChIJbSPzITGEXjkRbesm6GsPlXE,
Dharmendra Xerox,"2JJ4+2WG, Saraspur Rd, Opp. Ambedkar Hall, Saraspur, Ahmedabad, Gujarat 380018, India",Copy shop,Cosmetics store,Payphone,,,,,,,,Copy shop,1.07E+19,Ahmedabad,TRUE,IN,https://lh3.googleusercontent.com/gps-cs-s/AC9h4nrlixZ7Am9fRPTSDCtTqYnh3c8hknTkbnvLV8bnkqOfUngD2lQlaKF72daBV_hGNxPQRldE5ANWAjwIYrY-aqbjTfv8A8j4V_5Fsl50Mwiy3hxTDgA_j2msOrqaAsNZ8tMCuLZd=w408-h544-k-no,11,FALSE,23.0300629,72.6073183,Saraspur,Monday,9 AM to 9 PM,Tuesday,9 AM to 9 PM,Wednesday,9 AM to 9 PM,Thursday,9 AM to 9 PM,Friday,9 AM to 9 PM,Saturday,9 AM to 9 PM,Sunday,9 AM to 9 PM,FALSE,+91 79 2292 1476,9.18E+11,380018,16,40,,,,,,Gujarat,"2JJ4+2WG, Saraspur Rd, Opp. Ambedkar Hall",ધર્મેન્દ્ર ઝેરોક્સ,4.4,https://www.google.com/maps/search/?api=1&query=Dharmendra%20Xerox&query_place_id=ChIJmSAoES-EXjkR8mqwir7MJpU,
New Mahakali Xerox- ₹1 per Page(Both Sides),"Shop No 3, Basement, Jawahar Chowk, Jalaram Plaza, Maninagar, Ahmedabad, Gujarat 380008, India",Print shop,,,,,,,,,,Print shop,1.48E+19,Ahmedabad,FALSE,IN,https://lh3.googleusercontent.com/p/AF1QipPtQRnbrtRkO_GoyO58wAYauYnbyBgjF5nFFE0e=w498-h240-k-no,7,FALSE,22.9937609,72.6038279,"Archana Society, Bhairavnath, Maninagar",,,,,,,,,,,,,,,FALSE,+91 99795 04180,9.20E+11,380008,14,3,,,,,,Gujarat,"Shop No 3, Basement, Jawahar Chowk, Jalaram Plaza",,5,https://www.google.com/maps/search/?api=1&query=New%20Mahakali%20Xerox-%20%E2%82%B91%20per%20Page(Both%20Sides)&query_place_id=ChIJVRtIE_eFXjkRnjGQI8-mrM0,
Dev xerox,"dhanlaxmi evenuy, A-3, Jawahar Chowk, Balvatika, Maninagar, Ahmedabad, Gujarat 380008, India",Print shop,,,,,,,,,,Print shop,3.54E+18,Ahmedabad,FALSE,IN,https://lh3.googleusercontent.com/gps-cs-s/AC9h4nrkwWcJaDo4Ssi6HfZrOERxx66TPFgBU9kq-VcHI7PHRUffTHHOjPqEAzP2tq3ySTjV0tQ13Pp4J87DKHT25tRNHOHRYEvLME_OlFs6bQjzXSt80J09sRnEckPWrm0YsMS7u8ax=w408-h544-k-no,5,FALSE,22.9953608,72.6048338,"Balvatika, Maninagar",Monday,9 AM to 10 PM,Tuesday,9 AM to 10 PM,Wednesday,9 AM to 10 PM,Thursday,9 AM to 10 PM,Friday,9 AM to 10 PM,Saturday,9 AM to 10 PM,Sunday,9 AM to 10 PM,FALSE,,,380008,18,4,,,,,,Gujarat,"dhanlaxmi evenuy, A-3, Jawahar Chowk",,5,https://www.google.com/maps/search/?api=1&query=Dev%20xerox&query_place_id=ChIJL909cmOFXjkRMSUznsfFKTE,
VINAYAK PRINTS,"Natvar Flat, A-6, opp. Yamunaji Haveli, Bhaduat Nagar, Janpath Society, Bhadwatnagar, Maninagar, Ahmedabad, Gujarat 380008, India",Digital printer,Digital printing service,Invitation printing service,Print shop,,,,,,,Digital printer,1.45E+19,Ahmedabad,FALSE,IN,https://lh3.googleusercontent.com/gps-cs-s/AC9h4nqKPudS6y85iog-JNmNPIlDdpAWm3coo4D8cc9yFjqm7QipfXDoiR7oA_83Y9cQO47_BCozBxlHavLkwiq8IshzJTS5znBQCexdwG9mCg926ZpBTH6ctI53Z8eEzpC6lAep7w0lvg=w408-h356-k-no,11,FALSE,22.9874928,72.6032889,"Bhaduat Nagar, Janpath Society, Bhadwatnagar, Maninagar",Monday,10 AM to 8:30 PM,Tuesday,10 AM to 8:30 PM,Wednesday,10 AM to 8:30 PM,Thursday,10 AM to 8:30 PM,Friday,10 AM to 8:30 PM,Saturday,10 AM to 8:30 PM,Sunday,10 AM to 1:30 PM,FALSE,+91 63537 57677,9.16E+11,380008,23,173,152,11,3,4,3,Gujarat,"Natvar Flat, A-6, opp. Yamunaji Haveli",વિનાયક પ્રિન્ટસ,4.8,https://www.google.com/maps/search/?api=1&query=VINAYAK%20PRINTS&query_place_id=ChIJD7ObL-aFXjkR7gq4esuSD8k,http://vinayakprints.com/
Kalyani Xerox Copy Lamination Stationery Shop,"Patel Society, Sorabji Compound Rd, opp. Suryalok Towers, Sorabji Compound, Sardar Colony, Ahmedabad, Gujarat 380013, India",Copy shop,,,,,,,,,,Copy shop,1.02E+19,Ahmedabad,TRUE,IN,https://streetviewpixels-pa.googleapis.com/v1/thumbnail?panoid=6QF3FKmiOiO3O4jgjys6mg&cb_client=search.gws-prod.gps&w=408&h=240&yaw=31.236408&pitch=0&thumbfov=100,1,FALSE,23.0555896,72.5692221,"Sorabji Compound, Sardar Colony",,,,,,,,,,,,,,,FALSE,,,380013,2,1,,,,,,Gujarat,"Patel Society, Sorabji Compound Rd, opp. Suryalok Towers",,5,https://www.google.com/maps/search/?api=1&query=Kalyani%20Xerox%20Copy%20Lamination%20Stationery%20Shop&query_place_id=ChIJscofGACFXjkRt-Pulhp6sY0,
KIRTI XEROX AND STATIONERY,"G/3, Ravi Raj Avenue, nr. Parth Tower, Bhimjipura, Nava Vadaj, Ahmedabad, Gujarat 380013, India",Print shop,,,,,,,,,,Print shop,6.78E+18,Ahmedabad,FALSE,IN,https://lh3.googleusercontent.com/p/AF1QipN0YRUCnihk9KEJjs5qE1Zwv2VMW8EkxDXTVVQ-=w408-h306-k-no,21,FALSE,23.0628819,72.5670417,"Bhimjipura, Nava Vadaj",Monday,9 AM to 10 PM,Tuesday,9 AM to 10 PM,Wednesday,9 AM to 10 PM,Thursday,9 AM to 10 PM,Friday,9 AM to 10 PM,Saturday,9 AM to 10 PM,Sunday,"10 AM to 2 PM, 5 to 8:30 PM",FALSE,+91 97141 13789,9.20E+11,380013,4,0,,,,,,Gujarat,"G/3, Ravi Raj Avenue, nr. Parth Tower",,,https://www.google.com/maps/search/?api=1&query=KIRTI%20XEROX%20AND%20STATIONERY&query_place_id=ChIJK6ZpjpuDXjkRH_Dye7YAJl4,
Jay Ambe Xerox,"17,G.F,Avani complex,Naranpura, Ahmedabad, Gujarat 380013, India",Copy shop,,,,,,,,,,Copy shop,4.62E+18,Ahmedabad,TRUE,IN,https://streetviewpixels-pa.googleapis.com/v1/thumbnail?panoid=0hO0wpD-BevCDiXqGwY0RQ&cb_client=search.gws-prod.gps&w=408&h=240&yaw=262.09814&pitch=0&thumbfov=100,3,FALSE,23.0524914,72.5517559,"Sundar Nagar, Naranpura",Monday,9 AM to 9 PM,Tuesday,9 AM to 9 PM,Wednesday,9 AM to 9 PM,Thursday,9 AM to 9 PM,Friday,9 AM to 9 PM,Saturday,9 AM to 9 PM,Sunday,8 AM to 12 PM,FALSE,+91 98980 89019,9.20E+11,380013,15,24,,,,,,Gujarat,"17,G.F,Avani complex,Naranpura",જય અંબે ઝેરોક્સ,3.5,https://www.google.com/maps/search/?api=1&query=Jay%20Ambe%20Xerox&query_place_id=ChIJM7Z5uJuEXjkR-dke6Hm4GUA,
Jay Ambe Xerox and Stationary,"G-43 Shubh Complex Nr Rajasthan Hospital, Shahibag, Ahmedabad, Gujarat 380004, India",Copy shop,Print shop,Stationery store,,,,,,,,Copy shop,1.66E+19,Ahmedabad,FALSE,IN,https://lh3.googleusercontent.com/p/AF1QipMH_NUyS4UNxNZ2740kpKG-XBIkoaHIjPd--qhm=w408-h306-k-no,19,FALSE,23.0538725,72.5953464,"Jain Colony, Shahibag",Monday,9 AM to 8 PM,Tuesday,9 AM to 8 PM,Wednesday,9 AM to 8 PM,Thursday,9 AM to 8 PM,Friday,9 AM to 8 PM,Saturday,9 AM to 8 PM,Sunday,Closed,FALSE,+91 98986 45689,9.20E+11,380004,16,31,,,,,,Gujarat,G-43 Shubh Complex Nr Rajasthan Hospital,,4.6,https://www.google.com/maps/search/?api=1&query=Jay%20Ambe%20Xerox%20and%20Stationary&query_place_id=ChIJo4WoiQ2EXjkRn2uk3Mud_uU,
Manisha Xerox & Stationery,"24, Sahajanand Avenue, near AEC jonal office, AEC Char Rasta, Naranpura, Ahmedabad, Gujarat 380013, India",Copy shop,Pen store,Print shop,,,,,,,,Copy shop,1.32E+19,Ahmedabad,FALSE,IN,https://streetviewpixels-pa.googleapis.com/v1/thumbnail?panoid=xvab38dywB9HBOZNSsjvlw&cb_client=search.gws-prod.gps&w=408&h=240&yaw=279.4653&pitch=0&thumbfov=100,3,FALSE,23.0524255,72.5495408,"AEC Char Rasta, Naranpura",Monday,9 AM to 6 PM,Tuesday,9 AM to 6 PM,Wednesday,9 AM to 6 PM,Thursday,9 AM to 6 PM,Friday,9 AM to 6 PM,Saturday,9 AM to 6 PM,Sunday,Closed,FALSE,,,380013,18,16,,,,,,Gujarat,"24, Sahajanand Avenue, near AEC jonal office",,4.2,https://www.google.com/maps/search/?api=1&query=Manisha%20Xerox%20%26%20Stationery&query_place_id=ChIJu9slZJmEXjkRQ4CLjGnEO7c,
Gurukrupa Xerox and printing centre,"305, Aarambh Complex, Ankur Char Rasta, Vijaynagar, Naranpura, Ahmedabad, Gujarat 380013, India",Print shop,,,,,,,,,,Print shop,2.94E+18,Ahmedabad,TRUE,IN,https://lh3.googleusercontent.com/gps-cs-s/AC9h4nqH7gD9dwW-DOeFWtAiOrHghVgPTHoMoQgF0m4C6tJz8oiDdO54EX513yn8kO5nymNm1qhm0fvh0_6mzbPdUarhBLZ5zK8S2G5JvV9ct_I0OJvo5G-lcL6JHvG_ya_TfkMEfZQe=w408-h544-k-no,3,FALSE,23.0591646,72.556478,"Vijaynagar, Naranpura",,,,,,,,,,,,,,,FALSE,,,380013,19,3,,,,,,Gujarat,"305, Aarambh Complex, Ankur Char Rasta",,5,https://www.google.com/maps/search/?api=1&query=Gurukrupa%20Xerox%20and%20printing%20centre&query_place_id=ChIJ4a4mNguFXjkRxxmFUjnwyig,
Parshwanath Xerox Copy Centre,"3H46+P36, Hasmukh Colony, Vijaynagar Rd, Rang Jyot Society, Naranpura, Ahmedabad, Gujarat 380013, India",Copy shop,,,,,,,,,,Copy shop,9.60E+18,Ahmedabad,TRUE,IN,https://streetviewpixels-pa.googleapis.com/v1/thumbnail?panoid=g6nsPS9j6Ef7e7wKIj3qtw&cb_client=search.gws-prod.gps&w=408&h=240&yaw=74.657646&pitch=0&thumbfov=100,2,FALSE,23.0567781,72.5601365,"Shraddha Society, Hasmukh Colony, Rang Jyot Society, Naranpura",Monday,8 AM to 9 PM,Tuesday,8 AM to 9 PM,Wednesday,8 AM to 9 PM,Thursday,8 AM to 9 PM,Friday,8 AM to 9 PM,Saturday,8 AM to 9 PM,Sunday,8 AM to 9 PM,FALSE,+91 97126 02123,9.20E+11,380013,24,9,4,2,3,0,0,Gujarat,"3H46+P36, Hasmukh Colony, Vijaynagar Rd",પાર્શ્વનાથ ઝેરોક્સ કોપી સેન્ટર,3.4,https://www.google.com/maps/search/?api=1&query=Parshwanath%20Xerox%20Copy%20Centre&query_place_id=ChIJt2S4lYOEXjkRXhSbMtJ_RYU,
Mahavir Xerox,"Shreyas Complex, Bus Stop, 119, opposite Jain Derasar, nr. Navrangpura, Navrangpura, Ahmedabad, Gujarat 380009, India",Copy shop,Office services,,,,,,,,,Copy shop,1.38E+19,Ahmedabad,FALSE,IN,https://lh3.googleusercontent.com/gps-cs-s/AC9h4nr1JN6CeaazVTMWXnOU8_yYIH6Wb7lUNhHjisOZ8fNodOLVC_HUiT1HpXSf__uHJxxeoY348y6jeE-wKhL0MtLNV7zoa41z_J0BVFKZyEuG5igqFVXvPJatYfGYdRevTnklHnLqGg=w408-h306-k-no,8,FALSE,23.0346215,72.5645153,"Shrimali Society, Navrangpura",Monday,9:30 AM to 8:30 PM,Tuesday,9:30 AM to 8:30 PM,Wednesday,9:30 AM to 8:30 PM,Thursday,9:30 AM to 8:30 PM,Friday,9:30 AM to 8:30 PM,Saturday,9:30 AM to 8:30 PM,Sunday,10:30 AM to 2 PM,FALSE,+91 79 2640 0502,9.18E+11,380009,4,174,,,,,,Gujarat,"Shreyas Complex, Bus Stop, 119, opposite Jain Derasar, nr. Navrangpura",મહાવીર ઝેરોક્ષ,4.3,https://www.google.com/maps/search/?api=1&query=Mahavir%20Xerox&query_place_id=ChIJ____P_WEXjkR7MZe65FztL8,
Jalaram Xerox,"5, Ashwamegh Complex, Nr. Mithakhali Underbridge, Navrangpura, Ahmedabad, Gujarat 380009, India",Copy shop,Computer accessories store,Computer hardware manufacturer,Copying supply store,Lamination service,Pen store,Printing equipment supplier,Stationery store,Stationery wholesaler,,Copy shop,3.16E+18,Ahmedabad,FALSE,IN,https://lh3.googleusercontent.com/gps-cs-s/AC9h4nrAYWgKGqoDuSOeSe12JcpuWbUsjfxlejYtUTK0_ssDfS77aDxCmKQPlZBgHM1it2e3hAM276rpELD04kHxdTPZn1MjQx-uGrteMbjGTX4N3Y_4BjYb3O8Mm7E2XlDykeFV_Bgx=w408-h304-k-no,5,FALSE,23.0308212,72.5665353,"Muslim Society, Navrangpura",Monday,10:30 AM to 7 PM,Tuesday,10:30 AM to 7 PM,Wednesday,10:30 AM to 7 PM,Thursday,10:30 AM to 7 PM,Friday,10:30 AM to 7 PM,Saturday,10:30 AM to 7 PM,Sunday,Closed,FALSE,+91 98983 93221,9.20E+11,380009,9,5,,,,,,Gujarat,"5, Ashwamegh Complex, Nr. Mithakhali Underbridge",જલારામ ઝેરોક્ષ,4.8,https://www.google.com/maps/search/?api=1&query=Jalaram%20Xerox&query_place_id=ChIJ9TK-NvaEXjkRmtRzLVCHySs,
Apana xerox,"Basement, A block, Apna bazaar, opp. Jilla Panchayat, Old City, Lal Darwaja, Ahmedabad, Gujarat 380001, India",Print shop,,,,,,,,,,Print shop,1.36E+19,Ahmedabad,TRUE,IN,https://lh3.googleusercontent.com/gps-cs-s/AC9h4nptAAZORc53M9y7vFXD43TY7oEI6yUssalDf5XTAkcFfazYd-SYqmobbc3w0WtdDIcvVKWW49Sd1ofL2zr52DeQTDASFZv_ajKJK217urjIkrDevUT_sw0Qd1Wq_o2gboQg4L-tNQ=w408-h306-k-no,215,FALSE,23.025761,72.5800069,"Old City, Lal Darwaja",Monday,9:30 AM to 7 PM,Tuesday,9:30 AM to 7 PM,Wednesday,9:30 AM to 7 PM,Thursday,9:30 AM to 7 PM,Friday,9:30 AM to 7 PM,Saturday,9:30 AM to 7 PM,Sunday,Closed,FALSE,,,380001,10,631,,,,,,Gujarat,"Basement, A block, Apna bazaar, opp. Jilla Panchayat",અપના ઝેરોક્સ,3.8,https://www.google.com/maps/search/?api=1&query=Apana%20xerox&query_place_id=ChIJ0zfyUweFXjkRu88Kix8Ykrw,
Khushboo Xerox,"Bhavani Chambers, 1-2, Ashram Rd, near Times Of India Complex, opp. bahera munga school, Vishalpur, Muslim Society, Navrangpura, Ahmedabad, Gujarat 380009, India",Print shop,,,,,,,,,,Print shop,1.21E+19,Ahmedabad,FALSE,IN,https://lh3.googleusercontent.com/gps-cs-s/AC9h4no_iVDE-QELj6zoulhHzLaDpywzGKc1_XHZ1_uxWlCi7MpBkB1H9wdRwXkKN9jqVhG1H_IajeC40c6ck-GtFyCJQEEDYc1HVbgB-LXRG61k0wnvOfQbnMa50x9Z-HTjgQnSqVSH6A=w408-h306-k-no,5,FALSE,23.034529,72.5695574,"Vishalpur, Muslim Society, Navrangpura",Monday,9:30 AM to 8:30 PM,Tuesday,9:30 AM to 8:30 PM,Wednesday,9:30 AM to 8:30 PM,Thursday,9:30 AM to 8:30 PM,Friday,9:30 AM to 8:30 PM,Saturday,9:30 AM to 8:30 PM,Sunday,10 AM to 1 PM,FALSE,+91 98796 87795,9.20E+11,380009,11,27,,,,,,Gujarat,"Bhavani Chambers, 1-2, Ashram Rd, near Times Of India Complex, opp. bahera munga school",ખૂશબૂ ઝેરોક્ષ,4.3,https://www.google.com/maps/search/?api=1&query=Khushboo%20Xerox&query_place_id=ChIJXdYtOV-EXjkRZwUI2R5kbKc,
Jaya Xerox,"Shop No.1-55, Shree Krishna Centre, Mithakhali Cir, near Vijaya Bank, Mithakhali, Navrangpura, Ahmedabad, Gujarat 380015, India",Print shop,,,,,,,,,,Print shop,9.45E+18,Ahmedabad,FALSE,IN,https://lh3.googleusercontent.com/gps-proxy/ALd4DhEAjGfAfncv6aWDhE6qZC3xqucVhBNeATvrUYvE9tyXhVxHw5LxqhAbMupYEWMeq_I0vjSXMAlTfo022YhNvFTRXNnMSiBT8WQ3OYWP0OlVGjSOGHOZVhzNWOqopR4-wlSfDu1IWFVVTc2BST0DegWFG0JPix47Den0xBs42PLJWMlPflOAKO4duWTev_dmGn_2_w=w408-h306-k-no,3,FALSE,23.033103,72.565383,"Mithakhali, Navrangpura",Monday,8:30 AM to 10 PM,Tuesday,8:30 AM to 10 PM,Wednesday,8:30 AM to 10 PM,Thursday,8:30 AM to 10 PM,Friday,8:30 AM to 10 PM,Saturday,8:30 AM to 10 PM,Sunday,8:30 AM to 10 PM,FALSE,+91 94276 21991,9.19E+11,380015,15,0,,,,,,Gujarat,"Shop No.1-55, Shree Krishna Centre, Mithakhali Cir, near Vijaya Bank",જય ઝેરોક્સ,,https://www.google.com/maps/search/?api=1&query=Jaya%20Xerox&query_place_id=ChIJJ8Q11vWEXjkRU9QDFPKDM4M,
PATEL COLOUR XEROX,"12, Swastik Super Market , Opp. Popular House, Near R. Kumar Ashram Road Mill Officer's Colony, Income Tax, Ahmedabad, Gujarat 380009, India",Copy shop,Graphic designer,Print shop,,,,,,,,Copy shop,5.82E+18,Ahmedabad,FALSE,IN,https://lh3.googleusercontent.com/p/AF1QipPj7LOsrRsg4p3Snz4EzQWtpfC0ma_p4SL1SAYj=w408-h240-k-no,6,FALSE,23.0368983,72.5690783,"Income Tax, Shreyas Colony, Navrangpura",,,,,,,,,,,,,,,FALSE,+91 98240 03564,9.20E+11,380009,18,4,,,,,,Gujarat,"12, Swastik Super Market , Opp. Popular House, Near R. Kumar Ashram Road Mill Officer's Colony",પટેલ રંગ લેબ પ્રાઇવેટ લિમિટેડ,4.3,https://www.google.com/maps/search/?api=1&query=PATEL%20COLOUR%20XEROX&query_place_id=ChIJ1VTzcGCEXjkRZrF5puAsxVA,
Chaudhari Xerox,"2HH5+CVF, Opp Axis Bank, Near Samrtheshwar Mahadev, Law Garden, Samartheshwar Mahadev Rd, Ellisbridge, Ahmedabad, Gujarat 380006, India",Copy shop,Lamination service,,,,,,,,,Copy shop,1.56E+19,Ahmedabad,TRUE,IN,https://lh3.googleusercontent.com/gps-cs-s/AC9h4nqhNomYiWJDpMC912Id0vSiu_ph_uTMC61NBfqT2jkDaBSykx80ap39ci-BK_3Hsp2r74ncCOB4dN3Jl6CBTQVqpLm2fv06W2bDzV9F7TDcXcbJGlgUzWJWes2rF-KMcAirBSo=w408-h443-k-no,4,FALSE,23.0285505,72.559676,Ellisbridge,Monday,9 AM to 7:30 PM,Tuesday,9 AM to 7:30 PM,Wednesday,9 AM to 7:30 PM,Thursday,9 AM to 7:30 PM,Friday,9 AM to 7:30 PM,Saturday,9 AM to 7:30 PM,Sunday,Closed,FALSE,+91 79 2640 6868,9.18E+11,380006,20,14,,,,,,Gujarat,"2HH5+CVF, Opp Axis Bank, Near Samrtheshwar Mahadev, Law Garden, Samartheshwar Mahadev Rd",ચૌધરી ઝેરોક્સ,3.8,https://www.google.com/maps/search/?api=1&query=Chaudhari%20Xerox&query_place_id=ChIJ1w4p7vCEXjkRoRIZhXY3nNg,
"Kutbi Xerox, Print and Lamination Shop","Kutbi Xerox, Mirzapur Road, opposite Mirzapur District Court, Ahmedabad, Gujarat 380001, India",Copy shop,Print shop,,,,,,,,,Copy shop,1.01E+19,Ahmedabad,FALSE,IN,https://lh3.googleusercontent.com/p/AF1QipN_GFC_KFfLq-AP5Vto2UmPcyPWndiUjtj9FJTA=w408-h408-k-no,4,FALSE,23.0328105,72.5848006,"Old City, Gheekanta, Bhadra",Monday,10:30 AM to 8:30 PM,Tuesday,10:30 AM to 8:30 PM,Wednesday,10:30 AM to 8:30 PM,Thursday,10:30 AM to 8:30 PM,Friday,10:30 AM to 8:30 PM,Saturday,10:30 AM to 8:30 PM,Sunday,Closed,FALSE,+91 84878 70611,9.18E+11,380001,31,3,2,1,0,0,0,Gujarat,"Kutbi Xerox, Mirzapur Road, opposite Mirzapur District Court",,4.7,https://www.google.com/maps/search/?api=1&query=Kutbi%20Xerox%2C%20Print%20and%20Lamination%20Shop&query_place_id=ChIJfR3QMUSEXjkRpQZXo66otIw,
Rajesh Xerox,"UL-29, Samudra Complex, Above Saffron Hotel, C.G.Road, Saffron Hotel, Umashankar Joshi Marg, Vasant Vihar, Navrangpura, Ahmedabad, Gujarat 380006, India",Print shop,Copy shop,,,,,,,,,Print shop,2.43E+18,Ahmedabad,FALSE,IN,https://lh3.googleusercontent.com/gps-cs-s/AC9h4npSrAkKKO-z9sTSsOI_g_c2H1mCni-oXNGh3pFjjt7Nig-WSN9C5Vd7kOjxu4lLpmWIKTVxncAbwXZ3GIwIspjgNqCcEYGAj-U_HLqZS3eBpoMY4YZxzJBrv96xnbM9K7ZLtH5uMQ=w408-h725-k-no,6,FALSE,23.0330476,72.5587054,"Vasant Vihar, Navrangpura",Monday,9 AM to 8 PM,Tuesday,9 AM to 8 PM,Wednesday,9 AM to 8 PM,Thursday,9 AM to 8 PM,Friday,9 AM to 8 PM,Saturday,9 AM to 8 PM,Sunday,Closed,FALSE,+91 98256 99555,9.20E+11,380006,33,15,13,2,0,0,0,Gujarat,"UL-29, Samudra Complex, Above Saffron Hotel, C.G.Road, Saffron Hotel, Umashankar Joshi Marg",રાજેશ ઝેરોક્સ,4.9,https://www.google.com/maps/search/?api=1&query=Rajesh%20Xerox&query_place_id=ChIJVUp4Z0yEXjkRnppkVqPlrSE,
Ganesh Xerox,"Galaxy Line Complex, Samartheshwar Mahadev Rd, near Freezeland Restaurant, Law Garden, Ellisbridge, Ahmedabad, Gujarat 380006, India",Copy shop,Print shop,,,,,,,,,Copy shop,1.01E+18,Ahmedabad,TRUE,IN,https://streetviewpixels-pa.googleapis.com/v1/thumbnail?panoid=s2iv4tRPAX17fcj_2SQ3sw&cb_client=search.gws-prod.gps&w=408&h=240&yaw=329.32043&pitch=0&thumbfov=100,1,FALSE,23.028178,72.55907,Ellisbridge,Monday,9 AM to 7 PM,Tuesday,9 AM to 7 PM,Wednesday,9 AM to 7 PM,Thursday,9 AM to 7 PM,Friday,9 AM to 7 PM,Saturday,9 AM to 7 PM,Sunday,Closed,FALSE,,,380006,34,5,3,1,1,0,0,Gujarat,"Galaxy Line Complex, Samartheshwar Mahadev Rd, near Freezeland Restaurant, Law Garden",ગણેશ ઝેરોક્ષ,4,https://www.google.com/maps/search/?api=1&query=Ganesh%20Xerox&query_place_id=ChIJ69Sn9fCEXjkRPex13IFcDw4,
New best Xerox,"Shop no 10, Sahyog complex, Mirzapur Rd, near dinbai tower, Old City, Khanpur, Ahmedabad, Gujarat 380001, India",Copy shop,,,,,,,,,,Copy shop,8.98E+18,Ahmedabad,FALSE,IN,https://streetviewpixels-pa.googleapis.com/v1/thumbnail?panoid=DBFXr-SU5V4HWq-zXNv5fg&cb_client=search.gws-prod.gps&w=408&h=240&yaw=233.64984&pitch=0&thumbfov=100,1,FALSE,23.028062,72.5810131,"Old City, Khanpur",Monday,9 AM to 9 PM,Tuesday,9 AM to 9 PM,Wednesday,9 AM to 9 PM,Thursday,9 AM to 9 PM,Friday,9 AM to 9 PM,Saturday,9 AM to 9 PM,Sunday,9 AM to 5 PM,FALSE,+91 6355 065 909,9.16E+11,380001,39,0,,,,,,Gujarat,"Shop no 10, Sahyog complex, Mirzapur Rd, near dinbai tower",,,https://www.google.com/maps/search/?api=1&query=New%20best%20Xerox&query_place_id=ChIJL64HEJmFXjkRS8kcYwqWkHw,
VARDHMAN THE DIGITAL PRINT SHOP,"9, Suryodaya Complex, Chimanlal Girdharlal Rd, nr. Swastik Cross Road, Swastik Society, Navrangpura, Ahmedabad, Gujarat 380009, India",Digital printing service,,,,,,,,,,Digital printing service,3.68E+18,Ahmedabad,FALSE,IN,https://lh3.googleusercontent.com/p/AF1QipOZZDAbmG3F374zPn32JdtP7cJOMzjP0hjFmt1C=w408-h812-k-no,13,FALSE,23.0365779,72.5615877,"Swastik Society, Navrangpura",Monday,9 AM to 9 PM,Tuesday,9 AM to 9 PM,Wednesday,9 AM to 9 PM,Thursday,9 AM to 9 PM,Friday,9 AM to 9 PM,Saturday,9 AM to 9 PM,Sunday,9 AM to 4 PM,FALSE,+91 88661 19119,9.19E+11,380009,40,58,53,4,0,1,0,Gujarat,"9, Suryodaya Complex, Chimanlal Girdharlal Rd, nr. Swastik Cross Road",,4.9,https://www.google.com/maps/search/?api=1&query=VARDHMAN%20THE%20DIGITAL%20PRINT%20SHOP&query_place_id=ChIJGfbE9AmFXjkRXJBVMavQEjM,
Shree Padmavati Xerox Centre,"30, Ashmi Shopping Centre,Opposite Memnagar Fire Station,120 Feet Ring Road, Navrangpura, Ahmedabad, Gujarat 380009, India",Copy shop,,,,,,,,,,Copy shop,1.31E+19,Ahmedabad,FALSE,IN,https://lh3.googleusercontent.com/p/AF1QipNx5OJEJPc3cP44S-1vvU1hGc3GVC5pp_A6lxCH=w426-h240-k-no,4,FALSE,23.0444837,72.5508413,"Sarvottam Nagar Society, Navrangpura",Monday,10 AM to 9 PM,Tuesday,10 AM to 9 PM,Wednesday,10 AM to 9 PM,Thursday,10 AM to 9 PM,Friday,10 AM to 9 PM,Saturday,10 AM to 9 PM,Sunday,Closed,FALSE,+91 79 4004 1024,9.18E+11,380009,1,18,,,,,,Gujarat,"30, Ashmi Shopping Centre,Opposite Memnagar Fire Station,120 Feet Ring Road",શ્રી પદ્માવતી ઝેરોક્ષ સેન્ટર,4.3,https://www.google.com/maps/search/?api=1&query=Shree%20Padmavati%20Xerox%20Centre&query_place_id=ChIJFVVVFfWEXjkR9bt7dmxmTbU,
Jalaram Xerox,"5, Theosophical Society, Vijay Cross Rd, Sarvottam Nagar Society, Navrangpura, Ahmedabad, Gujarat 380009, India",Copy shop,,,,,,,,,,Copy shop,6.44E+18,Ahmedabad,TRUE,IN,https://lh3.googleusercontent.com/gps-cs-s/AC9h4noNPW_p0qmyBSjBoqzlSL-NiL7qdtKQjyAqGjajo_zVASd-2U-WZULc9MkstB-QZNTdP9KITgHpWXvlkEy7c7vKcHyTZCAHvJDccx72lT-FXW2ZTP1AvfTIx1fGkkM-Goq1vVRZ=w426-h240-k-no,3,FALSE,23.0413026,72.5490412,"Sarvottam Nagar Society, Navrangpura",Monday,9 AM to 7 PM,Tuesday,9 AM to 7 PM,Wednesday,9 AM to 7 PM,Thursday,9 AM to 7 PM,Friday,9 AM to 7 PM,Saturday,9 AM to 7 PM,Sunday,9 AM to 12 PM,FALSE,+91 98792 52177,9.20E+11,380009,3,8,,,,,,Gujarat,"5, Theosophical Society, Vijay Cross Rd",,4.5,https://www.google.com/maps/search/?api=1&query=Jalaram%20Xerox&query_place_id=ChIJG9IDH0KFXjkREW60kdNBbFk,
Xerox Centre,"2GQX+688, University Area, Ahmedabad, Gujarat 380009, India",Copy shop,Printing equipment supplier,,,,,,,,,Copy shop,1.57E+19,Ahmedabad,TRUE,IN,https://lh3.googleusercontent.com/gps-cs-s/AC9h4np_8CBDMVxAhKYEuIJPR7UpZQIYdblhKQua0DxIvxqVvnslRmdFM3FK_cFY75ZuXeaHHVsQB9R66UWchqWPOGG7RSpnmSpY_ciIDiZsiV5spVpe7Q9YQVGujuvzBTFCn5gBN4Cp=w408-h306-k-no,5,FALSE,23.0380418,72.548319,University Area,Monday,10 AM to 6 PM,Tuesday,10 AM to 6 PM,Wednesday,10 AM to 6 PM,Thursday,10 AM to 6 PM,Friday,10 AM to 6 PM,Saturday,10 AM to 6 PM,Sunday,Closed,FALSE,,,380009,9,33,,,,,,Gujarat,2GQX+688,ઝેરોક્સ સેન્ટર,3.8,https://www.google.com/maps/search/?api=1&query=Xerox%20Centre&query_place_id=ChIJlycTwZSEXjkREoRyACzjdNo,https://www.xerox.com/
Shri Umiya Xerox,"Dhara Complex, Drive In Rd, Sarvottam Nagar Society, Navrangpura, Ahmedabad, Gujarat 380009, India",Copy shop,Print shop,,,,,,,,,Copy shop,6.64E+18,Ahmedabad,TRUE,IN,https://streetviewpixels-pa.googleapis.com/v1/thumbnail?panoid=mooy5ETWM4RlhUCslHHT4w&cb_client=search.gws-prod.gps&w=408&h=240&yaw=36.296722&pitch=0&thumbfov=100,1,FALSE,23.0421843,72.5506206,"Sarvottam Nagar Society, Navrangpura",Monday,9 AM to 7 PM,Tuesday,9 AM to 10 PM,Wednesday,9 AM to 10 PM,Thursday,9 AM to 10 PM,Friday,9 AM to 10 PM,Saturday,9 AM to 10 PM,Sunday,9 AM to 10 PM,FALSE,+91 99749 84570,9.20E+11,380009,10,1,,,,,,Gujarat,"Dhara Complex, Drive In Rd",શ્રી ઉમિયા ઝેરોક્સ,5,https://www.google.com/maps/search/?api=1&query=Shri%20Umiya%20Xerox&query_place_id=ChIJge7DnpaEXjkR_MVmxVVzMVw,
Siddhi Xerox,"11, University Plaza, Vijay Char Rasta, 120 Feet Ring Road, Vijay Cross Rd, Sarvottam Nagar Society, Navrangpura, Ahmedabad, Gujarat 380009, India",Copy shop,Print shop,,,,,,,,,Copy shop,1.60E+19,Ahmedabad,FALSE,IN,https://lh3.googleusercontent.com/gps-cs-s/AC9h4nojVBN_-9ezNJT14wFv--96Lo0uLQX3CeR3-gRU3JnQUm762BVTOBUlznS-9vP2ELFyxX1ZiJKcje5guL2ZqTlnCO_rt7LWPTqkkXECmBIDdcUug_4f3omu_nbpuixPc6LbmCoY=w408-h544-k-no,3,FALSE,23.0407743,72.5482895,"Vijay Cross Rd, Sarvottam Nagar Society, Navrangpura",,,,,,,,,,,,,,,FALSE,,,380009,15,2,,,,,,Gujarat,"11, University Plaza, Vijay Char Rasta, 120 Feet Ring Road",સિધ્ધિ ઝેરોક્ષ,4.5,https://www.google.com/maps/search/?api=1&query=Siddhi%20Xerox&query_place_id=ChIJocHdQ5SEXjkR-FTr2B1hRd4,
Navkar Copiers,"1, Devnandan Complex, Ashram Rd, opposite Sanyas, near M. J. Library, Ellisbridge, Ahmedabad, Gujarat 380006, India",Print shop,Copier repair service,Copy shop,,,,,,,,Print shop,1.66E+19,Ahmedabad,FALSE,IN,https://lh3.googleusercontent.com/gps-cs-s/AC9h4nqVtp86RL4Y4c3wr93RPRVvoqPf5smdbnsqXZQ2mQF7fFlWnMHff9YkhbXg-c8go_f5jzdnD9mrAy9ziJYizLa5V62fMAuVCxIkWKOg54f7VFF8MYAIIK3w5uHI2scOoQZoDiJ9=w408-h544-k-no,11,FALSE,23.024313,72.571063,Ellisbridge,Monday,10 AM to 8:30 PM,Tuesday,10 AM to 8:30 PM,Wednesday,10 AM to 8:30 PM,Thursday,10 AM to 8:30 PM,Friday,10 AM to 8:30 PM,Saturday,10 AM to 8:30 PM,Sunday,Closed,FALSE,+91 97262 75475,9.20E+11,380006,46,19,11,3,3,2,0,Gujarat,"1, Devnandan Complex, Ashram Rd, opposite Sanyas, near M. J. Library",નવકાર કોપિયર્સ,4,https://www.google.com/maps/search/?api=1&query=Navkar%20Copiers&query_place_id=ChIJq_Nf91aEXjkRLO-qXBlZVuY,
Khushboo Copiers,"Ankur Chambers, Opp. Hasubhai Chambers, Behind Town Hall, Surendra Mangaldas Rd, Ellisbridge, Ahmedabad, Gujarat 380006, India",Digital printer,,,,,,,,,,Digital printer,8.15E+18,Ahmedabad,FALSE,IN,https://lh3.googleusercontent.com/gps-cs-s/AC9h4nqv3o0Md9wFsB31zDCXlLXpktV58h0Usbfmkz3pLwMrOt24MBBDO597QigfprwP41K9A46xR5n4eJxfH6GSZLs_p3kn3WK9dG8JLUMTeA3cfn2QDG3G_r0kkQdN3BzpqUW5mbyt=w408-h724-k-no,13,FALSE,23.0223483,72.5702074,Ellisbridge,Monday,10 AM to 8:30 PM,Tuesday,10 AM to 8:30 PM,Wednesday,10 AM to 8:30 PM,Thursday,10 AM to 8:30 PM,Friday,10 AM to 8:30 PM,Saturday,10 AM to 8:30 PM,Sunday,Closed,FALSE,+91 92282 07149,9.19E+11,380006,48,33,20,7,3,2,1,Gujarat,"Ankur Chambers, Opp. Hasubhai Chambers, Behind Town Hall, Surendra Mangaldas Rd",ખુશ્બૂ કોપિયર્સ,4.2,https://www.google.com/maps/search/?api=1&query=Khushboo%20Copiers&query_place_id=ChIJYzB2eVaEXjkREUhA_iTPE3E,
Honest Xerox,"Relief Arcade, Relief Rd, Patthar Kuva, Gheekanta, Bhadra, Ahmedabad, Gujarat 380001, India",Print shop,,,,,,,,,,Print shop,4.88E+17,Ahmedabad,TRUE,IN,https://lh3.googleusercontent.com/gps-cs-s/AC9h4npRg-nBYi6cxfr1qpW1xCiY6enLZnhIEFimvd0GwUwzr5s0hi__TvTQt8pxVCd1PwX1G1KuUpVixrQg0ySmzWLOZp7MBh2ZbxnVp6EWctiRPtto2Gycph0JWDY1j0fioMdUoOKPqQ=w408-h903-k-no,4,FALSE,23.0269224,72.58325,"Patthar Kuva, Gheekanta, Bhadra",,,,,,,,,,,,,,,FALSE,+91 76001 09894,9.18E+11,380001,49,1,1,0,0,0,0,Gujarat,"Relief Arcade, Relief Rd",,5,https://www.google.com/maps/search/?api=1&query=Honest%20Xerox&query_place_id=ChIJ7e_3gh-FXjkRWp8RH_L2xQY,
Raj Xerox,"1, Saroadar Patel Chambers, 1, near Natraj Hotel, opposite Treasury Office, Old City, Lal Darwaja, Ahmedabad, Gujarat 380001, India",Print shop,,,,,,,,,,Print shop,1.26E+19,Ahmedabad,TRUE,IN,,,FALSE,23.026218,72.57702,"Old City, Lal Darwaja",Monday,10 AM to 9 PM,Tuesday,10 AM to 9 PM,Wednesday,10 AM to 9 PM,Thursday,10 AM to 9 PM,Friday,10 AM to 9 PM,Saturday,10 AM to 9 PM,Sunday,10 AM to 9 PM,FALSE,+91 73830 43404,9.17E+11,380001,50,0,,,,,,Gujarat,"1, Saroadar Patel Chambers, 1, near Natraj Hotel, opposite Treasury Office",,,https://www.google.com/maps/search/?api=1&query=Raj%20Xerox&query_place_id=ChIJn6TWVlCEXjkRzrbyjI7Xc64,
Bhagvati Colour Xerox,"2HP6+8XV, Navrangpura Rd, Opposite Narnarayan Complex, Shrimali Society, Navrangpura, Ahmedabad, Gujarat 380009, India",Copy shop,,,,,,,,,,Copy shop,1.40E+19,Ahmedabad,TRUE,IN,https://lh3.googleusercontent.com/gps-proxy/ALd4DhE1mr4oy5PLMJ9WUK2Ilv6gveYovpxOhE68b6Q9ZZgvUBnCVJT_yzQD9wU9bW-gScANc9TkirD-vuvm2Ke4JlE7SYn3m1-_IWq3qx9-NaXENYEe_RC8YLaNck6_QzZCq1U8wyDcZQPOSTDDKDYnP69J9ps3gdZrZAwk7CbYX9FYkXmgFv5b1xlQAiOBolWlu_RAdg=w408-h544-k-no,3,FALSE,23.0358618,72.5624187,"Shrimali Society, Navrangpura",,,,,,,,,,,,,,,FALSE,+91 93777 73387,9.19E+11,380009,51,1,1,0,0,0,0,Gujarat,"2HP6+8XV, Navrangpura Rd, Opposite Narnarayan Complex",ભગવતી કલર ઝેરોક્સ,5,https://www.google.com/maps/search/?api=1&query=Bhagvati%20Colour%20Xerox&query_place_id=ChIJ37aOhvSEXjkRViy4xhs4asI,
Metro Xerox - 49 1st Floor,"2HJH+562, Old City, Khanpur, Ahmedabad, Gujarat 380001, India",Print shop,,,,,,,,,,Print shop,1.70E+19,Ahmedabad,TRUE,IN,https://streetviewpixels-pa.googleapis.com/v1/thumbnail?panoid=KmDJLLaSHsucuMCyBobiqQ&cb_client=search.gws-prod.gps&w=408&h=240&yaw=237.58374&pitch=0&thumbfov=100,1,FALSE,23.0303941,72.5780117,"Old City, Khanpur",,,,,,,,,,,,,,,FALSE,,,380001,53,0,,,,,,Gujarat,2HJH+562,,,https://www.google.com/maps/search/?api=1&query=Metro%20Xerox%20-%2049%201st%20Floor&query_place_id=ChIJZbmgcACFXjkRwxZ8HWCc7-s,
CYBERA PRINT ART,"G-3, Samudra Annexe, Near Girish Cold Drinks Cross Roads, Chimanlal Girdharlal Rd, Vasant Vihar, Navrangpura, Ahmedabad, Gujarat 380009, India",Digital printing service,,,,,,,,,,Digital printing service,8.87E+18,Ahmedabad,FALSE,IN,https://lh3.googleusercontent.com/p/AF1QipMSWUH-iPO_YXujnwhmtIxMCDgNlCapmc8dCRbM=w408-h288-k-no,22,FALSE,23.0331808,72.5588728,"Vasant Vihar, Navrangpura",Monday,10 AM to 7:30 PM,Tuesday,10 AM to 7:30 PM,Wednesday,10 AM to 7:30 PM,Thursday,10 AM to 7:30 PM,Friday,10 AM to 7:30 PM,Saturday,10 AM to 7:30 PM,Sunday,Closed,FALSE,+91 98983 09897,9.20E+11,380009,54,177,139,19,7,9,3,Gujarat,"G-3, Samudra Annexe, Near Girish Cold Drinks Cross Roads, Chimanlal Girdharlal Rd",સાયબર પ્રિન્ટ આર્ટ,4.6,https://www.google.com/maps/search/?api=1&query=CYBERA%20PRINT%20ART&query_place_id=ChIJrQPTMvKEXjkR1Xsyqg0OFHs,
New best Xerox,"Sahyog complex, Sheth Kasturbhai Mayabhai Marg, Old City, Khanpur, Ahmedabad, Gujarat 380001, India",Copy shop,,,,,,,,,,Copy shop,6.88E+18,Ahmedabad,TRUE,IN,https://streetviewpixels-pa.googleapis.com/v1/thumbnail?panoid=EKUHSDmBR5Z1rW79uxMq8g&cb_client=search.gws-prod.gps&w=408&h=240&yaw=238.28651&pitch=0&thumbfov=100,1,FALSE,23.0280278,72.5810205,"Old City, Khanpur",,,,,,,,,,,,,,,FALSE,,,380001,55,0,,,,,,Gujarat,"Sahyog complex, Sheth Kasturbhai Mayabhai Marg",,,https://www.google.com/maps/search/?api=1&query=New%20best%20Xerox&query_place_id=ChIJc56UQgCFXjkRYmM63fChhV8,
Thesis binding (radhe xerox),"gate no.8, shop no.12, sachet 2, Netaji Rd, opp. GLS college, Ahmedabad, Gujarat 380009, India",Print shop,,,,,,,,,,Print shop,1.56E+19,Ahmedabad,TRUE,IN,https://streetviewpixels-pa.googleapis.com/v1/thumbnail?panoid=EjCEFiU5DjevMhfMizyCqw&cb_client=search.gws-prod.gps&w=408&h=240&yaw=16.235672&pitch=0&thumbfov=100,1,FALSE,23.0266643,72.5582004,Ellisbridge,Monday,9 AM to 7 PM,Tuesday,9 AM to 7 PM,Wednesday,9 AM to 7 PM,Thursday,9 AM to 7 PM,Friday,9 AM to 7 PM,Saturday,9 AM to 7 PM,Sunday,Closed,FALSE,+91 77788 44446,9.18E+11,380009,56,0,,,,,,Gujarat,"gate no.8, shop no.12, sachet 2, Netaji Rd, opp. GLS college",,,https://www.google.com/maps/search/?api=1&query=Thesis%20binding%20(radhe%20xerox)&query_place_id=ChIJsxyR4pSFXjkRe9KCGZu23tg,
Deepak Copiers And Printers,"Main Gate, opp. Gujarat College, Ellisbridge, Ahmedabad, Gujarat 380006, India",Digital printing service,,,,,,,,,,Digital printing service,7.75E+18,Ahmedabad,FALSE,IN,https://lh3.googleusercontent.com/p/AF1QipOIoSr8iT0fzzlnk4MuFS87RXdY8usCwRPgFbv-=w408-h905-k-no,15,FALSE,23.0220591,72.5677147,Ellisbridge,Monday,10 AM to 8:30 PM,Tuesday,10 AM to 8:30 PM,Wednesday,10 AM to 8:30 PM,Thursday,10 AM to 8:30 PM,Friday,10 AM to 8:30 PM,Saturday,10 AM to 8:30 PM,Sunday,Closed,FALSE,+91 97232 27227,9.20E+11,380006,61,0,,,,,,Gujarat,"Main Gate, opp. Gujarat College",,,https://www.google.com/maps/search/?api=1&query=Deepak%20Copiers%20And%20Printers&query_place_id=ChIJ04JY55yFXjkRf8m8vYRJfWs,
Kunal Print Pallet,"A1, Navrang Super Market, Bus Stand, Navrangpura Rd, opposite Navrangpura, Navarangpura Gam, Navrangpura, Ahmedabad, Gujarat 380009, India",Print shop,,,,,,,,,,Print shop,1.29E+19,Ahmedabad,FALSE,IN,https://lh3.googleusercontent.com/p/AF1QipOVq8hvj3EmXpqzXJYdY0orLMmORC480YbFjnt1=w408-h274-k-no,4,FALSE,23.0356234,72.5647301,"Navarangpura Gam, Navrangpura",Monday,7 AM to 7 PM,Tuesday,7 AM to 7 PM,Wednesday,7 AM to 7 PM,Thursday,7 AM to 7 PM,Friday,7 AM to 7 PM,Saturday,7 AM to 7 PM,Sunday,7 AM to 12 PM,FALSE,+91 93270 81009,9.19E+11,380009,62,6,2,0,2,0,2,Gujarat,"A1, Navrang Super Market, Bus Stand, Navrangpura Rd, opposite Navrangpura",કુણાલ પ્રિન્ટ પલ્લેટ,2.7,https://www.google.com/maps/search/?api=1&query=Kunal%20Print%20Pallet&query_place_id=ChIJ____P_WEXjkRkzDPNTa9hbM,
Navkar prints,"Ground Floor, Swastik super Market, Ashram Rd, near Sales India, Mill Officer's Colony, Shreyas Colony, Navrangpura, Ahmedabad, Gujarat 380009, India",Digital printing service,Commercial printer,Print shop,,,,,,,,Digital printing service,1.28E+18,Ahmedabad,FALSE,IN,https://lh3.googleusercontent.com/gps-cs-s/AC9h4no8DcrNfGXqTlmTr4zCz9p8gGLgp6d88W9ydSHde779VAeXW5wYUJKqEIW3t0wwZwqswnamw8DtE2SiMYCCGzidaHOcr8CBELaJjFA55o3rXdgBbVVqG8fmhEUvIDNYPvx35b8j=w408-h306-k-no,2,FALSE,23.0368072,72.5691641,"Mill Officer's Colony, Shreyas Colony, Navrangpura",Monday,10 AM to 8:30 PM,Tuesday,10 AM to 8:30 PM,Wednesday,10 AM to 8:30 PM,Thursday,10 AM to 8:30 PM,Friday,10 AM to 8:30 PM,Saturday,10 AM to 8:30 PM,Sunday,10:30 AM to 1:30 PM,FALSE,+91 91577 49267,9.19E+11,380009,63,6,5,1,0,0,0,Gujarat,"Ground Floor, Swastik super Market, Ashram Rd, near Sales India",નવકાર પ્રિન્ટસ,4.8,https://www.google.com/maps/search/?api=1&query=Navkar%20prints&query_place_id=ChIJsZDumF-EXjkRU7THLjilzxE,
Ideal Duplicating Bureau,"72, Sarvoday Commercial Centre, Near G.P.O, Salapose Rd, Gheekanta, Bhadra, Ahmedabad, Gujarat 380001, India",Print shop,Commercial printer,Typing service,,,,,,,,Print shop,1.29E+18,Ahmedabad,TRUE,IN,https://streetviewpixels-pa.googleapis.com/v1/thumbnail?panoid=xUmIRQ2GtUGb8FF1rYfs3Q&cb_client=search.gws-prod.gps&w=408&h=240&yaw=181.63258&pitch=0&thumbfov=100,2,FALSE,23.0274741,72.5835242,"Old City, Gheekanta, Bhadra",Monday,9 AM to 8:30 PM,Tuesday,9 AM to 8:30 PM,Wednesday,9 AM to 8:30 PM,Thursday,9 AM to 8:30 PM,Friday,9 AM to 8:30 PM,Saturday,9 AM to 8:30 PM,Sunday,Closed,FALSE,+91 74870 52820,9.17E+11,380001,64,3,1,0,2,0,0,Gujarat,"72, Sarvoday Commercial Centre, Near G.P.O, Salapose Rd",આદર્શ નકલ બ્યુરો,2.3,https://www.google.com/maps/search/?api=1&query=Ideal%20Duplicating%20Bureau&query_place_id=ChIJVVVVpVGEXjkRIcZjpENu9xE,
SAMEER STATIONERY & XEROX,"Samir parlour, opp. rangeela police chowky, near torrent power, Old City, Shahpur, Ahmedabad, Gujarat 380001, India",Print shop,Copy shop,Stationery store,,,,,,,,Print shop,1.23E+19,Ahmedabad,FALSE,IN,https://streetviewpixels-pa.googleapis.com/v1/thumbnail?panoid=I5XQS_0ncWls08CMVRVxIA&cb_client=search.gws-prod.gps&w=408&h=240&yaw=82.44487&pitch=0&thumbfov=100,5,FALSE,23.0352737,72.5820377,"Old City, Shahpur",Monday,"10:30 AM to 3 PM, 5 to 10 PM",Tuesday,"10:30 AM to 3 PM, 5 to 10 PM",Wednesday,"10:30 AM to 3 PM, 5 to 10 PM",Thursday,"10:30 AM to 3 PM, 5 to 10 PM",Friday,"10:30 AM to 3 PM, 5 to 10 PM",Saturday,Closed,Sunday,"12 to 3 PM, 5 to 10 PM",FALSE,+91 96240 22818,9.20E+11,380001,65,0,,,,,,Gujarat,"Samir parlour, opp. rangeela police chowky, near torrent power",,,https://www.google.com/maps/search/?api=1&query=SAMEER%20STATIONERY%20%26%20XEROX&query_place_id=ChIJRyNHc2OFXjkR5-_XAZr4fKo,https://www.instagram.com/fuzail_printing_xerox/
Gayatri Service Centre Copy Centre,"B-7-8, Central Complex, Vijay Char Rasta, Drive In Rd, Vijay Cross Rd, Sarvottam Nagar Society, Navrangpura, Ahmedabad, Gujarat 380009, India",Print shop,,,,,,,,,,Print shop,9.30E+18,Ahmedabad,TRUE,IN,https://lh3.googleusercontent.com/gps-proxy/ALd4DhGV8iR9fjW-6W16qgd1yTwYvaYV5TM-hRs4jcjHaxff7MQYMWAv_kymEWJZo34s_FCsqsLf3eoPeeqa3OEg7bR1Dvh4mpabP0v8T3mx6iCvgMRCN7EkoEhUXLaG2jNyQ91EPsZgxHTBK-Rbabf-JmdDbieyYvv82dX-Xc1EYpekt6f5cbEG-roisTI5KroAp3kV0A=w408-h306-k-no,2,FALSE,23.0425681,72.5497419,"Vijay Cross Rd, Sarvottam Nagar Society, Navrangpura",Monday,10 AM to 10 PM,Tuesday,10 AM to 10 PM,Wednesday,10 AM to 10 PM,Thursday,10 AM to 10 PM,Friday,10 AM to 10 PM,Saturday,10 AM to 10 PM,Sunday,10 AM to 10 PM,FALSE,+91 79 2642 2561,9.18E+11,380009,42,3,2,0,0,0,1,Gujarat,"B-7-8, Central Complex, Vijay Char Rasta, Drive In Rd",ગાયત્રી સેવા કેન્દ્ર કૉપિ કેન્દ્ર,4,https://www.google.com/maps/search/?api=1&query=Gayatri%20Service%20Centre%20Copy%20Centre&query_place_id=ChIJ40l3AZSEXjkRTfUtkGVVHYE,
Sneha Copier,"Darpan Six Rd, Sarvottam Nagar Society, Navrangpura, Ahmedabad, Gujarat 380014, India",Copy shop,,,,,,,,,,Copy shop,1.69E+19,Ahmedabad,FALSE,IN,https://streetviewpixels-pa.googleapis.com/v1/thumbnail?panoid=cvGw8xexGDlMkxiBUSpriw&cb_client=search.gws-prod.gps&w=408&h=240&yaw=170.97055&pitch=0&thumbfov=100,1,FALSE,23.046684,72.554471,"Sarvottam Nagar Society, Navrangpura",Monday,10 AM to 9 PM,Tuesday,10 AM to 9 PM,Wednesday,10 AM to 9 PM,Thursday,10 AM to 9 PM,Friday,10 AM to 9 PM,Saturday,10 AM to 9 PM,Sunday,11 AM to 5 PM,FALSE,+91 81404 48399,9.18E+11,380014,44,12,9,2,0,1,0,Gujarat,Darpan Six Rd,સ્નેહ કોપિયર,4.7,https://www.google.com/maps/search/?api=1&query=Sneha%20Copier&query_place_id=ChIJFbbQSZCEXjkRdqmuGaCCDus,
Wrap N Print | Printing Shop | Xerox | Visiting Card | Brochure | Pamplets | Banner,"Shop No 9, JK Business Hub, Vijay Cross Rd, University Area, Ahmedabad, Gujarat 380009, India",Print shop,,,,,,,,,,Print shop,1.54E+18,Ahmedabad,FALSE,IN,https://streetviewpixels-pa.googleapis.com/v1/thumbnail?panoid=eUPjU8tRQYT3k8YWpUrpxw&cb_client=search.gws-prod.gps&w=408&h=240&yaw=266.79193&pitch=0&thumbfov=100,1,FALSE,23.0407651,72.5484715,University Area,Monday,9 AM to 10 PM,Tuesday,9 AM to 10 PM,Wednesday,9 AM to 10 PM,Thursday,9 AM to 10 PM,Friday,9 AM to 10 PM,Saturday,9 AM to 10 PM,Sunday,9 AM to 10 PM,FALSE,,,380009,45,7,7,0,0,0,0,Gujarat,"Shop No 9, JK Business Hub, Vijay Cross Rd",,5,https://www.google.com/maps/search/?api=1&query=Wrap%20N%20Print%20%7C%20Printing%20Shop%20%7C%20Xerox%20%7C%20Visiting%20Card%20%7C%20Brochure%20%7C%20Pamplets%20%7C%20Banner&query_place_id=ChIJX5EREH-FXjkRjCAYi-9VbxU,
Dwarkesh Stationers - Art Xerox - Manish Electricals,"BLOCK-A, Drive In Rd, N.K.Group Society, Sarvottam Nagar Society, Navrangpura, Ahmedabad, Gujarat 380009, India",Print shop,Electrical supply store,Lamination service,Stationery store,,,,,,,Print shop,1.26E+19,Ahmedabad,TRUE,IN,https://streetviewpixels-pa.googleapis.com/v1/thumbnail?panoid=74d9Efg3nQLoKLT6r6Jfzg&cb_client=search.gws-prod.gps&w=408&h=240&yaw=31.935808&pitch=0&thumbfov=100,1,FALSE,23.0414405,72.5524462,"N.K.Group Society, Sarvottam Nagar Society, Navrangpura",Monday,10 AM to 8 PM,Tuesday,10 AM to 8 PM,Wednesday,10 AM to 8 PM,Thursday,10 AM to 8 PM,Friday,10 AM to 8 PM,Saturday,10 AM to 8 PM,Sunday,Closed,FALSE,+91 93282 82744,9.19E+11,380009,47,3,2,0,0,1,0,Gujarat,"BLOCK-A, Drive In Rd",દ્વારકેશ સ્ટેશનર્સ - આર્ટ ઝેરોક્સ - મનીષ ઇલેક્ટ્રીકલ્સ,4.3,https://www.google.com/maps/search/?api=1&query=Dwarkesh%20Stationers%20-%20Art%20Xerox%20-%20Manish%20Electricals&query_place_id=ChIJSRUst5OEXjkRowvAYprgNq4,
Shubham Laser Printing & Binding,"1st Floor, Shanta Sagar Complex, 2, near Hatkesh Society Road, Sarvottam Nagar Society, Navrangpura, Ahmedabad, Gujarat 380009, India",Print shop,Bookbinder,Digital printing service,Lamination service,Offset printing service,Pen store,Stationery manufacturer,Stationery wholesaler,,,Print shop,4.36E+18,Ahmedabad,FALSE,IN,https://lh3.googleusercontent.com/p/AF1QipN8BNGNJZe7_0JJn4nBycfhAfcnDbfb88ZrRqHJ=w408-h306-k-no,40,FALSE,23.046556,72.5543803,"Sarvottam Nagar Society, Navrangpura",Monday,10 AM to 10 PM,Tuesday,10 AM to 10 PM,Wednesday,10 AM to 10 PM,Thursday,10 AM to 10 PM,Friday,10 AM to 10 PM,Saturday,10 AM to 10 PM,Sunday,12 to 7 PM,FALSE,+91 98240 14868,9.20E+11,380009,48,60,42,8,7,2,1,Gujarat,"1st Floor, Shanta Sagar Complex, 2, near Hatkesh Society Road",શુભમ લેસર પ્રિન્ટિંગ & બાઇન્ડીંગ,4.3,https://www.google.com/maps/search/?api=1&query=Shubham%20Laser%20Printing%20%26%20Binding&query_place_id=ChIJ04pKNpCEXjkRijg1Fp53cTw,http://www.facebook.com/shubhamlaserprinting
Prakash Xerox,"G-16, Torrent Power, Sahajanand Avenue, Naranpura Rd, beside AEC Tower, AEC Char Rasta, Naranpura, Ahmedabad, Gujarat 380013, India",Print shop,,,,,,,,,,Print shop,6.49E+18,Ahmedabad,FALSE,IN,https://lh3.googleusercontent.com/gps-cs-s/AC9h4nqCDYj9kyV_-rKa6hE0Xw_vBl76LmBYDMXe5eQHUWHKXDTSnXLIvbyBmWXL61KTdfsKFHAgSGxJaa08hakftJuOtd7BWdK6nqagQG54TTqAFU0ZEyz_hE81O4CWYTfMxiYkcuwp=w408-h724-k-no,16,FALSE,23.052511,72.5494033,"AEC Char Rasta, Naranpura",,,,,,,,,,,,,,,FALSE,,,380013,49,14,13,1,0,0,0,Gujarat,"G-16, Torrent Power, Sahajanand Avenue, Naranpura Rd, beside AEC Tower",,4.9,https://www.google.com/maps/search/?api=1&query=Prakash%20Xerox&query_place_id=ChIJ4zTpfQCFXjkRb5Q16neEAFo,
Quick Copier,"6, Shukun Siddhi Complex, Balkunj St, Maninagar, Ahmedabad, Gujarat 380008, India",Copy shop,,,,,,,,,,Copy shop,6.26E+18,Ahmedabad,TRUE,IN,https://streetviewpixels-pa.googleapis.com/v1/thumbnail?panoid=oYcy3YQHhjUIPd98e5fNFg&cb_client=search.gws-prod.gps&w=408&h=240&yaw=193.32072&pitch=0&thumbfov=100,1,FALSE,23.000393,72.607463,"Balvatika, Maninagar",Monday,10 AM to 10 PM,Tuesday,10 AM to 10 PM,Wednesday,10 AM to 10 PM,Thursday,10 AM to 10 PM,Friday,10 AM to 10 PM,Saturday,10 AM to 10 PM,Sunday,Closed,FALSE,+91 97128 21797,9.20E+11,380008,8,23,,,,,,Gujarat,"6, Shukun Siddhi Complex, Balkunj St",ક્વિક કોપિયર,4.7,https://www.google.com/maps/search/?api=1&query=Quick%20Copier&query_place_id=ChIJUWANS9yFXjkR2vy53Rx74VY,
Shreeji Xerox,"4, Jai Hind Cross Rd, Panchvati Society, Daxini Society, Maninagar, Ahmedabad, Gujarat 380008, India",Print shop,,,,,,,,,,Print shop,1.11E+19,Ahmedabad,TRUE,IN,https://lh3.googleusercontent.com/gps-cs-s/AC9h4npWNeSQur7ZzD88AeJUk28ARdB_cyNaYKimM-UEHdn2iEF9OVXCYMUgYv2pgEirn9GeMhdeCPYoEtWo60bb-yh9szYSj9jr6bOQ2s0v5afYzCR2MG8uO3k-rFsZxrbnxBlpqcg=w426-h240-k-no,2,FALSE,22.9941588,72.6076093,"Panchvati Society, Daxini Society, Maninagar",Monday,10:15 AM to 8:30 PM,Tuesday,10:15 AM to 8:30 PM,Wednesday,10:15 AM to 8:30 PM,Thursday,10:15 AM to 8:30 PM,Friday,10:15 AM to 8:30 PM,Saturday,10:15 AM to 8:30 PM,Sunday,Closed,FALSE,+91 99780 78412,9.20E+11,380008,11,6,,,,,,Gujarat,"4, Jai Hind Cross Rd",શ્રીજી ઝેરોક્સ,3.7,https://www.google.com/maps/search/?api=1&query=Shreeji%20Xerox&query_place_id=ChIJP-5tAYSFXjkRIBZmnDE6cpo,
Prima Xerox & Computer,"Om Complex, Opp Navkar Complex, Near Shreyas Crossing Over Bridge, Shreyas Railway Crossing Rd, Mithila Society, Ambawadi, Ahmedabad, Gujarat 380015, India",Print shop,Book store,Computer store,Digital printing service,Invitation printing service,Lamination service,Offset printing service,,,,Print shop,1.30E+19,Ahmedabad,FALSE,IN,https://lh3.googleusercontent.com/gps-cs-s/AC9h4nr0eT0RBXZDRa0gWTvKbDFjO-rkwInQ-RR_3h66vEm_AtdugF3kJmqecWv9F1aUTPWqM4tgodNdsWsuyPKtOY1AxrKEQROQQwDyHIUAk2R9Q1IF7neFiWOe5-pjOQm5ugQb1Mc7OA=w408-h725-k-no,6,FALSE,23.0125795,72.5451476,"Nina society, Mithila Society, Bhudarpura, Ambawadi",Monday,9 AM to 8 PM,Tuesday,9 AM to 8 PM,Wednesday,9 AM to 8 PM,Thursday,9 AM to 8 PM,Friday,9 AM to 8 PM,Saturday,9 AM to 8 PM,Sunday,9 AM to 12 PM,FALSE,+91 93748 94022,9.19E+11,380015,6,13,,,,,,Gujarat,"Om Complex, Opp Navkar Complex, Near Shreyas Crossing Over Bridge, Shreyas Railway Crossing Rd",પ્રિમા ઝેરોક્સ & કમ્પ્યૂટર,3.4,https://www.google.com/maps/search/?api=1&query=Prima%20Xerox%20%26%20Computer&query_place_id=ChIJC9kX7x-FXjkRIUexVRei97M,
Jay Ambe Stationery & Xerox Stores,"2G7M+WFC, Maa Anandmayi Marg, Satellite, Shyamal, Ahmedabad, Gujarat 380015, India",Copy shop,Stationery store,,,,,,,,,Copy shop,1.79E+19,Ahmedabad,TRUE,IN,https://streetviewpixels-pa.googleapis.com/v1/thumbnail?panoid=ucA-BRxaXUN9mmWupnPZbQ&cb_client=search.gws-prod.gps&w=408&h=240&yaw=234.78044&pitch=0&thumbfov=100,1,FALSE,23.0148179,72.5336374,"Satellite, Shyamal",,,,,,,,,,,,,,,FALSE,+91 93759 73370,9.19E+11,380015,9,2,,,,,,Gujarat,"2G7M+WFC, Maa Anandmayi Marg",જય અંબે સ્ટેશનરી & ઝેરોક્સ સ્ટોર્સ,4.5,https://www.google.com/maps/search/?api=1&query=Jay%20Ambe%20Stationery%20%26%20Xerox%20Stores&query_place_id=ChIJ50ikNdiEXjkRj7CyD561LPg,
Tushar Xerox,"Gandhi Park, 7, University Rd, near Sahajanand College, Bemanagar, Acharya Narendradev Nagar, Ambawadi, Ahmedabad, Gujarat 380015, India",Print shop,Digital printing service,,,,,,,,,Print shop,1.33E+19,Ahmedabad,FALSE,IN,https://lh3.googleusercontent.com/gps-proxy/ALd4DhENwWWp-x4s7pl6uh9MlEWdt2Bs8ayVTdu37X7ZUkHI_MS3XTbvKalwHQPrrwzSJ5zCc-qpEcyCblmZO6hfYYuh5hnx7lgBRD2pMzFhDV7KdfZi7PU3x4JhVxU6dE2i1thut9FKs5gQvd4Jg1nRGkWWWAqsNibjaLLrT-6O0hZAQwZ422MQ2_8eqC253lnwMSpG8p8=w408-h306-k-no,18,FALSE,23.0241491,72.5426662,"Bemanagar, Acharya Narendradev Nagar, Ambawadi",Monday,10 AM to 8:30 PM,Tuesday,10 AM to 8:30 PM,Wednesday,10 AM to 8:30 PM,Thursday,10 AM to 8:30 PM,Friday,10 AM to 8:30 PM,Saturday,10 AM to 8:30 PM,Sunday,Closed,FALSE,+91 79 2630 0815,9.18E+11,380015,16,181,,,,,,Gujarat,"Gandhi Park, 7, University Rd, near Sahajanand College",તુષાર ઝેરોક્ષ,4.6,https://www.google.com/maps/search/?api=1&query=Tushar%20Xerox&query_place_id=ChIJKxfMSd2EXjkRRoFiLQ6NKLg,https://tusharxerox.in/
Navkar Xerox,"GF-2, Dharnidhar Tower, 120 Feet Ring Rd, opposite Dharnidhar Derasar, Dharnidhar Society, Yashkamal Society, Vasna, Ahmedabad, Gujarat 380007, India",Print shop,Computer repair service,Computer service,Computer store,Digital printer,Digital printing service,Graphic designer,Law firm,Legal services,Offset printing service,Print shop,4.35E+18,Ahmedabad,FALSE,IN,https://lh3.googleusercontent.com/gps-proxy/ALd4DhEFYrkZzDiv98VBi2ZXaI9r6Yuo6cs9X2EtyZlbOh-Wa11isaHGUfYrLr3Yz59oY7KTj_epYWx2U62C-WQANKOvKF6L0eTSWO06z_8gW3oKZuALMPdXAw0oS4sLG5MOnuLB_strAcvYONNm1YiuUi0V0bQUPq0xZDxkJ5jTNs09nNbgiaXWUBTsh7LPIA8UM-PgUao=w408-h306-k-no,6,FALSE,23.0085411,72.5486358,"Dharnidhar Society, Yashkamal Society, Vasna",Monday,9 AM to 8 PM,Tuesday,9 AM to 8 PM,Wednesday,9 AM to 8 PM,Thursday,9 AM to 8 PM,Friday,9 AM to 8 PM,Saturday,9 AM to 8 PM,Sunday,Closed,FALSE,+91 79 4009 7709,9.18E+11,380007,33,9,4,1,4,0,0,Gujarat,"GF-2, Dharnidhar Tower, 120 Feet Ring Rd, opposite Dharnidhar Derasar",નવકાર ઝેરોક્ષ,3.1,https://www.google.com/maps/search/?api=1&query=Navkar%20Xerox&query_place_id=ChIJrWySsB6FXjkROGRbeb1wUTw,http://ncmnavkarxerox.wix.com/site
Pooja Stationers & Book Depot,"B-31, Mangaltirth Tower, Near Dharnidhar Char Rasta, 120 Feet Ring Rd, Sharda Nagar Society, Paldi, Ahmedabad, Gujarat 380007, India",Copy shop,Art center,Computer store,Stationery store,Courier service,Lamination service,,,,,Copy shop,2.48E+17,Ahmedabad,TRUE,IN,https://lh3.googleusercontent.com/gps-proxy/ALd4DhGXHNa2Mhd4whKhoOAxTRgRVF3Wg3JenSL0JsXNF6KfVcK3TMfUMw0SD5xVgDEwUap1-64i9AnA44cvsjr8GsvsJcuSWmCGORkVMKYaB6tOCJS7PQVqNPGFHCNzGYT1fmmBL0jtk3wql1q6PRF-BTB5Hvz8_FM4boDOxe4S2wBB_8vZMyAR62KxM9QiQZyHrVT4DQ=w408-h306-k-no,4,FALSE,23.0095237,72.5482179,"Sharda Nagar Society, Paldi",Monday,9 AM to 9 PM,Tuesday,9 AM to 9 PM,Wednesday,9 AM to 9 PM,Thursday,9 AM to 9 PM,Friday,9 AM to 9 PM,Saturday,9 AM to 9 PM,Sunday,9 AM to 8 PM,FALSE,+91 98250 41163,9.20E+11,380007,37,50,26,15,2,5,2,Gujarat,"B-31, Mangaltirth Tower, Near Dharnidhar Char Rasta, 120 Feet Ring Rd",પૂજા સ્ટેશનર્સ & બુક ડેપો,4.2,https://www.google.com/maps/search/?api=1&query=Pooja%20Stationers%20%26%20Book%20Depot&query_place_id=ChIJB5YC6h6FXjkRbFzRpjS6cQM,
Ashok Xerox,"2G6Q+H6M, Rajshree Enclave, Shreyash Tekra Road, Shreyas Tekra, Ayojan Nagar, Ahmedabad, Gujarat 380015, India",Copy shop,Public utility,,,,,,,,,Copy shop,1.35E+19,Ahmedabad,TRUE,IN,https://streetviewpixels-pa.googleapis.com/v1/thumbnail?panoid=HwH0hgKHvod5UEkO6NzGpA&cb_client=search.gws-prod.gps&w=408&h=240&yaw=164.5977&pitch=0&thumbfov=100,1,FALSE,23.0114595,72.5380454,"Shreyas Tekra, Bhudarpura, Ayojan Nagar",,,,,,,,,,,,,,,FALSE,,,380015,40,1,1,0,0,0,0,Gujarat,"2G6Q+H6M, Rajshree Enclave, Shreyash Tekra Road",અશોક ઝેરોક્સ,5,https://www.google.com/maps/search/?api=1&query=Ashok%20Xerox&query_place_id=ChIJpaKmSyeFXjkRRYm6YLJ8mbs,
Vraj Xerox,"6, Shiv Complex, opposite Hirabhai Tower, Daxini Society, Maninagar, Ahmedabad, Gujarat 380008, India",Copy shop,,,,,,,,,,Copy shop,1.42E+19,Ahmedabad,FALSE,IN,https://lh3.googleusercontent.com/gps-cs-s/AC9h4npvM7du0yTDnD4GLX6BPIvH3lsHxIovq3G-XWRmpC2mcH6Y1B1V_6cZDvl_huzP5TOGNN0uTOXOAipbPKb3fhQhvWs2NURo-S9odcGTrNd2Sf5ytWnAPo5W9P1IoSY1FRMqc_g=w408-h544-k-no,3,FALSE,22.9901381,72.6037907,"Daxini Society, Maninagar",Monday,8:30 AM to 9 PM,Tuesday,8:30 AM to 9 PM,Wednesday,8:30 AM to 9 PM,Thursday,8:30 AM to 9 PM,Friday,8:30 AM to 9 PM,Saturday,8:30 AM to 9 PM,Sunday,12 PM to 12 AM,FALSE,+91 97271 60019,9.20E+11,380008,4,43,,,,,,Gujarat,"6, Shiv Complex, opposite Hirabhai Tower",વ્રજ ઝેરોક્ષ,4.3,https://www.google.com/maps/search/?api=1&query=Vraj%20Xerox&query_place_id=ChIJn90l7-WFXjkRC06gK8zKDcU,
Shri Umiya Xerox,"Skylon Tower, University Rd, Opposite Jahnvi Restaurent, Hollywood Basti, Gulbai Tekra, Ahmedabad, Gujarat 380015, India",Copy shop,,,,,,,,,,Copy shop,1.47E+19,Ahmedabad,TRUE,IN,https://lh3.googleusercontent.com/gps-cs-s/AC9h4nre0vhGMLiat47g9xjyH4jDuuRakJsUm31w9CjJN_lD9DPuf_Spud7kf65QjTAM_f3UhC-u0AlJ4BmR9ml1ms6cMuqNb2qpWaYAg4Ca5QIoRJRzvAAIzosS_ZxVot8WTC4b-OPn=w408-h408-k-no,10,FALSE,23.0299124,72.5481684,"Hollywood Basti, Gulbai Tekra",Monday,10 AM to 12 AM,Tuesday,"12 to 9 AM, 10 AM to 12 AM",Wednesday,"12 to 9 AM, 10 AM to 12 AM",Thursday,"12 to 9 AM, 10 AM to 12 AM",Friday,"12 to 9 AM, 10 AM to 12 AM",Saturday,"12 to 9 AM, 10 AM to 12 AM",Sunday,12 to 9 AM,FALSE,+91 97140 60648,9.20E+11,380015,2,107,,,,,,Gujarat,"Skylon Tower, University Rd, Opposite Jahnvi Restaurent",શ્રી ઉમિયા ઝેરોક્સ,4.4,https://www.google.com/maps/search/?api=1&query=Shri%20Umiya%20Xerox&query_place_id=ChIJ51qca-mEXjkRPEWzsOxgd8s,
New Aakash Xerox,"2GHX+W8R, Skylon Tower, Opp. Jhanvi Restaurant, University Rd, Hollywood Basti, Gulbai Tekra, Ahmedabad, Gujarat 380015, India",Copy shop,,,,,,,,,,Copy shop,1.36E+19,Ahmedabad,TRUE,IN,https://streetviewpixels-pa.googleapis.com/v1/thumbnail?panoid=ckN4U1sRNTlFevE1D8G-Uw&cb_client=search.gws-prod.gps&w=408&h=240&yaw=133.77113&pitch=0&thumbfov=100,1,FALSE,23.0298513,72.5482794,"Hollywood Basti, Gulbai Tekra",Monday,9 AM to 9 PM,Tuesday,9 AM to 9 PM,Wednesday,9 AM to 9 PM,Thursday,9 AM to 9 PM,Friday,9 AM to 9 PM,Saturday,9 AM to 9 PM,Sunday,9 AM to 9 PM,FALSE,+91 98240 13271,9.20E+11,380015,10,11,,,,,,Gujarat,"2GHX+W8R, Skylon Tower, Opp. Jhanvi Restaurant, University Rd",ન્યુ આકાશ ઝેરોક્સ,4.6,https://www.google.com/maps/search/?api=1&query=New%20Aakash%20Xerox&query_place_id=ChIJFeOba-mEXjkRwbsNBDz-Wr0,
Kunal Xerox,"2HC4+W6X, Center Point, Near C.G. Road, Panchavati Rd, Panchavati Society, Gulbai Tekra, Ahmedabad, Gujarat 380006, India",Copy shop,,,,,,,,,,Copy shop,1.46E+19,Ahmedabad,TRUE,IN,https://streetviewpixels-pa.googleapis.com/v1/thumbnail?panoid=LLMtypH4RLfYes1M_hYlFQ&cb_client=search.gws-prod.gps&w=408&h=240&yaw=321.45282&pitch=0&thumbfov=100,1,FALSE,23.022357,72.5556014,"Panchavati Society, Gulbai Tekra",Monday,9:30 AM to 8 PM,Tuesday,9:30 AM to 8 PM,Wednesday,9:30 AM to 8 PM,Thursday,9:30 AM to 8 PM,Friday,9:30 AM to 8 PM,Saturday,9:30 AM to 8 PM,Sunday,Closed,FALSE,+91 94281 13511,9.19E+11,380006,11,17,,,,,,Gujarat,"2HC4+W6X, Center Point, Near C.G. Road, Panchavati Rd",કુણાલ ઝેરોક્ષ,3.7,https://www.google.com/maps/search/?api=1&query=Kunal%20Xerox&query_place_id=ChIJsVLTzeSEXjkR-EfsBsdQfco,
Getway Xerox,"3, Shiv Shyam Complex, University Rd, opposite L.D Engineering Hostel, near S.S Book Stall, Hollywood Basti, Gulbai Tekra, Ahmedabad, Gujarat 380015, India",Print shop,Bookbinder,Copy shop,,,,,,,,Print shop,8.35E+18,Ahmedabad,FALSE,IN,https://lh3.googleusercontent.com/p/AF1QipNd28uyI9LE-usNvDNFAiB3dbsE-4MfBR8mMLMg=w408-h306-k-no,43,FALSE,23.0313018,72.5492866,"Hollywood Basti, Gulbai Tekra",Monday,8:30 AM to 8:30 PM,Tuesday,8:30 AM to 8:30 PM,Wednesday,8:30 AM to 8:30 PM,Thursday,8:30 AM to 8:30 PM,Friday,8:30 AM to 8:30 PM,Saturday,8:30 AM to 8:30 PM,Sunday,10 AM to 2 PM,FALSE,+91 94276 23905,9.19E+11,380015,13,34,,,,,,Gujarat,"3, Shiv Shyam Complex, University Rd, opposite L.D Engineering Hostel, near S.S Book Stall",ગેટવે ઝેરોક્સ,4.2,https://www.google.com/maps/search/?api=1&query=Getway%20Xerox&query_place_id=ChIJ53zk4uuEXjkRARnsb1gD53M,
Komal Copiers,"Lal Bunglow, Municipal Staff Quarters, opp. IDBI Bank, New Commercial Mills Staff Society, Ellisbridge, Ahmedabad, Gujarat 380006, India",Copy shop,,,,,,,,,,Copy shop,7.50E+18,Ahmedabad,FALSE,IN,https://lh3.googleusercontent.com/gps-cs-s/AC9h4nrmfG01Ai3BH49Sy0HcituYf3xwjUUZWJvtbVb9eBqtMPMNg9E1IJfqN91ern2pWqZ86nke-NbjeK6on9HsMT69_IzsUpEisGcC20cH9fh2qbqFBjBbXMwC5NiGdcLtH8Y_Yz9T=w504-h240-k-no,2,FALSE,23.0296467,72.5561656,"New Commercial Mills Staff Society, Ellisbridge",Monday,9 AM to 8 PM,Tuesday,9 AM to 8 PM,Wednesday,9 AM to 8 PM,Thursday,9 AM to 8 PM,Friday,9 AM to 8 PM,Saturday,9 AM to 8 PM,Sunday,Closed,FALSE,+91 98253 43337,9.20E+11,380006,35,174,118,36,7,11,2,Gujarat,"Lal Bunglow, Municipal Staff Quarters, opp. IDBI Bank",કોમલ કોપિયર્સ,4.5,https://www.google.com/maps/search/?api=1&query=Komal%20Copiers&query_place_id=ChIJ____P_iEXjkRa8ds_sdgE2g,
Laxmi Copiers,"Panjarapole Char Rasta, Antriksh Complex, 10, University Rd, Panjara Pol, Ambawadi, Ahmedabad, Gujarat 380015, India",Copy shop,,,,,,,,,,Copy shop,1.37E+19,Ahmedabad,FALSE,IN,https://lh3.googleusercontent.com/gps-cs-s/AC9h4nprnql2i3vQ0QiQJQ7IPa4j8DzxeZ5_IbHYEO8jdO8Xa3OWNk2CKRVqUNYb1v3d8zcIBV24iUGtacU9gMzUcmS7Qq0_f2SnR8tT8ORv4qj0Ww_QkSOopuow-MKYA82Q6GpeUm-V=w408-h544-k-no,32,FALSE,23.0270787,72.5442831,"Panjara Pol, Ambawadi",Monday,9 AM to 10 PM,Tuesday,9 AM to 10 PM,Wednesday,9 AM to 10 PM,Thursday,9 AM to 10 PM,Friday,9 AM to 10 PM,Saturday,9 AM to 10 PM,Sunday,9 AM to 3 PM,FALSE,+91 97244 20000,9.20E+11,380015,38,46,38,4,3,1,0,Gujarat,"Panjarapole Char Rasta, Antriksh Complex, 10, University Rd",લક્ષ્મી કોપિયર્સ,4.6,https://www.google.com/maps/search/?api=1&query=Laxmi%20Copiers&query_place_id=ChIJ835jKOiEXjkRqnGvCpvPU74,
PHOTO GHOR & XEROX CENTER,"2HMV+JFG, Old City, Dariyapur, Ahmedabad, Gujarat 380001, India",Copy shop,,,,,,,,,,Copy shop,6.19E+18,Ahmedabad,TRUE,IN,https://streetviewpixels-pa.googleapis.com/v1/thumbnail?panoid=r_AfBpa85mXstvc7UYnC8w&cb_client=search.gws-prod.gps&w=408&h=240&yaw=92.80579&pitch=0&thumbfov=100,1,FALSE,23.0340566,72.5937038,"Old City, Dariyapur",Monday,Open 24 hours,Tuesday,Open 24 hours,Wednesday,Open 24 hours,Thursday,Open 24 hours,Friday,Open 24 hours,Saturday,Open 24 hours,Sunday,Open 24 hours,FALSE,+91 86538 43757,9.19E+11,380001,3,9,,,,,,Gujarat,2HMV+JFG,ફોટો ઘોર & ઝેરોક્સ સેન્ટર,4.1,https://www.google.com/maps/search/?api=1&query=PHOTO%20GHOR%20%26%20XEROX%20CENTER&query_place_id=ChIJ____7ziEXjkRJhc0qQ_R3FU,
Xerox & Print House,"Petrol Pump, Zakariya Masjid, besides Zankar Gali, opposite Nagina Masjid, Old City, Tankshal, Khadia, Ahmedabad, Gujarat 380001, India",Print shop,,,,,,,,,,Print shop,1.72E+19,Ahmedabad,FALSE,IN,https://lh3.googleusercontent.com/p/AF1QipNkUQkj1na4jnWillYA2fpK_lHb1hjdJFjUi6pm=w408-h306-k-no,7,FALSE,23.0275129,72.5960216,"Old City, Tankshal, Khadia",Monday,"9 AM to 1 PM, 2 to 4:30 PM",Tuesday,"9 AM to 1 PM, 2 to 4:30 PM",Wednesday,"9 AM to 1 PM, 2 to 4:30 PM",Thursday,"9 AM to 1 PM, 2 to 4:30 PM",Friday,"9 AM to 1 PM, 2 to 4:30 PM",Saturday,"9 AM to 1 PM, 2 to 4:30 PM",Sunday,Closed,FALSE,+91 91069 52137,9.19E+11,380001,15,0,,,,,,Gujarat,"Petrol Pump, Zakariya Masjid, besides Zankar Gali, opposite Nagina Masjid",,,https://www.google.com/maps/search/?api=1&query=Xerox%20%26%20Print%20House&query_place_id=ChIJm9uUiaqFXjkRnIoEizCAOO4,
Login Print Shop,"B-4 SHIVSHYAM COMPLEX OPP L D ENGG COLLEGE PASSPORT OFFICE UNIVERSITY ROAD GULBAI TEKRA, University Rd, Navrangpura, Ahmedabad, Gujarat 380009, India",Print shop,,,,,,,,,,Print shop,1.04E+19,Ahmedabad,FALSE,IN,https://lh3.googleusercontent.com/gps-cs-s/AC9h4npsbVZrXkEVJKGIqxZKREz9r50Ex-WEfwz0XmlY-aco08exSjFodhMk1isiDmKyMBi0SVzurNhHEO1sdMT9EvuFodktfsEonwjJyz8KIGGXT1kqSGQQ4ITb-QDRw2aOY68RftGyIA=w426-h240-k-no,9,FALSE,23.0313466,72.5494001,"Hollywood Basti, Navrangpura",Monday,Open 24 hours,Tuesday,Open 24 hours,Wednesday,Open 24 hours,Thursday,Open 24 hours,Friday,Open 24 hours,Saturday,Open 24 hours,Sunday,Open 24 hours,FALSE,+91 90673 30045,9.19E+11,380009,46,168,74,56,12,19,7,Gujarat,"B-4 SHIVSHYAM COMPLEX OPP L D ENGG COLLEGE PASSPORT OFFICE UNIVERSITY ROAD GULBAI TEKRA, University Rd",લોગીન પ્રિન્ટ શોપ,4,https://www.google.com/maps/search/?api=1&query=Login%20Print%20Shop&query_place_id=ChIJc9iEqJaFXjkR6DbmKz0dlZA,http://9067330045.in/
Shree Krishna Copiar,"Gulbai Tekra Rd, Gangotri Society, Hollywood Basti, Gulbai Tekra, Ahmedabad, Gujarat 380009, India",Print shop,,,,,,,,,,Print shop,6.99E+18,Ahmedabad,FALSE,IN,https://lh3.googleusercontent.com/gps-cs-s/AC9h4np7YvPBrkIy2_n3JfGkTyagCYUj78vZ7t4xqcmg3zNQ7MShDBsS4L0J8ZwjuxHp2lHgnd7ZDQqXePkk8qAt248pHQ5P-6QddLwjwqdSsZ8TMkkBYYj-aqza33d1RsQ_IgA7F7DyXw=w426-h240-k-no,16,FALSE,23.0300201,72.548435,"Gangotri Society, Hollywood Basti, Gulbai Tekra",Monday,9 AM to 10 PM,Tuesday,9 AM to 10 PM,Wednesday,9 AM to 10 PM,Thursday,9 AM to 10 PM,Friday,9 AM to 10 PM,Saturday,9 AM to 10 PM,Sunday,9:15 AM to 9:30 PM,FALSE,+91 99257 27458,9.20E+11,380009,47,11,10,1,0,0,0,Gujarat,Gulbai Tekra Rd,,4.9,https://www.google.com/maps/search/?api=1&query=Shree%20Krishna%20Copiar&query_place_id=ChIJWYJZaemEXjkRVQyy-lcsC2E,
Akash Copiers,"5, Shivshyam Complex, University Rd, near Tulsi Hotel, Hollywood Basti, Gulbai Tekra, Ahmedabad, Gujarat 380015, India",Copy shop,,,,,,,,,,Copy shop,1.23E+19,Ahmedabad,TRUE,IN,https://lh3.googleusercontent.com/gps-cs-s/AC9h4npsEB1sclHuB7psXhE4Ex5r1wXd3M8-vvJNpVlwNcjf-vwTxLgBhn-oVhwDLqHfPRru87fGxa6Fy2XOEtQjay4qX5N-v56_2S9nJrTqnqs7lfRB77RNHHlekz5LSnjsYsU-eWIrPA=w426-h240-k-no,5,FALSE,23.0313527,72.5494046,"Hollywood Basti, Gulbai Tekra",Monday,9 AM to 9 PM,Tuesday,9 AM to 9 PM,Wednesday,9 AM to 9 PM,Thursday,9 AM to 9 PM,Friday,9 AM to 9 PM,Saturday,9 AM to 9 PM,Sunday,9 AM to 9 PM,FALSE,+91 94266 06057,9.19E+11,380015,48,18,6,3,0,8,1,Gujarat,"5, Shivshyam Complex, University Rd, near Tulsi Hotel",આકાશ કૉપિયર્સ,3.8,https://www.google.com/maps/search/?api=1&query=Akash%20Copiers&query_place_id=ChIJmd804-uEXjkRHKI_GyOuo6o,
Shahji Enterprise,"Opposite Moti Brahamputi Pole, Khadia Paper Market Khadia, Kalupur, Ahmedabad, Gujarat 380001, India",Print shop,,,,,,,,,,Print shop,1.72E+19,Ahmedabad,FALSE,IN,https://lh3.googleusercontent.com/gps-cs-s/AC9h4nrX37Mw4npKSLTwyWC_IJ8-dhlfkfm3MxRTBwnmZZvIHGqQvqPIBJ4bYf2_ZdSEwEj8YCAue2JgNBBWxtn1HuPW8n3ytgoNJl8ot6z9jDyt_LI-SDC2VA_mmPOILdYOm_8ayYJm=w408-h306-k-no,10,FALSE,23.0264628,72.595023,"Old City, Tankshal, Kalupur",Monday,10:30 AM to 7:30 PM,Tuesday,10:30 AM to 7:30 PM,Wednesday,10:30 AM to 7:30 PM,Thursday,10:30 AM to 7:30 PM,Friday,10:30 AM to 7:30 PM,Saturday,10:30 AM to 7:30 PM,Sunday,Closed,FALSE,+91 79 2216 0320,9.18E+11,380001,40,94,53,13,12,12,4,Gujarat,"Opposite Moti Brahamputi Pole, Khadia Paper Market Khadia",શાહજી એન્ટરપ્રાઈઝ,4,https://www.google.com/maps/search/?api=1&query=Shahji%20Enterprise&query_place_id=ChIJq6qqOjeEXjkRd8x5-pJoye4,http://www.shahji.online/
Niharica Xerox,"8 Paradise Shopping Center, VS Road, opp. Ketav Petrol Pump, Ambawadi, Ahmedabad, Gujarat 380015, India",Copy shop,,,,,,,,,,Copy shop,1.31E+19,Ahmedabad,FALSE,IN,https://lh3.googleusercontent.com/p/AF1QipMBSjeaTmhOM7bGJqntQW6eXqGhjMVZ1DGVMOPh=w408-h306-k-no,9,FALSE,23.0233951,72.5490528,"H Colony, Ambawadi",Monday,9:30 AM to 8 PM,Tuesday,9:30 AM to 8 PM,Wednesday,9:30 AM to 8 PM,Thursday,9:30 AM to 8 PM,Friday,9:30 AM to 8 PM,Saturday,9:30 AM to 8 PM,Sunday,Closed,FALSE,+91 79 4007 4781,9.18E+11,380015,30,34,19,9,2,3,1,Gujarat,"8 Paradise Shopping Center, VS Road, opp. Ketav Petrol Pump",નિહારિકા ઝેરોક્સ,4.2,https://www.google.com/maps/search/?api=1&query=Niharica%20Xerox&query_place_id=ChIJYTr5kuOEXjkROXzE1E95TLY,https://wa.me/919106739777
Sagar Zerox & Stationers,"AV Complex, B-7, Mahalaxmi Five Rd, Fatehpura, Paldi, Ahmedabad, Gujarat 380007, India",Print shop,,,,,,,,,,Print shop,5.63E+18,Ahmedabad,FALSE,IN,https://lh3.googleusercontent.com/gps-cs-s/AC9h4nrJk2E7z1gZaL7QorMRr5clBt58611gpesADz2pV2JT1T6sQHGlnhCz5vEXT3NxQmKXEMs5XWjSObAfQSs3VPNjIqXSk0piZt1QB4h5g0ZZEJ7prPXNfcohlRZYrRpH1skoeqtLrg=w408-h544-k-no,2,FALSE,23.0096148,72.5616925,"Fatehpura, Paldi",Monday,9 AM to 5 PM,Tuesday,9 AM to 5 PM,Wednesday,9 AM to 5 PM,Thursday,9 AM to 5 PM,Friday,9 AM to 5 PM,Saturday,9 AM to 5 PM,Sunday,9 AM to 12:30 PM,FALSE,,,380007,2,3,,,,,,Gujarat,"AV Complex, B-7, Mahalaxmi Five Rd",,3.3,https://www.google.com/maps/search/?api=1&query=Sagar%20Zerox%20%26%20Stationers&query_place_id=ChIJnb86ptKFXjkRcn8D2LOpGk4,
Kishan Xerox,"Hare krishna Complex, opposite Kothawala Flats, Pritam Nagar, Paldi, Ahmedabad, Gujarat 380006, India",Copy shop,,,,,,,,,,Copy shop,6.93E+18,Ahmedabad,TRUE,IN,https://streetviewpixels-pa.googleapis.com/v1/thumbnail?panoid=L3qqgUGQiJsbibcnPg4kBQ&cb_client=search.gws-prod.gps&w=408&h=240&yaw=145.76764&pitch=0&thumbfov=100,1,FALSE,23.0184266,72.5676681,"Pritam Nagar, Paldi",,,,,,,,,,,,,,,FALSE,,,380006,7,3,,,,,,Gujarat,"Hare krishna Complex, opposite Kothawala Flats",કિશન ઝેરોક્સ,4.7,https://www.google.com/maps/search/?api=1&query=Kishan%20Xerox&query_place_id=ChIJy_EXh_-EXjkRVlGmo6ANPWA,
INKPRESSON DIGITAL PRINT HUB,"Mahalaxmi Complex, Old, Sharda Mandir Rd, Motinagar Society, Paldi, Ahmedabad, Gujarat 380007, India",Digital printing service,Invitation printing service,Trophy shop,,,,,,,,Digital printing service,6.06E+18,Ahmedabad,FALSE,IN,https://lh3.googleusercontent.com/p/AF1QipMcyhMJLSO_iAPmQX-T-sfBrXtRF8b7-cQGA3WH=w408-h612-k-no,22,FALSE,23.010292,72.5602918,"Motinagar Society, Paldi",Monday,10:30 AM to 6:30 PM,Tuesday,10:30 AM to 6:30 PM,Wednesday,10:30 AM to 6:30 PM,Thursday,10:30 AM to 6:30 PM,Friday,10:30 AM to 6:30 PM,Saturday,10:30 AM to 6:30 PM,Sunday,Closed,FALSE,,,380007,10,2,,,,,,Gujarat,"Mahalaxmi Complex, Old, Sharda Mandir Rd",,4.5,https://www.google.com/maps/search/?api=1&query=INKPRESSON%20DIGITAL%20PRINT%20HUB&query_place_id=ChIJzRtuIl6FXjkRmDQVxsDTEVQ,
MARFATIYA COTTAGE (MARFATIYA XEROX),"Jamalpur Pagti Rd, near ippu parlour, Khatkiwad, Mahajan No Vando, Khamasa, Ahmedabad, Gujarat 380001, India",Copy shop,,,,,,,,,,Copy shop,9.93E+18,Ahmedabad,FALSE,IN,https://lh3.googleusercontent.com/p/AF1QipP2LVCGNxz8Xl_JQBct0dil0oyvKXswA-pHMuvv=w408-h346-k-no,8,FALSE,23.0186942,72.5845178,"Khatkiwad, Mahajan No Vando, Khamasa",Monday,8:30 AM to 1 AM,Tuesday,8 AM to 1 AM,Wednesday,8 AM to 1 AM,Thursday,8 AM to 1 AM,Friday,8 AM to 1 AM,Saturday,8 AM to 1 AM,Sunday,8 AM to 12:30 AM,FALSE,,,380001,16,6,,,,,,Gujarat,"Jamalpur Pagti Rd, near ippu parlour",,5,https://www.google.com/maps/search/?api=1&query=MARFATIYA%20COTTAGE%20(MARFATIYA%20XEROX)&query_place_id=ChIJ91xoEMGFXjkRnRcUuyCd1Ik,
Sonal Xerox,"32, Sardar Patel Market, Jamalpur Char Rasta, opp. Calico Mills, Ahmedabad, Gujarat 380022, India",Copy shop,,,,,,,,,,Copy shop,4.68E+18,Ahmedabad,TRUE,IN,https://lh3.googleusercontent.com/gps-cs-s/AC9h4noAH_9Chu3k8Fs2-1xFHdYcveuvnB1AY5_tgplMq-eOsQx-kLHqXRe0tCv6aaB1pEZG6v0azbJ-z_upXZ9lvGToIoHaSr9uPZ3uf7BxePPOM8n85SHiV3FhTflvcreYCBKoic8=w408-h248-k-no,43,FALSE,23.0105721,72.5793894,Jamalpur,Monday,10 AM to 12 AM,Tuesday,"12 to 8:30 AM, 10 AM to 12 AM",Wednesday,"12 to 8:30 AM, 10 AM to 12 AM",Thursday,"12 to 8:30 AM, 10 AM to 12 AM",Friday,"12 to 8:30 AM, 10 AM to 12 AM",Saturday,10 AM to 12 AM,Sunday,12 to 8:30 AM,FALSE,+91 79 2535 1716,9.18E+11,380022,22,80,36,22,8,8,6,Gujarat,"32, Sardar Patel Market, Jamalpur Char Rasta, opp. Calico Mills",સોનલ ઝેરોક્ષ,3.9,https://www.google.com/maps/search/?api=1&query=Sonal%20Xerox&query_place_id=ChIJC4Sl87aFXjkRqWP4vnQu6kA,
Royal Xerox & Printing,"44, opp. U N Mehta Hospital, opp. Gate -1, Dhabharnagar Society, Arihant Nagar, Shahibag, Ahmedabad, Gujarat 380004, India",Print shop,Bus ticket agency,Copy shop,Lamination service,Train ticket agency,,,,,,Print shop,4.88E+18,Ahmedabad,FALSE,IN,https://lh3.googleusercontent.com/p/AF1QipNEHpYJ2H5lipbgLgcw8Q03Wa_RRDgwYpg6sdDQ=w408-h306-k-no,15,FALSE,23.0529384,72.5998071,"Dhabharnagar Society, Arihant Nagar, Shahibag",Monday,8 AM to 10:30 PM,Tuesday,8 AM to 10:30 PM,Wednesday,8 AM to 10:30 PM,Thursday,8 AM to 10:30 PM,Friday,8 AM to 10:30 PM,Saturday,8 AM to 10:30 PM,Sunday,8 AM to 9:30 PM,FALSE,+91 98250 69908,9.20E+11,380004,5,6,,,,,,Gujarat,"44, opp. U N Mehta Hospital, opp. Gate -1",રોયલ ઝેરોક્ષ & પ્રિન્ટિંગ,4.7,https://www.google.com/maps/search/?api=1&query=Royal%20Xerox%20%26%20Printing&query_place_id=ChIJUV52hGqEXjkROTIZ4D2YvEM,
Swastik Print shop and Book Stationary stor,"Ghevar Complex, Shahibaug Rd., near Raj Hospital, Shahibag, Ahmedabad, Gujarat 380004, India",Print shop,Pen store,,,,,,,,,Print shop,1.12E+19,Ahmedabad,FALSE,IN,https://lh3.googleusercontent.com/gps-cs-s/AC9h4npr6v3a6K-bSMuKJvJ-sf0XxlvYTNtUrkSiu24PNH7E6rMlVtso6t7qHjoYmGPDhqitzL-4YfqLCgkangbRUp3OUdAN9W4jSnVa3dLmC6wVahdJnc-MKy5BFg-RBfetcL3VikyP=w408-h306-k-no,10,FALSE,23.0566445,72.5982356,Shahibag,Monday,10 AM to 9 PM,Tuesday,10 AM to 9 PM,Wednesday,10 AM to 9 PM,Thursday,10 AM to 9 PM,Friday,10 AM to 9 PM,Saturday,10 AM to 9 PM,Sunday,12 to 7 PM,FALSE,+91 99090 85620,9.20E+11,380004,6,3,,,,,,Gujarat,"Ghevar Complex, Shahibaug Rd., near Raj Hospital",સ્વસ્તિક બુક સ્ટોર,4.7,https://www.google.com/maps/search/?api=1&query=Swastik%20Print%20shop%20and%20Book%20Stationary%20stor&query_place_id=ChIJj18RYw6EXjkRYpc2rE3OyZo,
Aashirwad Xerox,"Basement, Ghevar Complex, Ghewar Char Rasta, Shahibag, Ahmedabad, Gujarat 380004, India",Digital printing service,,,,,,,,,,Digital printing service,1.22E+19,Ahmedabad,TRUE,IN,https://lh3.googleusercontent.com/gps-cs-s/AC9h4noDDaufMT6-YisMndMaTbSpv_xDWRYfATzzfO7u335-fjK47NlDrcxNfP2ReyQYxqiPzC5_sLWRfIaj6-00n5XaBYaEX-Sq_tBJQ_iZ1KdN4vBjVOjGpkN6oJ1JQTMAmBDIo2Y2nmDAI5Ne=w408-h408-k-no,3,FALSE,23.0567077,72.5983482,Shahibag,Monday,8 AM to 9 PM,Tuesday,8 AM to 9 PM,Wednesday,8 AM to 9 PM,Thursday,8 AM to 9 PM,Friday,8 AM to 9 PM,Saturday,8 AM to 9 PM,Sunday,8 AM to 9 PM,FALSE,,,380004,7,0,,,,,,Gujarat,"Basement, Ghevar Complex, Ghewar Char Rasta",,,https://www.google.com/maps/search/?api=1&query=Aashirwad%20Xerox&query_place_id=ChIJ-yn9ewCFXjkRCKUF0Tv_06k,
Ambica Xerox,"Shop No. 4, First Floor Opp. U. N. Mehta Heart Hospital New Civil Hospital, Asarwa, Shahibag, Ahmedabad, Gujarat 380016, India",Print shop,,,,,,,,,,Print shop,1.08E+19,Ahmedabad,FALSE,IN,https://lh3.googleusercontent.com/p/AF1QipML4-BdCWJeWOlNXXUGTDh5Dzs2stRRwwmibsPF=w408-h725-k-no,35,FALSE,23.0520398,72.6003446,Shahibag,Monday,9 AM to 7:30 PM,Tuesday,9 AM to 7:30 PM,Wednesday,9 AM to 7:30 PM,Thursday,9 AM to 7:30 PM,Friday,9 AM to 7:30 PM,Saturday,9 AM to 7:30 PM,Sunday,9 AM to 2 PM,FALSE,+91 83209 20065,9.18E+11,380016,9,2,,,,,,Gujarat,"Shop No. 4, First Floor Opp. U. N. Mehta Heart Hospital New Civil Hospital, Asarwa",અંબિકા ઝેરોક્સ,4.5,https://www.google.com/maps/search/?api=1&query=Ambica%20Xerox&query_place_id=ChIJo_73EBeFXjkRkQzFbCqfc5U,
Gopal Xerox Center,"2JX3+M68, Rukshmani Bhuvan, Civil Hospital Rd, opp. O.P.D Block, Asarwa, Ahmedabad, Gujarat 380016, India",Copy shop,Lamination service,,,,,,,,,Copy shop,1.74E+19,Ahmedabad,TRUE,IN,https://lh3.googleusercontent.com/gps-cs-s/AC9h4nrKcvJsG05fI9ZNSMb0yGSTRS3bYlOxtHXc5LSuQ8G9m2Mwa5uqzYkfLjbFIgDpipcbtg-QFc_NMMuMKZOKFAaz63YhGLtuvB9KSnSxy2pOLJnYjurklDIMEyc2ykYNgTiyZAt1eALc0Gw=w408-h306-k-no,7,FALSE,23.0491612,72.6030887,"Patel Society, Asarwa",Monday,8:30 AM to 8:30 PM,Tuesday,8:30 AM to 8:30 PM,Wednesday,8:30 AM to 8:30 PM,Thursday,8:30 AM to 8:30 PM,Friday,8:30 AM to 8:30 PM,Saturday,8:30 AM to 8:30 PM,Sunday,8:30 AM to 6:30 PM,FALSE,+91 98985 27384,9.20E+11,380016,10,38,,,,,,Gujarat,"2JX3+M68, Rukshmani Bhuvan, Civil Hospital Rd, opp. O.P.D Block",ગોપાલ ઝેરોક્સ સેન્ટર,4.8,https://www.google.com/maps/search/?api=1&query=Gopal%20Xerox%20Center&query_place_id=ChIJt0fVqxCEXjkR-GxvCc2G_fA,
Maruti General Store & Xerox Centre,"15, Bipin Complex, Opp. Cancer Hospital, Civil Hospital Rd, near Prabhu Parlour, Asarwa, Ahmedabad, Gujarat 380016, India",Copy shop,Pen store,,,,,,,,,Copy shop,6.11E+18,Ahmedabad,FALSE,IN,https://lh3.googleusercontent.com/p/AF1QipPKHwwLiCrxwJa0YuHwkmN9w52ewAi4pJJRf15c=w408-h725-k-no,37,FALSE,23.0486445,72.6058658,Asarwa,Monday,7:30 AM to 9 PM,Tuesday,7:30 AM to 9 PM,Wednesday,7:30 AM to 9 PM,Thursday,7:30 AM to 9 PM,Friday,7:30 AM to 9 PM,Saturday,7:30 AM to 9 PM,Sunday,8:30 AM to 1 PM,FALSE,+91 96243 42282,9.20E+11,380016,11,41,,,,,,Gujarat,"15, Bipin Complex, Opp. Cancer Hospital, Civil Hospital Rd, near Prabhu Parlour",મારુતિ જનરલ સ્ટોર & ઝેરોક્ષ સેન્ટર,4.9,https://www.google.com/maps/search/?api=1&query=Maruti%20General%20Store%20%26%20Xerox%20Centre&query_place_id=ChIJZY6IgxmEXjkRuKnVdB7PvVQ,
Bansi Xerox & Stationery,"Meghaninagar Rd, opposite Kailash Nagar, Chamanpura, Asarwa, Ahmedabad, Gujarat 380016, India",Copy shop,Stationery store,,,,,,,,,Copy shop,1.30E+19,Ahmedabad,TRUE,IN,https://lh3.googleusercontent.com/gps-proxy/ALd4DhFBhb9otABFluuvQrN7v0nw-0e3z5RRPwhSS1IKT9LNvSblhnSWikQJLYjiYDG7TjGPoJjfwhevS9LlIW_qPeOHjeq0CFy8Hfa-I6dvmZkuTrRKZU3SkA1Bde6AYLbEt8ZeWQJK9Y68QlRG8_fd4y9FmMtK6pSZJkm5d975UUpBYd7u4P6AG7XBNR-PJ6oohGJS1zU=w408-h306-k-no,3,FALSE,23.0510841,72.6119048,"Chamanpura, Asarwa",,,,,,,,,,,,,,,FALSE,,,380016,13,3,,,,,,Gujarat,"Meghaninagar Rd, opposite Kailash Nagar",બંસી ઝેરોક્સ & સ્ટેશનરી,4.3,https://www.google.com/maps/search/?api=1&query=Bansi%20Xerox%20%26%20Stationery&query_place_id=ChIJ88u2NRyEXjkRR1lb2mFBG7Q,
Amee Xerox & Telecom,"2JX3+M68, Civil Hospital Rd, opposite New Civil Hospital, Patel Society, Asarwa, Ahmedabad, Gujarat 380016, India",Copy shop,,,,,,,,,,Copy shop,5.09E+18,Ahmedabad,TRUE,IN,https://lh3.googleusercontent.com/gps-proxy/ALd4DhGir3SEYzrZ-lYEX1o4F84o3nWp7-hrxnwYCNxm8o55yRWW8R6g_Pkt11R32MuKy-oCL3ZO-4jt3xKNRzpDpcE16XYokd5tgehSMJ6LnPV_Ko1koxbtuaRMn84Ofm4vDQ-Ei6ddmojlD_uVaCep98vGH6IoHSanW1nN1LpT1RKodEQqnnIP0cjA0ObxnjgFbPgiTQ=w408-h306-k-no,3,FALSE,23.0491636,72.6030901,"Patel Society, Asarwa",Monday,8:30 AM to 8 PM,Tuesday,8:30 AM to 8 PM,Wednesday,8:30 AM to 8 PM,Thursday,8:30 AM to 8 PM,Friday,8:30 AM to 8 PM,Saturday,8:30 AM to 8 PM,Sunday,8 AM to 2 PM,FALSE,+91 98242 44035,9.20E+11,380016,16,7,,,,,,Gujarat,"2JX3+M68, Civil Hospital Rd, opposite New Civil Hospital",અમી ઝેરોક્સ & ટેલિકોમ,4.9,https://www.google.com/maps/search/?api=1&query=Amee%20Xerox%20%26%20Telecom&query_place_id=ChIJGakpqhCEXjkRMDjM8ZvRnEY,
HD Xerox,"Patel Parmanand Ni Chali, 108, Rakhial Rd, Krishna Nagar, Rakhial, Ahmedabad, Gujarat 380021, India",Print shop,,,,,,,,,,Print shop,1.07E+19,Ahmedabad,FALSE,IN,,,FALSE,23.0230814,72.6193453,"Krishna Nagar, Rakhial",Monday,9 AM to 10 PM,Tuesday,9 AM to 10 PM,Wednesday,9 AM to 10 PM,Thursday,9 AM to 10 PM,Friday,9 AM to 10 PM,Saturday,9 AM to 10 PM,Sunday,9 AM to 10 PM,FALSE,,,380021,7,0,,,,,,Gujarat,"Patel Parmanand Ni Chali, 108, Rakhial Rd",,,https://www.google.com/maps/search/?api=1&query=HD%20Xerox&query_place_id=ChIJLXrkHcKHXjkR2UTz4EWZC5Q,https://sites.google.com/view/hdxeroxlamination/home
Shreeji Xerox,"2JJ5+5G6, Saraspur, Ahmedabad, Gujarat 380018, India",Print shop,,,,,,,,,,Print shop,1.70E+19,Ahmedabad,TRUE,IN,https://streetviewpixels-pa.googleapis.com/v1/thumbnail?panoid=POG1tEWt0UJWwRY1siP_RQ&cb_client=search.gws-prod.gps&w=408&h=240&yaw=172.59155&pitch=0&thumbfov=100,1,FALSE,23.0304009,72.608779,Saraspur,Monday,7 AM to 10 PM,Tuesday,7 AM to 10 PM,Wednesday,7 AM to 10 PM,Thursday,7 AM to 10 PM,Friday,7 AM to 10 PM,Saturday,7 AM to 10 PM,Sunday,7 AM to 10 PM,FALSE,,,,20,5,,,,,,Gujarat,2JJ5+5G6,,5,https://www.google.com/maps/search/?api=1&query=Shreeji%20Xerox&query_place_id=ChIJ19G9PQCFXjkRX6bOMjD9a-s,
Vinayak Xerox,"2HWX+WXJ, Shanitpura, opposite Eye Hospital, Girdhar Nagar, Ahmedabad, Gujarat 380016, India",Print shop,,,,,,,,,,Print shop,6.54E+18,Ahmedabad,TRUE,IN,https://streetviewpixels-pa.googleapis.com/v1/thumbnail?panoid=V67Ub1Q8ZNwaR0617_Izdw&cb_client=search.gws-prod.gps&w=408&h=240&yaw=329.47574&pitch=0&thumbfov=100,1,FALSE,23.0473402,72.5998995,"Pritam Nagar, Girdhar Nagar",,,,,,,,,,,,,,,FALSE,+91 98981 16998,9.20E+11,380016,10,0,,,,,,Gujarat,"2HWX+WXJ, Shanitpura, opposite Eye Hospital",,,https://www.google.com/maps/search/?api=1&query=Vinayak%20Xerox&query_place_id=ChIJv24g3BaEXjkREUU_9cNOz1o,
SREE XEROX ONLINE,"SHANTIPURA BALIYA LIMBDI CHAR RASTA, New Civil Hospital Rd, Asarwa, Gujarat 380016, India",Print shop,,,,,,,,,,Print shop,1.75E+19,Ahmedabad,FALSE,IN,https://lh3.googleusercontent.com/p/AF1QipOwENqfBgNRmW8T5tBaj4mEpB9YKBihsGpw3GMC=w408-h306-k-no,8,FALSE,23.0473533,72.6012199,"Pritam Nagar, Asarwa",,,,,,,,,,,,,,,FALSE,+91 76985 75710,9.18E+11,380016,11,2,,,,,,Gujarat,"SHANTIPURA BALIYA LIMBDI CHAR RASTA, New Civil Hospital Rd",શ્રી ઝેરોક્સ ઓનલાઇન,5,https://www.google.com/maps/search/?api=1&query=SREE%20XEROX%20ONLINE&query_place_id=ChIJh2GSSi-FXjkRShCTCgh2QvM,
Burhani Xerox,"Naroda Road, Opp. Amdupura Petroleum, nr. Vohra na roja, Amdupura, Ahmedabad, Gujarat 380018, India",Print shop,,,,,,,,,,Print shop,7.69E+18,Ahmedabad,FALSE,IN,https://lh3.googleusercontent.com/p/AF1QipN4D3_ohDw-jnAm4DPR-WaOFBzjJ31pqJ-q3gW9=w408-h544-k-no,3,FALSE,23.0363458,72.6061026,"Amdupura, Saraspur",,,,,,,,,,,,,,,FALSE,+91 91062 02561,9.19E+11,380018,12,3,,,,,,Gujarat,"Naroda Road, Opp. Amdupura Petroleum, nr. Vohra na roja",બુરહાની ઝેરોક્સ,5,https://www.google.com/maps/search/?api=1&query=Burhani%20Xerox&query_place_id=ChIJDR_0L4-FXjkRD8Q7fbZnxmo,
Maruti Xerox,"Government E Colony, 69/272, opp. Amber Cinema, Dhobi Ghat, Kailash Nagar, Saraspur, Ahmedabad, Gujarat 380024, India",Print shop,,,,,,,,,,Print shop,8.07E+18,Ahmedabad,TRUE,IN,https://lh3.googleusercontent.com/gps-cs-s/AC9h4npA9Kdzc7BJCf4D6MuN5N_QhnLNyrHG7TvZkP69vHBSEU33d6jOQKKzH9mDB8XlMgxTWjlm8V4E6FzrS8lBd8Q8hx5p0sS357cw0eebAlfwlM4jE3cgTaFIjD3E4BIUXA269CJL=w521-h240-k-no,4,FALSE,23.0343448,72.6199987,"Dhobi Ghat, Kailash Nagar, Saraspur",Monday,8 AM to 9 PM,Tuesday,8 AM to 9 PM,Wednesday,8 AM to 9 PM,Thursday,8 AM to 9 PM,Friday,8 AM to 9 PM,Saturday,8 AM to 9 PM,Sunday,8 AM to 3 PM,FALSE,+91 99989 88870,9.20E+11,380024,20,7,,,,,,Gujarat,"Government E Colony, 69/272, opp. Amber Cinema",,5,https://www.google.com/maps/search/?api=1&query=Maruti%20Xerox&query_place_id=ChIJq6qq6o-GXjkRSnM1vI_Q9W8,
Shiv Zerox,"3J22+V5F, Jay Complex, Vittal Nagar Road, Shahibaug, Girdhar Nagar, Ahmedabad, Gujarat 380004, India",Copy shop,Digital printer,,,,,,,,,Copy shop,1.64E+19,Ahmedabad,TRUE,IN,https://lh3.googleusercontent.com/gps-proxy/ALd4DhEeWuH-eLHvgQpNpHbXr90S2XyJ7ttEsnj74mEw7dWnRsXhkB6CdAjdCzjzqXIGJbrX4hk45sPnDUcs9FZHcor1ZCY3bBaR9u2QowPe6NKKZR5i3IV2kSe96pfV50-ehS9yvpajPyWpMrdBh10BXRCCHUAUKevW1b2Gyg_dTUxjEBxfEKdkU7bxLW-p8pIc5HZqOQ=w408-h306-k-no,5,FALSE,23.0521867,72.6004132,"Shahibaug, Girdhar Nagar",Monday,8:30 AM to 12 AM,Tuesday,8:30 AM to 12 AM,Wednesday,8:30 AM to 12 AM,Thursday,8:30 AM to 12 AM,Friday,8:30 AM to 12 AM,Saturday,8:30 AM to 12 AM,Sunday,8:30 AM to 2 PM,FALSE,+91 99242 42632,9.20E+11,380004,23,66,40,16,1,7,2,Gujarat,"3J22+V5F, Jay Complex, Vittal Nagar Road",શિવ ઝેરોક્સ,4.4,https://www.google.com/maps/search/?api=1&query=Shiv%20Zerox&query_place_id=ChIJaXKpUhCEXjkRPg0FB6EYseM,
Parshwa Copiers,"15, Ashmi Shopping Centre, Opposite Shalby Hospital, Opposite Mem Nagar Fire Station, Vijay Cross Rd, Sarvottam Nagar Society, Navrangpura, Ahmedabad, Gujarat 380009, India",Copy shop,,,,,,,,,,Copy shop,1.58E+19,Ahmedabad,FALSE,IN,https://lh3.googleusercontent.com/p/AF1QipMr6m9VvYp4i3XFcLhwsaHY9IYNl6Gm1mGqOB8x=w426-h240-k-no,2,FALSE,23.0445382,72.5509483,"Sarvottam Nagar Society, Navrangpura",,,,,,,,,,,,,,,FALSE,+91 79 4004 6880,9.18E+11,380009,44,12,7,3,1,1,0,Gujarat,"15, Ashmi Shopping Centre, Opposite Shalby Hospital, Opposite Mem Nagar Fire Station, Vijay Cross Rd",પાર્શ્વ કોપિયર્સ,4.3,https://www.google.com/maps/search/?api=1&query=Parshwa%20Copiers&query_place_id=ChIJRUihOZGEXjkR7M6BcRvT3ts,
Chirag telecom and xerox,"3H2P+6MR, Devjipura, Dudheshwar, Ahmedabad, Gujarat 380004, India",Print shop,,,,,,,,,,Print shop,9.58E+18,Ahmedabad,TRUE,IN,https://streetviewpixels-pa.googleapis.com/v1/thumbnail?panoid=8hLb2PtC4xHQnWOvkjUJhg&cb_client=search.gws-prod.gps&w=408&h=240&yaw=231.6553&pitch=0&thumbfov=100,1,FALSE,23.0506085,72.586638,"Devjipura, Dudheshwar",Monday,9:30 AM to 10 PM,Tuesday,9:30 AM to 10 PM,Wednesday,9:30 AM to 10 PM,Thursday,9:30 AM to 10 PM,Friday,9:30 AM to 10 PM,Saturday,9:30 AM to 10 PM,Sunday,9:30 AM to 10 PM,FALSE,,,380004,18,2,,,,,,Gujarat,3H2P+6MR,,5,https://www.google.com/maps/search/?api=1&query=Chirag%20telecom%20and%20xerox&query_place_id=ChIJ5dMSd-WFXjkRy-I6Cwcu6YQ,
Dudh Wala Xerox Centre,"Shop No. 18, Opp Rani Shipri Masjid, Astodian Gate, Swami Vivekananda Rd, Astodia, Khamasa, Ahmedabad, Gujarat 380001, India",Copy shop,,,,,,,,,,Copy shop,2.99E+17,Ahmedabad,TRUE,IN,https://lh3.googleusercontent.com/gps-proxy/ALd4DhG3k5BOopGvLZGpN0XtZsSapv24sdO0OUysbsxAwtctuVo0WsNJzHDa-DEd__ZCjfNT2fnj-5zuWtxgh6SKoFsGoKXBCCoDO15yIWRVOAma_f0PcxTgSrjAjI4ROyNBw6TtSQNkzOGlvVA56rbdxCjCkvucF5TKqo04avFKVT9Ib5xICwYWCC4AdTq021pu1foK-BY=w408-h543-k-no,3,FALSE,23.0169043,72.590143,"Old City, Astodia, Khamasa",Monday,9 AM to 11 PM,Tuesday,9 AM to 11 PM,Wednesday,9 AM to 11 PM,Thursday,9 AM to 11 PM,Friday,9 AM to 11 PM,Saturday,9 AM to 11 PM,Sunday,9 AM to 11 PM,FALSE,+91 79 2539 0169,9.18E+11,380001,25,5,0,3,1,1,0,Gujarat,"Shop No. 18, Opp Rani Shipri Masjid, Astodian Gate, Swami Vivekananda Rd",દુધ વાળા ઝેરોક્સ સેન્ટર,3.2,https://www.google.com/maps/search/?api=1&query=Dudh%20Wala%20Xerox%20Centre&query_place_id=ChIJodADa7WFXjkRdBehrH_DJgQ,
Orbit Multiprint,"Sumel 11, An Indian Textile Plaza, 143, BAPS Cir, nr. BAPS, Bhadreshwar Society, Shahibag, Ahmedabad, Gujarat 380004, India",Print shop,,,,,,,,,,Print shop,1.69E+19,Ahmedabad,FALSE,IN,https://lh3.googleusercontent.com/gps-cs-s/AC9h4npMRG5KYAXqgLC9K_YO3cCByOV30f_KeS0XxM2jNykudp1QjpRsACLEXBfDBcyvHpkDiouNrQBl-ps-Jchqbxkt8xkSS_Ds3M8MIyy9TQwaP6Qwyu9TBJd6VOQRBl7fQU5lJsnG=w408-h544-k-no,1,FALSE,23.0421772,72.5872801,"Bhadreshwar Society, Shahibag",Monday,10 AM to 7:30 PM,Tuesday,10 AM to 7:30 PM,Wednesday,10 AM to 7:30 PM,Thursday,10 AM to 7:30 PM,Friday,10 AM to 7:30 PM,Saturday,10 AM to 7 PM,Sunday,Closed,FALSE,+91 90165 28799,9.19E+11,380004,30,64,47,0,17,0,0,Gujarat,"Sumel 11, An Indian Textile Plaza, 143, BAPS Cir, nr. BAPS",ઓર્બિટ મલ્ટિપ્રીન્ટ,3.9,https://www.google.com/maps/search/?api=1&query=Orbit%20Multiprint&query_place_id=ChIJT1lP4n-FXjkRK2VMvgcpjeo,http://www.orbitmultiprint.com/
Manibhadra Enterprise( Mfg’s Of Dr File Printing),"Shop No, E-108, SUMEL BUSINESS PARK-6, Shahibag, Ahmedabad, Gujarat 380004, India",Print shop,Offset printing service,,,,,,,,,Print shop,5.56E+18,Ahmedabad,FALSE,IN,https://lh3.googleusercontent.com/p/AF1QipOW3A3sUnJSb9iMBojf8PGT9QnilBVN85eS_DEJ=w408-h306-k-no,31,FALSE,23.046758,72.583687,Shahibag,Monday,10 AM to 8 PM,Tuesday,10 AM to 8 PM,Wednesday,10 AM to 8 PM,Thursday,10 AM to 8 PM,Friday,10 AM to 8 PM,Saturday,10 AM to 8 PM,Sunday,Closed,FALSE,+91 98240 69174,9.20E+11,380004,33,1,1,0,0,0,0,Gujarat,"Shop No, E-108, SUMEL BUSINESS PARK-6",,5,https://www.google.com/maps/search/?api=1&query=Manibhadra%20Enterprise(%20Mfg%E2%80%99s%20Of%20Dr%20File%20Printing)&query_place_id=ChIJgTyGy26EXjkRqtDJhEwdJE0,
Ashirwad Xerox,"2H44+826, Chitrakar Rasiklal Parikh Marg, Opposite Sahajanand Complex, Bhatta, Paldi, Ahmedabad, Gujarat 380007, India",Copy shop,,,,,,,,,,Copy shop,1.31E+19,Ahmedabad,TRUE,IN,https://lh3.googleusercontent.com/gps-cs-s/AC9h4nr2rK4JfrB5D3vHWTj_FtX1NFUpwXxq1gPA0scUsYRP8Q4ioZf96Lr5XaJzj1e_MeIppnoLgsBvSTfjhybXLOVD4QC4tDfKnBERwCYoMHUdymIeppr0X5xTcNYeyAbdhZjFotxbWg=w408-h725-k-no,2,FALSE,23.0057779,72.5550037,"Bhatta, Paldi",,,,,,,,,,,,,,,FALSE,+91 98259 76559,9.20E+11,380007,7,2,,,,,,Gujarat,"2H44+826, Chitrakar Rasiklal Parikh Marg, Opposite Sahajanand Complex",આશીર્વાદ ઝેરોક્સ,5,https://www.google.com/maps/search/?api=1&query=Ashirwad%20Xerox&query_place_id=ChIJZbXk2BqFXjkRQwaVnOhOKLY,
Shivam Xerox,"2JP8+24H, Pushparaj Complex, Near Potalia Char Rasta, Saraspur, Ahmedabad, Gujarat 380018, India",Copy shop,,,,,,,,,,Copy shop,6.64E+18,Ahmedabad,TRUE,IN,https://streetviewpixels-pa.googleapis.com/v1/thumbnail?panoid=8uCZWtVs7ZwwCCynhHC48w&cb_client=search.gws-prod.gps&w=408&h=240&yaw=225.19492&pitch=0&thumbfov=100,1,FALSE,23.0350537,72.6153572,Saraspur,Monday,10 AM to 8 PM,Tuesday,10 AM to 8 PM,Wednesday,10 AM to 8 PM,Thursday,10 AM to 8 PM,Friday,10 AM to 8 PM,Saturday,10 AM to 8 PM,Sunday,Closed,FALSE,+91 94092 50394,9.19E+11,380018,28,5,1,3,0,0,1,Gujarat,"2JP8+24H, Pushparaj Complex, Near Potalia Char Rasta",શિવમ ઝેરોક્ષ,3.8,https://www.google.com/maps/search/?api=1&query=Shivam%20Xerox&query_place_id=ChIJWx0zY52GXjkRrP3MNfLAK1w,
UDGGAM PRINT,"1,GROUND FLOOR,CENTURY MARKET, CHAR RASTA, next to THE CENTRAL MALL, nr. AMBAVADI, Ambawadi, Ahmedabad, Gujarat 380006, India",Print shop,,,,,,,,,,Print shop,1.47E+19,Ahmedabad,FALSE,IN,https://lh3.googleusercontent.com/gps-cs-s/AC9h4noCO2DW4ljD_Co3TcP_eKgZzaZzgRHq7YngNiwqp7KCQwX_tg1_Qyf36PAfQyjWvnPSyydvneCb2Ot4wdDJcLjrNkydim05HC4gWmDq95y-sLEQPBZwKjE16Z_414sBMW_E3gr1=w408-h544-k-no,3,FALSE,23.0208458,72.5542661,"Panchavati Society, Ambawadi",Monday,10 AM to 8:30 PM,Tuesday,10 AM to 8:30 PM,Wednesday,10 AM to 8:30 PM,Thursday,10 AM to 8:30 PM,Friday,10 AM to 8:30 PM,Saturday,10 AM to 8:30 PM,Sunday,10 AM to 8:30 PM,FALSE,+91 82648 43297,9.18E+11,380006,40,2,2,0,0,0,0,Gujarat,"1,GROUND FLOOR,CENTURY MARKET, CHAR RASTA, next to THE CENTRAL MALL, nr. AMBAVADI",,5,https://www.google.com/maps/search/?api=1&query=UDGGAM%20PRINT&query_place_id=ChIJ9SmNArGFXjkRUzEPZYITxMs,